OBJECTID,PUBLIC_NAME,PARENT_NAME,NESTED,OFFICIAL_NAME,LABEL,ALIAS,DPP_ASSET_ID,ADDRESS_911,ZIP_CODE,ADDRESS_BRT,ALIAS_ADDRESS,ACREAGE,PROPERTY_CLASSIFICATION,PPR_USE,PPR_DISTRICT,PPR_OPS_DISTRICT,COUNCIL_DISTRICT,POLICE_DISTRICT,CITY_SCALE_MAPS,LOCAL_SCALE_MAPS,PROGRAM_SITES,COMMENTS,Shape__Area,Shape__Length
1,William H (Billy) Markward Memorial Playground,Schuylkill River Park,Y,William H. (Billy) Markward Memorial Playground,Markward ,,1903,400 S TANEY ST,19146,"400-16 S TANEY ST, 338-46 S 26TH ST, 300 S 26TH ST","400-16 S TANEY ST;Pine & Taney;338-46 S 26TH ST;300 S 26TH ST;2620 Pine St;350 S 26th St",3.37915795,NEIGHBORHOOD_PARK,RECREATION_SITE,7,"5, 7",2,9,Y,Y,Y,,23295.6640625,892.868011862163
2,Schuylkill Banks,Schuylkill Banks,N,,Schuylkill Banks,Schuylkill River Park,2794,400 S TANEY ST,19103,,400-16 S TANEY ST,14.71731429,NEIGHBORHOOD_PARK,GREENWAY_PARKWAY,7,"5, 7","2, 5","9, 17",Y,Y,N,Bill 160113 (4/14/16) -South of South St Bridge,101477.1796875,9300.67028883792
3,Schuylkill River Park,Schuylkill River Park,N,,Schuylkill River Park,,2992,400 S TANEY ST,19146,"400-16 S TANEY ST, 338-46 S 26TH ST, 300 S 26TH ST, 302-22 S 25TH ST, 2500R-06 LOCUST ST","Pine & Taney;400-16 S TANEY ST, 338-46 S 26TH ST, 300 S 26TH ST, 302-22 S 25TH ST, 2500R-06 LOCUST ST",7.32699974,NEIGHBORHOOD_PARK,RECREATION_SITE,7,"5, 7",2,9,Y,Y,N,,50512.58203125,1259.3046568075
4,Frankford Boat Launch,Frankford Boat Launch,N,Frankford Boat Launch,Frankford Launch,"PA Fish & Boat;Frankford Arsenal Boat Launch",3090,5625 TACONY ST,19137,5625 TACONY ST,5650 Tacony St,11.36977501,NEIGHBORHOOD_PARK,BOATHOUSE_LAUNCH,2,2,6,15,Y,Y,N,,78515.3359375,1585.37611414373
5,Orthodox Street Park,Orthodox Street Park,N,,Orthodox,"Orthodox Street Parcel; Bridesburg Riverfront Park",3091,3101 ORTHODOX ST,19137,3101 ORTHODOX ST,,10.56737903,NEIGHBORHOOD_PARK,UNDEVELOPED,5,2,6,15,Y,N,N,"Officially acquired from PAID in 10/2019. Doc 53586794; LWCF Restrictions",72926.1875,1304.90141600924
6,Wissahickon Valley Park,Wissahickon Valley Park,N,Wissahickon Valley Park,Wissahickon Valley Park, ,1357,,19128,,,2064.12583435,WATERSHED_PARK,CONSERVATION_DRAINAGE_WATERSHED,4,4,"4, 8","5, 14, 39",Y,Y,N,,14273555.8398438,86741.6842223679
7,West Fairmount Park,West Fairmount Park,N,West Fairmount Park,West Fairmount Park,,1714, ,19131,3401 W GIRARD AVE,3401 W GIRARD AVE,1269.28728486,WATERSHED_PARK,CONSERVATION_DRAINAGE_WATERSHED,7,5,"3, 4","16, 19",Y,Y,N,,8760929.53515625,58820.0334024296
8,Pennypack Park,Pennypack Park,N,Pennypack Park,Pennypack Park,Little City (Near Rhawn St),1651, ,19152,,,1367.41921908,WATERSHED_PARK,CONSERVATION_DRAINAGE_WATERSHED,1,1,"6, 10","7, 8, 15",Y,Y,N,,9460039.08984375,49816.7920943008
9,East Fairmount Park,East Fairmount Park,N,East Fairmount Park,East Fairmount Park, ,1713, ,19121,"2500 SPRING GARDEN ST;3300 N 33RD ST","2500 SPRING GARDEN ST;3300 N 33RD ST",649.68502154,WATERSHED_PARK,CONSERVATION_DRAINAGE_WATERSHED,7,5,"4, 5","5, 9, 22, 39",Y,Y,N,,4483651.453125,24720.3680039579
10,Tacony Creek Park,Tacony Creek Park,N,Tacony Creek Park,Tacony Creek Park,Brookwood Park,1961, ,19120,,,316.73957654,WATERSHED_PARK,CONSERVATION_DRAINAGE_WATERSHED,3,3,"7, 9","2, 15, 24, 25, 35",Y,Y,N,,2188602.3359375,21276.4622527369
11,Franklin Delano Roosevelt Park,Franklin Delano Roosevelt Park,N,Franklin Delano Roosevelt (FDR) Park,FDR Park,"League Island Park;The Lakes;FDR Park",231,3500 S BROAD ST,19145,"3500 S BROAD ST, 1954 PATTISON AVE","Broad & Pattison;1954 PATTISON AVE",348.60505699,WATERSHED_PARK,MISC_PARK,9,7,2,1,Y,Y,N,,2400032.01171875,6113.19338447306
12,Hunting Park,Hunting Park,N,,Hunting,,845,1101 W HUNTING PARK AVE,19140,"4101 OLD YORK RD, 903 W WINGOHOCKING ST","900 HUNTING PARK AVE, 9th & Roosevelt;4101 OLD YORK RD, 903 W WINGOHOCKING ST",76.46722118,REGIONAL_PARK,RECREATION_SITE,3,3,"5, 7",25,Y,Y,Y,,528225.9140625,3213.62001072093
13,Awbury Park and Recreation Center,Awbury Park and Recreation Center,N,Awbury Park and Recreation Center,Awbury,,604,6101 ARDLEIGH ST,19138,6101 ARDLEIGH ST,Ardleigh & Haines,27.91906226,NEIGHBORHOOD_PARK,RECREATION_SITE,4,4,8,14,Y,Y,Y,Review the parcel boundaries,193069.48046875,2019.27802061779
14,Fisher Park,Fisher Park,N,Fisher Park,Fisher,,679,572 W SPENCER ST,19120,6000 N 05TH ST,"571 W SPENCER ST;610 W SPENCER ST;6000 N 05TH ST;5th & Nedro",24.49836533,NEIGHBORHOOD_PARK,RECREATION_SITE,3,3,9,35,Y,Y,Y,,169363.03125,1798.57864739545
15,Eastwick Regional Playground,Eastwick Regional Playground,N,Eastwick Regional Playground,Eastwick Regional,,499,7899 MERCURY PL,19153,2500 S 77TH ST,"80TH and MARS PL;2500 S 77TH ST",23.14650897,NEIGHBORHOOD_PARK,RECREATION_SITE,9,8,2,12,Y,Y,Y,,159370.9140625,3781.87753336697
16,Whitby Avenue Playground,Cobbs Creek Park,Y,,Whitby, ,1372,1300 COBBS CREEK PKY,19143,,,5.64603638,NEIGHBORHOOD_PARK,MISC_PARK,8,8,3,12,Y,Y,Y,,38916.484375,949.498194254136
17,29th and Passyunk Park,29th and Passyunk Park,N,,29th and Passyunk , ,432,2827 W PASSYUNK AVE,19145,2827 W PASSYUNK AVE,Newkirk & Passyunk ,0.5560274,NEIGHBORHOOD_PARK,MISC_PARK,9,7,2,1,Y,Y,Y,Owned by PennDOT,3830.2421875,247.032047885141
18,Price Street Play Lot,Price Street Play Lot,N,,Price St, ,826,185 W PRICE ST,19144,177-85 W PRICE ST,177-85 W PRICE ST,0.18084375,POCKET_PARK,MISC_PARK,4,4,8,14,Y,Y,N,,1249.83984375,143.734003094234
19,Sedgley Woods Disc Golf Course,East Fairmount Park,Y,,Sedgley Woods, ,3013,3400 RESERVOIR DR,19121,,,30.45421535,NEIGHBORHOOD_PARK,ATHLETIC_OTHER,7,5,4,22,Y,Y,N,,210135.56640625,1984.37546622561
20,Robert Wilson III Park,Cobbs Creek Park,Y,Robert Wilson III Park,Wilson,61st and Baltimore Ave Playground,3454,6100 BALTIMORE AVE,19143,,,1.16280072,NEIGHBORHOOD_PARK,MISC_PARK,8,8,3,12,Y,Y,Y,ADDRESS_BRT comes from a bigger parcel,8015.1875,360.391789080281
21,Rufus O Williams Memorial Playground,Cobbs Creek Park,Y,Rufus O. Williams Memorial Playground,R Williams,Cobbs Creek Playground,2128,700 COBBS CREEK PKY,19143,,"63rd St and Catherine St, 63rd St and Christian St",3.83114077,NEIGHBORHOOD_PARK,MISC_PARK,8,8,3,18,Y,Y,N,,26413.4296875,817.250366154819
22,Al Pearlman Sports Center,Al Pearlman Sports Center,N,,Pearlman,,1152,600 PORT ROYAL AVE,19128,600 PORT ROYAL AVE,Harner & Port Royal,7.02188644,NEIGHBORHOOD_PARK,ATHLETIC_OTHER,4,4,4,5,Y,Y,N,Land is PWD owned. PPR utilizes this portion of the land.,48566.60546875,889.244284354697
23,Lauretha Vaird Fields,Tacony Creek Park,Y,,Vaird,"Tabor Rams Club;Lauretha Vaird Boys and Girls Club",1890,4800 WHITAKER AVE,19120,,Whitaker & Loudon,6.30822911,NEIGHBORHOOD_PARK,RECREATION_SITE,3,3,7,25,Y,Y,Y,,43583.734375,858.843003786953
24,Torresdale and Enfield Fields,Pennypack Park,Y,,Torresdale and Enfield, ,1370,4600 ENFIELD AVE,19136,,,6.58788571,NEIGHBORHOOD_PARK,MISC_PARK,1,1,6,8,Y,Y,Y,,45538.640625,1309.04110482427
25,Chamounix Tennis Courts,West Fairmount Park,Y,,Chamounix Tennis, ,1827,3601 CHAMOUNIX DR,19131,3401 W GIRARD AVE,"3687 CHAMOUNIX DR;3250 CHAMOUNIX DR",4.16764054,NEIGHBORHOOD_PARK,ATHLETIC_OTHER,7,5,4,16,N,Y,N,,28774.60546875,1281.84781744333
26,Smith Memorial Playground and Playhouse,East Fairmount Park,Y,,Smith Memorial, ,1955,3418 SMITH MEMORIAL DR,19121,,"3500 RESERVOIR DR, 33rd & Oxford",4.58907699,NEIGHBORHOOD_PARK,RECREATION_SITE,7,5,4,22,Y,Y,Y,,31667.8125,730.793017830408
27,Garland and Bingham Fields,Tacony Creek Park,Y,,Garland and Bingham,Tabor and Garland Play Area,1368,620 GARLAND ST,19120,5153 E TABOR RD,"Tabor & Garland; 5153 E TABOR RD",3.48388091,NEIGHBORHOOD_PARK,ATHLETIC_OTHER,3,3,9,2,Y,Y,N,,24077.84765625,825.642883055371
28,Hammond and Nedro Fields,Tacony Creek Park,Y,,Hammond and Nedro,,1866,5901 HAMMOND AVE,19120,,5821 HAMMOND AVE,4.04154911,NEIGHBORHOOD_PARK,RECREATION_SITE,3,3,9,35,Y,Y,Y,,27937.47265625,773.909743367516
29,Fox Chase School Playground,Fox Chase Recreation Center,Y,,, ,0,7901 RIDGEWAY ST,19111,700 RHAWN ST,"601 BORBECK AVE;700 RHAWN ST;7976 ROCKWELL AVE;7901 RIDGEWAY ST;Rockwell & Ridgeway",1.71289653,NEIGHBORHOOD_PARK,MISC_PARK,1,1,10,2,N,N,N,"Hockey, Tennis, and Basketball Courts are the portions of School District land PPR leases.",11852.34375,572.244679510158
30,Wissahickon Environmental Center,Wissahickon Valley Park,Y,,Wissahickon Environ Center,"Tree House, Andorra Nature Center; Wissahickon Environmental Education Center",3456,300 W NORTHWESTERN AVE,19128,,,2.54221918,NEIGHBORHOOD_PARK,ENVIRONMENTAL_EDUCATION_CENTER,4,4,4,5,Y,Y,Y,,17594.54296875,654.043349331605
31,Ford Road Playground,West Fairmount Park,Y,,Ford Rd,Ford Road North,2899,3905 FORD RD,19131,3905 FORD RD,,1.59552959,NEIGHBORHOOD_PARK,MISC_PARK,7,5,4,"16, 19",Y,Y,Y,ADDRESS_BRT comes from a bigger parcel,11016.05078125,449.485675388502
32,Verree and Susquehanna Playground,Pennypack Park,Y,,Verree and Susquehanna,"Champions, Pennypack Park Playground",1371,8543 VERREE RD,19111,,,3.8526229,NEIGHBORHOOD_PARK,MISC_PARK,1,1,10,7,Y,Y,Y,,26663.0859375,1049.84986508725
33,Jose Manuel Collazo Park,Jose Manuel Collazo Park,N,Jose Manuel Collazo Park,Collazo ,,636,3261 MASCHER ST,19140,130-60 W WESTMORELAND ST,130-60 W WESTMORELAND ST,1.53913073,NEIGHBORHOOD_PARK,MISC_PARK,6,3,7,25,Y,Y,Y,,10626.72265625,413.465264223727
34,Frankford and Solly Playground,Pennypack Park,Y,,Frankford and Solly ,Rocky Falls Day Camp,2934,8318 FRANKFORD AVE,19136,8300 FRANKFORD AVE,8300 FRANKFORD AVE,2.19570924,NEIGHBORHOOD_PARK,RECREATION_SITE,1,1,6,8,Y,Y,Y,,15179.83984375,507.64008345044
35,26th and Pennsylvania Playground,East Fairmount Park,Y,,26th and Pennsylvania ,2600 Pennsylvania Ave Playground,3458,2700 PENNSYLVANIA AVE,19130,2500 SPRING GARDEN ST,"2601 PENNSYLVANIA AVE;2500 SPRING GARDEN ST",0.06715723,POCKET_PARK,MISC_PARK,7,5,5,9,Y,Y,Y,,463.2578125,90.0511486423769
36,60th and Baltimore Park,60th and Baltimore Park,N,,60th and Baltimore, ,543,5961 BALTIMORE AVE,19143,5961 BALTIMORE AVE,,0.26571922,POCKET_PARK,BREEZEWAY_ISLAND,8,8,3,18,Y,Y,N,,1831.67578125,175.690812560904
37,Rainbow De Colores Playground,Rainbow De Colores Playground,N,Rainbow De Colores Playground,Rainbow De Colores,"Dauphin Street Play Lot;5th Street",638,2326 N 05TH ST,19133,"2324-30 N 05TH ST, 2325 N REESE ST","2324-30 N 05TH ST, 2300 N 5th St;2325 N REESE ST",0.26964784,POCKET_PARK,MISC_PARK,6,6,7,26,Y,Y,N,,1861.05078125,187.019699508736
38,10th and Lemon Playground,10th and Lemon Playground,N,,10th and Lemon ,10th and Mount Vernon Playground,2914,1015 MOUNT VERNON ST,19123,1015-21 MOUNT VERNON ST,1015-21 MOUNT VERNON ST,0.21888602,POCKET_PARK,MISC_PARK,10,6,5,6,Y,Y,Y,,1509.67578125,169.494220720067
39,47th and Grays Ferry Park,47th and Grays Ferry Park,N,,47th and Grays Ferry, ,292,4700 PASCHALL AVE,19143,4700 PASCHALL AVE,,0.17619633,POCKET_PARK,BREEZEWAY_ISLAND,8,8,3,18,Y,Y,N,,1214.453125,152.80535810686
40,Butler and Percy Play Lot,Butler and Percy Play Lot,N,,Butler and Percy, ,649,919 W BUTLER ST,19140,913-921 BUTLER ST,913-921 BUTLER ST,0.14327997,POCKET_PARK,MISC_PARK,6,3,5,25,Y,Y,N,,989.55859375,124.780907198061
41,Horton Street Play Lot,Horton Street Play Lot,N,,Horton, ,463,233 HORTON ST,19139,225-35 HORTON ST,225-35 N HORTON ST,0.10438284,POCKET_PARK,MISC_PARK,8,8,4,19,Y,Y,N,,719.99609375,111.898570976726
42,45th and Sansom Tot Lot,45th and Sansom Tot Lot,N,,45th and Sansom,Chicken Park,266,4501 SANSOM ST,19139,122-24 S 45TH ST,122-24 S 45TH ST,0.13073694,POCKET_PARK,MISC_PARK,8,8,3,18,Y,Y,N,,901.51171875,130.555214755321
43,Lawrence Street Playground,Lawrence Street Playground,N,,Lawrence,Community Park,111,856 N LAWRENCE ST,19123,"854-58 N LAWRENCE ST, 857-61 N ORKNEY ST","854-58 N LAWRENCE ST, 857-61 N ORKNEY ST",0.14325806,POCKET_PARK,MISC_PARK,10,2,5,6,Y,Y,N,Divided by multiple parcels,988.125,139.17614576389
44,Webb Street Play Lot,Webb Street Play Lot,N,,Webb,Sergeant Tot Lot,799,2544 WEBB ST,19125,2536-38 WEBB ST,"2536-38 WEBB ST, Webb & Thompson",0.09988991,POCKET_PARK,MISC_PARK,5,2,1,26,Y,Y,N,,689.2109375,112.128423257431
45,Hunting Park Recreation Center,Hunting Park,Y,Hunting Park Recreation Center,Hunting Rec, ,3460,1101 W HUNTING PARK AVE,19140,4101 OLD YORK RD,"9th & Roosevelt;4101 OLD YORK RD",5.36612993,NEIGHBORHOOD_PARK,RECREATION_SITE,3,3,5,25,N,N,N,,37069.86328125,823.172364167107
46,Belmont Plateau,West Fairmount Park,Y,,Belmont Plateau, ,1818,1800 BELMONT MANSION DR,19131,3401 W GIRARD AVE,"Belmont and Montgomery;3401 W GIRARD AVE",46.97538673,REGIONAL_PARK,ATHLETIC_OTHER,7,5,4,16,Y,Y,N,,324232.3046875,2387.84594076442
47,Edgley Fields,East Fairmount Park,Y,Edgley Fields,Edgely, ,3106,2100 RESERVOIR DR,19121,,,28.20655772,NEIGHBORHOOD_PARK,ATHLETIC_OTHER,7,5,4,22,Y,Y,N,,194696.90234375,1744.46999944838
48,Dairy Fields,East Fairmount Park,Y,,Dairy, ,1841,3700 MOUNT PLEASANT DR,19121,,,14.78790273,NEIGHBORHOOD_PARK,ATHLETIC_OTHER,7,5,4,22,Y,Y,N,,102058.34765625,1283.57871962814
49,Salvatore Pachella Memorial Field,Wissahickon Valley Park,Y,Salvatore Pachella Memorial Field,Pachella,,1925,6901 HENRY AVE,19128,700 GORGAS LN,"700 LIVEZEY LA;700 GORGAS LN;900 WISES MILL RD",9.49054881,NEIGHBORHOOD_PARK,ATHLETIC_OTHER,4,4,4,5,Y,Y,N,,65613.5234375,1102.95898493264
50,Belmont and Edgley Fields,West Fairmount Park,Y,,Belmont and Edgley,"Belmont & Edgley Cricket Fields;Cricket(Archery);Edgley Ultimate;Frisbee and Archery",1816,4105 EDGLEY AVE,19131,3401 W GIRARD AVE,"4001 EDGLEY DR;3401 W GIRARD AVE",9.46666949,NEIGHBORHOOD_PARK,ATHLETIC_OTHER,7,5,4,16,Y,Y,N,,65354.66015625,1334.33980014086
51,David P Montgomery Field,Wissahickon Valley Park,Y,David P. Montgomery Field,Montgomery Field,"Daisy Fields;Daisy Day Camp",3065,5366 HERMIT LN,19128,,"620 HERMIT LA, Quentin & Vicaris, 5000 HERMIT LN",3.27317127,NEIGHBORHOOD_PARK,RECREATION_SITE,4,4,4,5,Y,Y,Y,,22614.1796875,737.07198829503
52,Dell Music Center,East Fairmount Park,Y,The Dell Music Center,Dell Center,"Robin Hood Dell East,Georgie Woods Entertainment Center,The Dell",1845,3101 STRAWBERRY MANSION DR,19132,3300 N 33RD ST,"3300 N 33RD ST;2500 SPRING GARDEN ST;2499 STRAWBERRY MN BR DR;2400 STRAWBERRY MN DR;Ridge & Huntingdon",8.53099306,NEIGHBORHOOD_PARK,OTHER,7,5,4,22,Y,Y,N,,58894.1875,1335.50353881206
53,Sweetbriar Fields,West Fairmount Park,Y,,Sweetbriar Fields, ,3117,3700 SWEETBRIAR LN,19131,3401 W GIRARD AVE,3401 W GIRARD AVE,10.07931019,NEIGHBORHOOD_PARK,ATHLETIC_OTHER,7,5,4,16,N,N,N,,69547.48046875,1055.34583438517
54,Ohio House Fields,West Fairmount Park,Y,,Ohio House Fields, ,3108,4700 STATES DR,19131,3401 W GIRARD AVE,3401 W GIRARD AVE,4.86953549,NEIGHBORHOOD_PARK,ATHLETIC_OTHER,7,5,4,19,N,N,N,,33608.58203125,852.413596640387
55,Chamounix Fields North,West Fairmount Park,Y,,Chamounix North,Chamounix North Softball Field,3105,3299 CHAMOUNIX DR,19131,,,4.01153431,NEIGHBORHOOD_PARK,ATHLETIC_OTHER,7,5,4,16,N,N,N,,27698.44140625,700.411167979631
56,Chamounix Fields South,West Fairmount Park,Y,,Chamounix South, ,3107,3701 CHAMOUNIX DR,19131,3401 W GIRARD AVE,3401 W GIRARD AVE,4.41430044,NEIGHBORHOOD_PARK,ATHLETIC_OTHER,7,5,4,16,N,N,N,,30474.42578125,692.434620138093
57,John F Boyce Memorial Field,Wissahickon Valley Park,Y,John F. Boyce Memorial Field,Boyce, ,3097,5901 HENRY AVE,19128,5801 HENRY AVE,5801 HENRY AVE,3.37907768,NEIGHBORHOOD_PARK,ATHLETIC_OTHER,4,4,4,5,Y,Y,N,ADDRESS_BRT comes from a bigger parcel,23352.6796875,687.18201835936
58,Arrow Field,Wissahickon Valley Park,Y,,Arrow,,730,640 W WALNUT LN,19128,640 W WALNUT LN,,3.37050531,NEIGHBORHOOD_PARK,ATHLETIC_OTHER,4,4,4,5,Y,Y,N,,23291.5390625,688.279500641932
59,Pennypack Environmental Center,Pennypack Park,Y,,Pennypack Environ Center,Verree Rd Interpretive Center,3462,8600 VERREE RD,19115,,,2.34792287,NEIGHBORHOOD_PARK,ENVIRONMENTAL_EDUCATION_CENTER,1,1,10,7,Y,Y,Y,Opened in 1978.,16252.84375,523.604683187518
60,Cobbs Creek Golf Club,Cobbs Creek Park,Y,Cobbs Creek Golf Club,Cobbs Creek Golf,"Karakung Golf Course;Olde Golf Course",993,7900 LANSDOWNE AVE,19151,"7800 CITY AVE, 7400 LANSDOWNE AVE","68th & Haverford;7800 CITY AVE, 7400 LANSDOWNE AVE",324.12943108,WATERSHED_PARK,ATHLETIC_GOLF,8,8,4,19,Y,Y,N,Located in Cobbs Creek Park. Closed for Renovations 11/2020. Cobbs Creek Park was created 1904-1928. Golf Club was opened in 1916.,2235999.84765625,12656.9702712807
61,Pennypack on the Delaware,Pennypack on the Delaware,N,,Pennypack on the Delaware,"Pennypack Park at Mouth of Delaware;River Fields",1631,8201 STATE RD,19136,"8201 STATE RD, 8401 STATE RD","7801 State Rd, 7999 STATE RD;8401 STATE RD",180.49977858,WATERSHED_PARK,MISC_PARK,1,1,6,"8, 15",Y,Y,N,,1247389.9140625,13088.4751263603
62,Fox Chase Farm,Fox Chase Farm,N,,Fox Chase Farm,"Butler Exhibit Farm;Butler Tract",1323,8821 PINE RD,19111,8800 PINE RD,"8700 PINE RD;8800 PINE RD",119.99862952,REGIONAL_PARK,URBANAGRICULTURE_FARM,1,1,10,7,Y,Y,N,Not completely parcelized,830734.17578125,3901.82124504247
63,Morris Park,Morris Park,N,Morris Park,Morris Park, ,1283,6600 SHERWOOD RD,19151,,68th St & Lansdowne Ave,127.50472413,REGIONAL_PARK,CONSERVATION_DRAINAGE_WATERSHED,8,8,4,19,Y,Y,N,,879793.0703125,6467.92492548024
64,Juniata Golf Club,Tacony Creek Park,Y,Juniata Golf Club,Juniata Golf Club, ,348,1391 E CAYUGA ST,19124,,Castor & Cayuga,91.92997071,REGIONAL_PARK,ATHLETIC_GOLF,3,3,7,"15, 24",Y,Y,N,,635043.5,4652.88776118183
65,Walnut Lane Golf Club,Wissahickon Valley Park,Y,Walnut Lane Golf Club,Walnut Ln Golf, ,1656,5819 MAGDALENA ST,19128,"5801 HENRY AVE, 639 WALNUT LN, 700 WALNUT LN","5801 HENRY AVE, 639 WALNUT LN, 700 WALNUT LN",67.27551119,REGIONAL_PARK,ATHLETIC_GOLF,4,4,4,5,Y,Y,N,Golf course created between 1934-1940.,464904.0625,5827.2637285614
66,Walton Run,Walton Run,N,,Walton Run, ,2790,11000 ACADEMY RD,19154,,,90.70862544,REGIONAL_PARK,CONSERVATION_DRAINAGE_WATERSHED,1,1,10,8,Y,Y,N,,627888.7109375,6253.61003671829
67,John F Byrne Golf Club,John F Byrne Golf Club,N,John F. Byrne Golf Club,Byrne Golf,"Holmesburg Golf Course;Poquessing Golf Course",547,9550 LEON ST,19114,9550 LEON ST,Eden & Leon,85.74780505,REGIONAL_PARK,ATHLETIC_GOLF,1,1,6,8,Y,Y,N,1972 Golf Course transferred to Fairmount Park Commission from the City.,593109.26953125,4176.82510982403
68,Joseph C Fluehr Memorial Park,Joseph C Fluehr Memorial Park,N,Joseph C. Fluehr Memorial Park,Fluehr,Eden Hallmount Park,188,4800 GRANT AVE,19114,4800 GRANT AVE,4200 Grant Ave,65.37906082,REGIONAL_PARK,MISC_PARK,1,1,6,8,Y,Y,N,Condemned portion (triangle) behind Eden added to park in 1979.,452133.09375,3072.71169341336
69,Philadelphia Zoo,West Fairmount Park,Y,,Zoo,Philadelphia Zoological Gardens,504,3400 W GIRARD AVE,19104,3400 W GIRARD AVE,,55.03049361,REGIONAL_PARK,ZOO,7,5,"3, 4",16,Y,Y,N,Adjusted to include outer curbline of Zoological St but not RR retaining wall.,379641.70703125,4266.56299060025
70,Manatawna Farm,Manatawna Farm,N,,Manatawna, ,1899,100 SPRING LN,19128,8482 HAGYS MILL RD,"844 MANATAWNA RD, 899 Manatawna Dr;8482 HAGYS MILL RD",64.52599005,REGIONAL_PARK,URBANAGRICULTURE_FARM,4,4,4,5,Y,Y,N,,446276.31640625,3965.8280149092
71,Wisters Woods Park,Wisters Woods Park,N,,Wisters Woods, ,875,1998 BELFIELD AVE,19141,"5401 E WISTER ST, 1901 LINDLEY AVE, 432-60 E WISTER ST, 1601 LINDLEY AVE","Duncannon & Wister;5401 E WISTER ST, 1901 LINDLEY AVE, 432-60 E WISTER ST, 1601 LINDLEY AVE",61.71951434,REGIONAL_PARK,CONSERVATION_DRAINAGE_WATERSHED,3,4,8,"14, 35",Y,Y,N,,426571.81640625,7815.64559103101
72,Fairmount Park Horticulture Center,West Fairmount Park,Y,Fairmount Park Horticulture Center,Horticulture Center, ,1874,4200 HORTICULTURAL DR,19131,3401 W GIRARD AVE,"4180 HORTICULTURAL DR; 100 N HORTICULTURAL DR",40.27234079,REGIONAL_PARK,URBANAGRICULTURE_GARDEN,7,5,4,16,Y,Y,N,Horticulture Center built in 1976,277920.48828125,2672.30394746209
73,Wooden Bridge Run,Wooden Bridge Run,N,,Wooden Bridge, ,1632,2855 WILLITS RD,19114,2855 WILLITS RD,,49.09586334,REGIONAL_PARK,CONSERVATION_DRAINAGE_WATERSHED,1,1,6,8,Y,Y,N,Not completely parcelized,339623.484375,4653.00005580835
74,Bartrams Garden,Bartrams Garden,N,Bartram's Garden National Historic Landmark,Bartrams Garden,Bartram's Homestead,476,5400 LINDBERGH BLVD,19143,2901 S 56TH ST,"5443 Bartram Rd, 57th & Schuylkill River; 2901 S 56TH ST",50.02628628,REGIONAL_PARK,HISTORIC_SITE,9,8,3,12,Y,Y,N,,344716,3538.40289469443
75,Wissinoming Park,Wissinoming Park,N,Wissinoming Park,Wissinoming ,,1973,5801 FRANKFORD AVE,19135,5801 FRANKFORD AVE,"Frankford & Comly;5773 FRANKFORD AVE;5747 FRANKFORD AVE;4043 E CHELTENHAM AVE",42.6326946,REGIONAL_PARK,RECREATION_SITE,2,2,6,15,Y,Y,Y,,294567.20703125,2216.66894776195
76,Fernhill Park,Fernhill Park,N,,Fernhill, ,833,4600 MORRIS ST,19144,"4600 MORRIS ST, 4526 PULASKI AVE","Abbottsford & Morris;4526 PULASKI AVE;500 W ABBOTTSFORD AVE",42.3860045,REGIONAL_PARK,RECREATION_SITE,3,4,8,39,Y,Y,Y,,292812.3984375,4312.70091642165
77,Roxborough Reservoir Park,Roxborough Reservoir Park,N,Roxborough Reservoir Park,Roxborough Reservoir, ,2792,601 PORT ROYAL AVE,19128,601 PORT ROYAL AVE,,37.28518654,NEIGHBORHOOD_PARK,RESERVOIR,4,4,4,5,Y,Y,N,,257859.79296875,2021.17172454774
78,Manayunk Canal,Manayunk Canal,N,,Manayunk Canal, ,2793,109 FOUNTAIN ST,19127,"4500 MAIN ST;7600 NIXON ST","7 Lock St;4500 MAIN ST",33.80228203,NEIGHBORHOOD_PARK,GREENWAY_PARKWAY,4,4,4,5,Y,Y,N,,233622.22265625,9628.9668050743
79,Carroll Park (Cobbs Creek),Cobbs Creek Park,Y,,Carroll (Cobbs Creek), ,3098,7800 CITY AVE,19151,,,29.57766757,NEIGHBORHOOD_PARK,CONSERVATION_DRAINAGE_WATERSHED,8,8,N/A,N/A,Y,Y,N,Edited boundaries per October 1928 ordinance (in archives). Not in City of Philadelphia City Limits,204083.87890625,2504.98710700587
80,Holme Crispin Park,Holme Crispin Park,N,,Holme Crispin,"Pennypack Community Center, Crispin Gardens Athletic Club",1633,2999 HOLME AVE,19136,"2870 WILLITS RD, 3064 HOLME AVE","Holme & Convent;2870 WILLITS RD, 3064 HOLME AVE",31.64392659,NEIGHBORHOOD_PARK,RECREATION_SITE,1,1,6,8,Y,Y,Y,Crispin Gardens Athletic Club leases building and fields.,218851.6875,3325.54649619201
81,Disston Park,Disston Park,N,,Disston Park,Keystone,170,6447 KEYSTONE ST,19135,"6401 KEYSTONE ST, 6501 KEYSTONE ST, 6601 KEYSTONE ST, 6701 KEYSTONE ST, 6901 KEYSTONE ST, 6951 KEYSTONE ST","6501-6951 KEYSTONE ST;4423 LONGSHORE AVE;Keystone & Princeton;6401 KEYSTONE ST, 6501 KEYSTONE ST, 6601 KEYSTONE ST, 6701 KEYSTONE ST, 6901 KEYSTONE ST, 6951 KEYSTONE ST",23.50004695,NEIGHBORHOOD_PARK,MISC_PARK,2,2,6,15,Y,Y,N,,162358.171875,4343.49007874954
82,Poquessing Creek Park 1,Poquessing Creek Park,Y,,Poquessing Creek Park, ,2795,1247 STEVENS RD,19116,,1217 STEVENS RD,23.39023796,NEIGHBORHOOD_PARK,CONSERVATION_DRAINAGE_WATERSHED,1,1,10,7,N,N,N,,162108.46484375,3112.51926328185
83,Jim Junod Recreation Center,Jim Junod Recreation Center,N,Jim Junod Recreation Center,Junod ,,1883,12770 DUNKS FERRY RD,19154,3102 MECHANICSVILLE RD,"12800 DUNKS FERRY RD;12776 DUNKS FERRY RD;12754 DUNKSFERRY RD;3102 MECHANICSVILLE RD;Dunksferry & Mechanicsville",23.5159859,NEIGHBORHOOD_PARK,RECREATION_SITE,1,1,10,8,Y,Y,Y,,162859.1875,1674.55138451237
84,Michael Palmer Playground,Michael Palmer Playground,N,Michael Palmer Playground,M Palmer ,Far Northeast Athletic Association,1926,2972 COMLY RD,19154,"11701 THORNTON RD, 2981 COMLY RD","11701 THORNTON RD;3035 COMLY RD;Comly & Thornton;2981 COMLY RD;11774 THORNTON RD;2929 COMLY RD",74.15854842,REGIONAL_PARK,RECREATION_SITE,1,1,10,8,Y,Y,Y,Northern portion of Palmer is leased to Far Northeast Athletic Association,513500.18359375,4043.88037374867
85,29th and Chalmers Playground,29th and Chalmers Playground,N,,29th and Chalmers, ,1990,2900 N 29TH ST,19132,3001 W LEHIGH AVE,"3001 W LEHIGH AVE;2800 CHALMERS AVE",15.02876961,NEIGHBORHOOD_PARK,RECREATION_SITE,6,6,4,39,Y,Y,Y,Land is owned by School District-PPR leases,103762.9375,1368.65529349281
86,Joseph E Mander Playground,East Fairmount Park,Y,Joseph E. Mander Playground,Mander,,1900,2102 N 33RD ST,19132,,"33rd & Diamond;3309 DIAMOND ST;2142 N 33RD ST;3303 DIAMOND ST;2140 N 33RD ST",22.26603528,NEIGHBORHOOD_PARK,RECREATION_SITE,7,5,4,22,Y,Y,Y,,153686.9140625,1574.92911602327
87,Susan Gorgas Park,Susan Gorgas Park,N,Susan Gorgas Park,Gorgas,,803,6424 RIDGE AVE,19128,6300 RIDGE AVE,"6300 RIDGE AVE, Ridge & Hermitage",21.12253793,NEIGHBORHOOD_PARK,RECREATION_SITE,4,4,4,5,Y,Y,Y,,145994.02734375,2233.10373336935
88,Marconi Plaza,Marconi Plaza,N,Marconi Plaza,Marconi,Oregon Plaza,1221,2700 S BROAD ST,19148,"2700 S BROAD ST, 2701 S BROAD ST","Broad & Oregon;2701 S BROAD ST",18.84621248,NEIGHBORHOOD_PARK,SQUARE_PLAZA,9,7,2,"1, 3",Y,Y,N,,129800.9453125,2098.04847410323
89,Fort Mifflin,Fort Mifflin,N,Fort Mifflin,Ft Mifflin,Fort Mifflin Historical Site,1267,4800 FORT MIFFLIN RD,19153,4800 FORT MIFFLIN RD,,40.37308731,REGIONAL_PARK,HISTORIC_SITE,9,8,2,12,Y,Y,N,,277736.31640625,3600.2981422915
90,J Francis Finnegan Playground,J Francis Finnegan Playground,N,J. Francis Finnegan Playground,J Finnegan,"Paschall Playground; James Finnegan",95,6801 GROVERS AVE,19142,6801 GROVERS AVE,69th & Grovers,17.69747417,NEIGHBORHOOD_PARK,RECREATION_SITE,9,8,2,12,Y,Y,Y,,121886.86328125,1833.57539529764
91,Lawncrest Recreation Center,Lawncrest Recreation Center,N,Lawncrest Recreation Center,Lawncrest,,1891,6030 RISING SUN AVE,19111,6000 RISING SUN AVE,"6000 RISING SUN AVE, Rising Sun & Comly",14.83832589,NEIGHBORHOOD_PARK,RECREATION_SITE,2,3,9,2,Y,Y,Y,"Library, Water, and PPD/Fire portions of land are not administered by PPR.",102591.1875,1381.91600771485
92,Pastorius Park,Pastorius Park,N,Pastorius Park,Pastorius, ,1213,200 W HARTWELL LN,19118,"198, 200, 201 W HARTWELL LN, 220 SUNRISE LN","Pocono & Southhampton, Lincoln Dr & Abington Ave;198, 200, 201 W HARTWELL LN, 220 SUNRISE LN",16.46122215,NEIGHBORHOOD_PARK,MISC_PARK,4,4,8,14,Y,Y,N,"Named for Francis Pastorius; Divided by multiple parcels",113892.90234375,1639.27795576302
93,Joseph F Vogt Playground,Joseph F Vogt Playground,N,Joseph F. Vogt Playground,Vogt,,1968,4351 UNRUH AVE,19135,4131 UNRUH AVE,"4131 UNRUH AVE;4240 KNORR ST",15.83191769,NEIGHBORHOOD_PARK,RECREATION_SITE,2,2,6,15,Y,Y,Y,,109404.5625,1403.38833453912
94,American Legion Playground,American Legion Playground,N,American Legion Playground,American ,,1808,4801 DEVEREAUX AVE,19135,6201 TORRESDALE AVE,"6201 TORRESDALE AVE;Torresdale & Devereaux",15.72179477,NEIGHBORHOOD_PARK,RECREATION_SITE,2,2,6,15,Y,Y,Y,,108609.98046875,1363.73371334345
95,George Jacobs Playground,George Jacobs Playground,N,George Jacobs Playground,Jacobs ,,1877,4500 LINDEN AVE,19136,9050 TORRESDALE AVE,"4558 LINDEN AVE;9050 TORRESDALE AVE;Linden & Jackson",14.68930411,NEIGHBORHOOD_PARK,RECREATION_SITE,1,1,6,8,Y,Y,Y,Torresdale Boys Club leases the athletic buliding and fields on the property.,101574.33203125,1369.23199962801
96,Fox Chase Recreation Center,Fox Chase Recreation Center,N,Fox Chase Recreation Center,Fox Chase,Fox Chase School Playground,1857,7901 RIDGEWAY ST,19111,"601 BORBECK AVE, 700 RHAWN ST","601 BORBECK AVE;700 RHAWN ST;7976 ROCKWELL AVE;7901 RIDGEWAY ST;Rockwell & Ridgeway",16.36922845,NEIGHBORHOOD_PARK,RECREATION_SITE,1,1,10,2,Y,Y,Y,Fox Chase School Playground land portion is leased from School District,113263.57421875,1538.34936289044
97,Torresdale Recreation Center,Torresdale Recreation Center,N,Torresdale Recreation Center,Torresdale ,,68,9501 LEON ST,19114,9550 FRANKFORD AVE,"9550 FRANKFORD AVE;9500 FRANKFORD AVE;Frankford & Aubrey",14.22124977,NEIGHBORHOOD_PARK,RECREATION_SITE,1,1,6,8,Y,Y,Y,,98360.6171875,1389.36403544169
98,William B Simons Recreation Center,William B Simons Recreation Center,N,,Simons,,1953,7224 WOOLSTON AVE,19138,1601-35 E WALNUT LN,"1601-35 E WALNUT LA, 7200 WOOLSTON AVE, Walnut & Rodney",13.12056744,NEIGHBORHOOD_PARK,RECREATION_SITE,4,4,9,14,Y,Y,Y,,90752.52734375,1263.76911352307
99,Olney Recreation Center,Olney Recreation Center,N,Olney Recreation Center,Olney ,,1924,199 E SPENCER AVE,19120,100 E GODFREY AVE,"100 E GODFREY AVE;A & Champlost;6000 A ST;6059 A ST",13.62152119,NEIGHBORHOOD_PARK,RECREATION_SITE,3,3,9,35,Y,Y,Y,,94166.74609375,1312.85553825835
100,Wakefield Park,Wakefield Park,N,,Wakefield, ,877,5300 N 16TH ST,19141,"5100 N 16TH ST, 5300 N 16TH ST","16th & Lindley;5100 N 16TH ST",14.64813953,NEIGHBORHOOD_PARK,CONSERVATION_DRAINAGE_WATERSHED,3,4,8,35,Y,Y,N,,101235.57421875,1975.17995676777
101,Charles A Russo Playground,Charles A Russo Playground,N,Charles A. Russo Playground,Russo,Tacony Park,1946,7301 TORRESDALE AVE,19136,7301 TORRESDALE AVE,"7321 TORRESDALE AVE;Torresdale & Cottman;7370 EDMUND ST;7352 EDMUND ST",12.46294006,NEIGHBORHOOD_PARK,RECREATION_SITE,2,1,6,15,Y,Y,Y,Mayfair Athletic Club leases the southeastern building on the Russo property.,86125.8515625,1186.86403613396
102,Max Myers Playground,Max Myers Playground,N,Max Myers Playground,M Myers ,,1904,1805 HELLERMAN ST,19149,1601 HELLERMAN ST,"1601 HELLERMAN ST;1800 MAGEE AVE;6500 BUSTLETON AVE;6501 HORROCKS ST;Horrocks & Magee",12.3703873,NEIGHBORHOOD_PARK,RECREATION_SITE,2,1,7,2,Y,Y,Y,,85506.94140625,1232.70662897891
103,Corporal Jimmy OConnor Memorial Playground,Corporal Jimmy OConnor Memorial Playground,N,Corporal Jimmy O'Connor Memorial Playground,Jimmy OConnor,"Chalfont & Deerpath Playground;Chalfont Playground",1826,4340 DEERPATH LN,19154,"4330 DEERPATH LN, 11061 KNIGHTS RD, 4330 DEERPATH LN, 11081 KNIGHTS RD","4200 DEERPATH LN;4330 DEERPATH LN;4336 DEERPATH LA;4330-40 DEERPATH LN;4330 DEERPATH LN;11081 KNIGHTS RD;11061 KNIGHTS RD",13.73995851,NEIGHBORHOOD_PARK,RECREATION_SITE,1,1,10,8,Y,Y,Y,"Land is owned by City, School District owns the track land and south driveway, which PPR leases. Our Lady of Calvary Athletic Association leases out athletic fields and track.",95091.53125,2096.04275113734
104,Gustine Recreation Center,Gustine Recreation Center,N,Gustine Recreation Center,Gustine,"Gustine Lake Rec Center; Legacy Tennis",1984,4842 RIDGE AVE,19129,,4868 RIDGE AVE,12.12366796,NEIGHBORHOOD_PARK,RECREATION_SITE,7,4,4,39,Y,Y,Y,,83738.33203125,1287.66844477851
105,Clarence H Clark Park,Clarence H Clark Park,N,,Clark,,2906,4301 CHESTER AVE,19104,"4301 CHESTER AVE, 1101 S 45TH ST","43rd & Woodland;1101 S 45TH ST",12.03401606,NEIGHBORHOOD_PARK,MISC_PARK,8,8,3,18,Y,Y,N,,82961.578125,1786.2232806261
106,William A Lackman Memorial Playground,William A Lackman Memorial Playground,N,William A. Lackman Memorial Playground,Lackman ,,1888,1165 BARTLETT ST,19115,800 BARTLETT ST,"800 BARTLETT ST;1101 BARTLETT ST;1151 BARTLETT ST;Chesworth & Bartlett",11.44188251,NEIGHBORHOOD_PARK,RECREATION_SITE,1,1,10,7,Y,Y,Y,,79233.72265625,1145.94601696385
107,William (Billy) Gambrel Playground,William (Billy) Gambrel Playground,N,William (Billy) Gambrel Playground,Gambrel,"Whitehall Commons Playground;White Hall Commons",1862,1900 WAKELING ST,19124,1900 WAKELING ST,4950 DITMAN ST,11.54479864,NEIGHBORHOOD_PARK,RECREATION_SITE,5,2,7,15,Y,Y,Y,,79743.875,1184.68408403015
108,Eastwick Park,Eastwick Park,N,,Eastwick Park,,400,7401 LINDBERGH BLVD,19153,7401 LINDBERGH BLVD,74th & Lindbergh,11.30893686,NEIGHBORHOOD_PARK,MISC_PARK,9,8,2,12,Y,Y,N,,77867.7890625,1160.15568491084
109,Carmella A DiTizio Playground,Carmella A DiTizio Playground,N,Carmella A. DiTizio Playground,Carmella ,Whitehall Playground,1823,2150 WAKELING ST,19124,2100 WAKELING ST,"2100 WAKELING ST, 2180 WAKELING ST",11.18319598,NEIGHBORHOOD_PARK,RECREATION_SITE,5,2,7,15,Y,Y,Y,,77239.69921875,1102.92890254874
110,George C Pelbano Playground,George C Pelbano Playground,N,George C. Pelbano Playground,Pelbano ,"Rhawnhurst Raiders Athletic Association;The Frank Bond Memorial Field",1987,2138 SOLLY AVE,19152,8101 BUSTLETON AVE,"8101 BUSTLETON AVE, Bustleton & Solly; 2124 SOLLY AVE",11.16353777,NEIGHBORHOOD_PARK,RECREATION_SITE,1,1,10,7,Y,Y,Y,Site has Northeast Older Adult Center. Football Field Scoreboard called field Frank Bond Memorial Field,77216.953125,1183.50933357409
111,Joseph A Ferko Playground,Tacony Creek Park,Y,Joseph A. Ferko Playground,Ferko ,Juniata Park,1854,1101 E CAYUGA ST,19124,1101 E CAYUGA ST,"J & Cayuga;1223 E CAYUGA ST",10.53095496,NEIGHBORHOOD_PARK,RECREATION_SITE,3,3,7,24,Y,Y,Y,Juniata Boys and Girls Club leases the eastern building on the Ferko property.,72742.1796875,1580.76480831401
112,Germany Hill,Germany Hill,N,,Germany Hill, ,609,4849 SMICK ST,19128,"4815, 4849, 4855 SMICK ST, 200 FOUNTAIN ST","4815, 4855 SMICK ST, 200 FOUNTAIN ST",10.82687009,NEIGHBORHOOD_PARK,CONSERVATION_DRAINAGE_WATERSHED,4,4,4,5,Y,Y,N,Divided by multiple parcels,74829.83984375,1332.52843984554
113,Thomas E Jardel Memorial Field,Thomas E Jardel Memorial Field,N,Thomas E. Jardel Memorial Field,Jardel ,Burholme Recreation Center,1879,1400 COTTMAN AVE,19111,1400 COTTMAN AVE,"Cottman & Pennway, 1432 COTTMAN AVE",10.77967377,NEIGHBORHOOD_PARK,RECREATION_SITE,2,1,9,2,Y,Y,Y,,74549.91015625,1107.5619986934
114,Daniel Boyle Memorial Recreation Center,Daniel Boyle Memorial Recreation Center,N,Daniel Boyle Memorial Recreation Center,Boyle Rec,Somerton Playground,1843,13045 KELVIN AVE,19116,13024 STEVENS RD,"13024 STEVENS RD;13235 KELVIN AVE",10.68970199,NEIGHBORHOOD_PARK,RECREATION_SITE,1,1,10,7,Y,Y,Y,,74072.8515625,1183.72158636924
115,Stenton Park,Stenton Park,N,Stenton Park,Stenton,,1958,1699 W COURTLAND ST,19140,4600 N 16TH ST,"16th & Wyoming;4600 N 16TH ST;4601 N 18TH ST",14.76487985,NEIGHBORHOOD_PARK,RECREATION_SITE,3,4,8,35,Y,Y,Y,City owns all land. Mansion Campus is long term lease to National Society of Colonial Dames of America (1910).,102017.2890625,1257.8346692662
116,Thomas Holme School Playground,Thomas Holme School Playground,N,Thomas Holme School Playground,Holme School,,2939,3280 HOLME AVE,19114,9152 ACADEMY RD,"9152 ACADEMY RD;9125 ACADEMY RD",10.12775085,NEIGHBORHOOD_PARK,RECREATION_SITE,1,1,6,8,Y,Y,Y,"PPR leases land from School District - Thomas Holme Elementary School; Lease began in 1965",70042.5234375,1148.20054734219
117,Charles A Papa Playground,Morris Park,Y,Charles A. Papa Playground,Papa ,,1929,6839 LANSDOWNE AVE,19151,,68th St & Lansdowne Ave,8.53016827,NEIGHBORHOOD_PARK,RECREATION_SITE,8,8,4,19,Y,Y,Y,There is no parcel here,58852.609375,1471.30273420529
118,Water Tower Recreation Center,Water Tower Recreation Center,N,Water Tower Recreation Center,Water Tower,,1979,267 E HARTWELL LN,19118,"209-99 E HARTWELL LN;8030-40 WINSTON RD","209-99 E HARTWELL LN;8030-40 WINSTON RD;245 E HARTWELL LN;8299 ARDLEIGH ST;Hartwell & Ardleigh",9.54960794,NEIGHBORHOOD_PARK,RECREATION_SITE,4,4,8,14,Y,Y,Y,Tennis Courts were developed in 1958.,66081.11328125,1538.06781339223
119,James J Ramp Playground,James J Ramp Playground,N,James J. Ramp Playground,Ramp ,,1938,3340 SOLLY AVE,19136,"3300 SOLLY AVE, 3340 SOLLY AVE","3300-40 SOLLY AVE, Solly & Rowland;3300 SOLLY AVE, 3350 SOLLY AVE",9.04401372,NEIGHBORHOOD_PARK,RECREATION_SITE,1,1,6,8,Y,Y,Y,,62530.88671875,1161.40663957834
120,Pepper School Playground,Pepper School Playground,N,,Pepper School ,,2799,2801 S 84TH ST,19153,2801 S 84TH ST,8400 LYONS AVE,10.14566847,NEIGHBORHOOD_PARK,MISC_PARK,9,8,2,12,Y,Y,Y,ADDRESS_BRT comes from a bigger parcel,69839.33984375,1245.72524806756
121,Elizabeth M Picariello Playground,Elizabeth M Picariello Playground,N,Elizabeth M. Picariello Playground,Picariello ,"Liberty Bell Youth Organization;Sergeant Patrick C. McDonald Memorial Gymnasium",1934,10815 CALERA RD,19154,"3325 RED LION RD;10851 CALERA RD","3325 RED LION RD;10801 CALERA RD;Red Lion & Calera;10851 CALERA RD",10.35799238,NEIGHBORHOOD_PARK,RECREATION_SITE,1,1,10,8,Y,Y,Y,"Land under Gym is owned by the City.PPR leases land from School District; Athletic Field area to Liberty Bell Youth Organization. Part of the Labrum School Property.",71689.3203125,1251.65054793259
122,Reyburn Park,Reyburn Park,N,,Reyburn, ,2828,1950 W LEHIGH AVE,19132,"1950 W LEHIGH AVE, 2020-50 W LEHIGH AVE","2020-50 W LEHIGH AVE;21st & Lehigh",7.25309255,NEIGHBORHOOD_PARK,MISC_PARK,6,6,5,22,Y,Y,N,,50070.71484375,1282.22427864758
123,Ronald Trumbette Playground,Ronald Trumbette Playground,N,,Trumbette , ,135,9050 TORRESDALE AVE,19136,"9000 TORRESDALE AVE, 9050 TORRESDALE AVE","9000 TORRESDALE AVE;Torresdale & Tolbut",8.46822771,NEIGHBORHOOD_PARK,MISC_PARK,1,1,6,8,Y,Y,N,ADDRESS_BRT (9050 TORRESDALE AVE) comes from a bigger parcel,58551.78515625,1012.06717073623
124,Seymour Tarken Recreation Center,Seymour Tarken Recreation Center,N,Seymour Tarken Recreation Center,Tarken,,1962,6350 FRONTENAC ST,19111,6250 FRONTENAC ST,"6250 FRONTENAC ST;6320 FRONTENAC ST;6201 SUMMERDALE AVE;Frontenac & Levick",8.89486605,NEIGHBORHOOD_PARK,RECREATION_SITE,2,1,9,2,Y,Y,Y,,61488.09375,1021.75045231218
125,33rd and Oxford Driving Range,East Fairmount Park,Y,,33rd and Oxford Range,"Strawberry Green Driving Range;33rd St Driving Range",1802,3300 RESERVOIR DR,19121,2500 SPRING GARDEN ST,2500 SPRING GARDEN ST,8.99154955,NEIGHBORHOOD_PARK,ATHLETIC_GOLF,7,5,4,22,N,Y,N,Located in East Fairmount Park,62045.65234375,985.773103317839
126,Edward Houseman Playground,Edward Houseman Playground,N,Edward Houseman Playground,Houseman ,,1875,900 E GODFREY AVE,19124,802 E GODFREY AVE,"802 E GODFREY AVE;5091 SUMMERDALE AVE;4979 SUMMERDALE AVE;4955 SUMMERDALE AVE;5151 SUMMERDALE AVE;Summerdale & Godfrey",8.66519581,NEIGHBORHOOD_PARK,RECREATION_SITE,3,3,9,2,Y,Y,Y,,59879.3125,1111.89710680307
127,Samuel F Houston Playground,Wissahickon Valley Park,Y,Samuel F. Houston Playground,Houston ,,1876,994 SEQUOIA RD,19128,8601 WISSAHICKON AVE,"8601 WISSAHICKON AVE;900 GRAKYN LA;999 GRAKYN LA;Grakyn & Wissahickon",6.20144377,NEIGHBORHOOD_PARK,RECREATION_SITE,4,4,4,5,Y,Y,Y,,42904.671875,921.992533331832
128,Vernon Park,Vernon Park,N,,Vernon, ,632,5754 GERMANTOWN AVE,19144,5710-18 GERMANTOWN AVE,"5754 GERMANTOWN AVE;5818 GERMANTOWN AVE;5710-18 GERMANTOWN AVE;5805 GREENE ST;5801 GREENE ST;Germantown & Chelten",8.47447474,NEIGHBORHOOD_PARK,RECREATION_SITE,4,4,8,14,Y,Y,Y,,58573.0859375,1067.54369727202
129,Haddington-Marshall L Shepard Sr Recreation Center,Haddington-Marshall L Shepard Sr Recreation Center,N,"Haddington-Marshall L. Shepard, Sr. Recreation Center",Shepard,,1952,5700 HAVERFORD AVE,19131,5700 HAVERFORD AVE,57th & Haverford,8.21457867,NEIGHBORHOOD_PARK,RECREATION_SITE,8,8,4,19,Y,Y,Y,,56662.39453125,979.852671063715
130,Penn Treaty Park,Penn Treaty Park,N,,Penn Treaty, ,317,1299 BEACH ST,19125,"1201-33 N DELAWARE AVE, 1227-37 BEACH ST, 1301 BEACH ST","1201-1301 BEACH ST, Beach & Columbia;1201-33 N DELAWARE AVE, 1227-37 BEACH ST, 1301 BEACH ST",8.52026672,NEIGHBORHOOD_PARK,MISC_PARK,5,2,"1, 5",26,Y,Y,N,,58760.8515625,1284.02170069919
131,Wingohocking Park,Wingohocking Park,N,,Wingohocking, ,1369,1200 W WINGOHOCKING ST,19140,4101 OLD YORK RD,4101 OLD YORK RD,8.34384577,NEIGHBORHOOD_PARK,MISC_PARK,3,3,8,35,Y,Y,N,ADDRESS_BRT comes from a bigger parcel,57644.4140625,1312.97749943867
132,W Freeland Kendrick Recreation Center,W Freeland Kendrick Recreation Center,N,W. Freeland Kendrick Recreation Center,Kendrick ,,1885,5878 RIDGE AVE,19128,5822-24 RIDGE AVE,"5822-24 RIDGE AVE, Ridge & Pensdale",8.01516345,NEIGHBORHOOD_PARK,RECREATION_SITE,4,4,4,5,Y,Y,Y,,55387.25390625,931.283098565251
133,Fanny Kemble Abolitionist Memorial Park,Fanny Kemble Abolitionist Memorial Park,N,Fanny Kemble Abolitionist Memorial Park,Kemble,,731,5641 OGONTZ AVE,19141,"1649 W OLNEY AVE, 5625, 5631-37, 5641-81, 5689, 5699 OGONTZ AVE, 5650 N 16TH ST","16th & Chew;1649 W OLNEY AVE, 5625, 5631-37, 5641-81, 5689, 5699 OGONTZ AVE, 5650 N 16TH ST",8.000187,NEIGHBORHOOD_PARK,MISC_PARK,4,4,8,35,Y,Y,N,Divided by multiple parcels,55301.83984375,1088.01019856879
134,Bridesburg Recreation Center,Bridesburg Recreation Center,N,Bridesburg Recreation Center,Bridesburg ,,1822,4625 RICHMOND ST,19137,4625 RICHMOND ST,"4649 RICHMOND ST, Richmond & Ash, 4601 RICHMOND ST",7.98277084,NEIGHBORHOOD_PARK,RECREATION_SITE,5,2,6,15,Y,Y,Y,,55115.48046875,938.23851597021
135,Bradford Park,Bradford Park,N,,Bradford,Rhawnhurst,236,2400 FAUNCE ST,19152,2400 FAUNCE ST,"Faunce & Bradford, Calvert & Shelmire",8.51284504,NEIGHBORHOOD_PARK,MISC_PARK,1,1,10,2,Y,Y,N,Named for William Bradford in 1982.,58863.20703125,995.670353957161
136,Johnny Sample Recreation Center,Cobbs Creek Park,Y,Johnny Sample Recreation Center,Sample,Cobbs Creek Recreation Center and Pool,1836,250 S 63RD ST,19139,12 COBBS CREEK PKWY,"63rd & Spruce; 280 Cobbs Creek Parkway;12 COBBS CREEK PKWY",9.78530743,NEIGHBORHOOD_PARK,RECREATION_SITE,8,8,3,18,Y,Y,Y,"ADDRESS_BRT comes from a bigger parcel; includes the Laura Sims Skate House",67480.69921875,1784.99360269918
137,Francis J Myers Recreation Center,Francis J Myers Recreation Center,N,Francis J. Myers Recreation Center,FJ Myers,,1858,5800 CHESTER AVE,19143,5800 CHESTER AVE,"58th & Kingsessing;5801 KINGSESSING AVE",7.62507634,NEIGHBORHOOD_PARK,RECREATION_SITE,8,8,2,12,Y,Y,Y,,52546.12109375,935.559657267645
138,Somerton Woods,Somerton Woods,N,,Somerton Woods,Stevens & Welton Neighborhood Park,44,900 WELTON ST,19116,900 WELTON ST,"Stevens Rd & Welton Rd;11730 STEVENS RD;11030 STEVENS RD",7.59136922,NEIGHBORHOOD_PARK,CONSERVATION_DRAINAGE_WATERSHED,1,1,10,7,Y,Y,N,,52592.68359375,958.413270653473
139,Thomas B Smith Recreation Center,Thomas B Smith Recreation Center,N,Thomas B. Smith Recreation Center,Smith ,Wilson Park,502,2200 S 24TH ST,19145,"2100 S 24TH ST, 2200 S 24TH ST","2100 S 24TH ST, 24th & Jackson",7.59075496,NEIGHBORHOOD_PARK,RECREATION_SITE,9,7,2,1,Y,Y,Y,,52295.59765625,997.532840718843
140,Rittenhouse Square,Rittenhouse Square,N,Rittenhouse Square,Rittenhouse, ,977,1800 WALNUT ST,19103,1800 WALNUT ST,18th & Walnut,7.31390187,NEIGHBORHOOD_PARK,SQUARE_PLAZA,7,5,5,9,Y,Y,N,,50423.83984375,870.116925675686
141,Samuel Rose Recreation Center,Cobbs Creek Park,Y,Samuel Rose Recreation Center,Rose ,,1944,1225 N 75TH ST,19151,N/A,"7500 LANSDOWNE AVE, 75th & Lansdowne;7401 LANSDOWNE AVE",7.36638904,NEIGHBORHOOD_PARK,RECREATION_SITE,8,8,4,19,Y,Y,Y,,50821.16015625,932.258064332652
142,Loudoun Park,Loudoun Park,N,,Loudoun, ,1180,4650 GERMANTOWN AVE,19144,4650 GERMANTOWN AVE,Germantown & Apsley,7.66802112,NEIGHBORHOOD_PARK,MISC_PARK,3,4,8,39,Y,Y,N,,52983.47265625,1197.59608983187
143,Elmwood Park,Elmwood Park,N,,Elmwood, ,2907,7101 DICKS AVE,19142,7101 DICKS AVE,71st & Buist,7.23461291,NEIGHBORHOOD_PARK,SQUARE_PLAZA,9,8,2,12,Y,Y,N,,49824.9765625,851.182883615872
144,Harry S McDevitt Playground,Harry S McDevitt Playground,N,Harry S. McDevitt Playground,McDevitt,,1906,3580 SCOTTS LN,19129,3500 CRAWFORD ST,"3186 SCOTTS LN;3501 SCOTTS LN;3531 SCOTTS LN;3500 CRAWFORD ST",6.253379,NEIGHBORHOOD_PARK,RECREATION_SITE,4,4,4,39,Y,Y,Y,,43187.4765625,914.137317265324
145,Washington Square,Washington Square,N,Washington Square,Washington, ,16,600 WALNUT ST,19106,600 WALNUT ST,"6th & Walnut; 650 WALNUT ST",7.18823145,NEIGHBORHOOD_PARK,SQUARE_PLAZA,10,5,1,6,Y,Y,N,Not completely parcelized,49553.83984375,981.06083741263
146,Charles J Ziehler Playground,Charles J Ziehler Playground,N,Charles J. Ziehler Playground,Ziehler ,,1976,5530 B ST,19120,200-64 E OLNEY AVE,"200-64 E OLNEY AVE;B & Olney",7.10841944,NEIGHBORHOOD_PARK,RECREATION_SITE,3,3,9,35,Y,Y,Y,,49129.02734375,884.925177974694
147,Franklin Square,Franklin Square,N,Franklin Square,Franklin, ,53,200 N 06TH ST,19106,"200 N 06TH ST, 711 RACE ST","6th & Race;711 RACE ST",7.16495218,NEIGHBORHOOD_PARK,SQUARE_PLAZA,10,5,1,6,Y,Y,N,,49405.890625,1024.69413223215
148,Thomas Mitchell Playground,Thomas Mitchell Playground,N,Thomas Mitchell Playground,Mitchell ,,1912,3694 CHESTERFIELD RD,19114,3694 CHESTERFIELD RD,"3600 WHITEHALL LN;3700 WHITEHALL LN;Morrel & Crown",6.84150481,NEIGHBORHOOD_PARK,RECREATION_SITE,1,1,10,8,Y,Y,Y,,47331.0625,980.576783093238
149,Charles M Finley Playground,Charles M Finley Playground,N,Charles M. Finley Playground,Finley,Whitehall Commons,1989,1006 E HORTTER ST,19150,7701 MANSFIELD AVE,"7701 MANSFIELD AVE;Upsal & Mansfield;1001 E UPSAL ST;1037 E UPSAL ST",6.64475875,NEIGHBORHOOD_PARK,RECREATION_SITE,4,4,9,14,Y,Y,Y,,45965.91015625,875.483904592075
150,Von Colln Field,Benjamin Franklin Parkway,Y,,Von Colln, ,1232,2250 PENNSYLVANIA AVE,19130,N/A,"2200-2268 PENNSYLVANIA AVE, 23rd & Pennsylvania",6.5700213,NEIGHBORHOOD_PARK,ATHLETIC_OTHER,7,5,5,9,N,Y,N,,45312.83203125,897.611201624891
151,Norris Square,Norris Square,N,,Norris, ,2905,2100 N HOWARD ST,19122,2100 N HOWARD ST,"2100-60 N HOWARD ST, Diamond & Hancock",6.40066661,NEIGHBORHOOD_PARK,SQUARE_PLAZA,6,6,7,26,Y,Y,N,,44170.71484375,823.895799898487
152,Tomlinson and Gifford Playground,Tomlinson and Gifford Playground,N,Tomlinson and Gifford Playground,Tomlinson and Gifford ,,1863,487 TOMLINSON RD,19116,575 TOMLINSON RD,575 TOMLINSON RD,6.4000508,NEIGHBORHOOD_PARK,RECREATION_SITE,1,1,10,7,Y,Y,Y,,44338.5703125,851.561635365206
153,McPherson Square,McPherson Square,N,,McPherson, ,576,601 E INDIANA AVE,19134,601 E INDIANA AVE,Kensington & Indiana,6.39113005,NEIGHBORHOOD_PARK,SQUARE_PLAZA,5,3,7,24,Y,Y,N,,44120.58984375,833.075626098038
154,Morris Estate Cultural Center,Morris Estate Cultural Center,N,Morris Estate Cultural Center,Morris Estate,,1914,1610 CHELTEN AVE,19141,"1610 CHELTEN AVE, 1700 CHELTEN AVE","1700 CHELTEN AVE;1600 CHELTEN AVE",6.38127831,NEIGHBORHOOD_PARK,RECREATION_SITE,3,4,8,35,Y,Y,Y,"Portion of land (ball diamond) is currently owned by School District (2020), rest is City owned.",44124.65234375,922.500304757223
155,Sergeant John J McVeigh Recreation Center,Sergeant John J McVeigh Recreation Center,N,Sergeant John J. McVeigh Recreation Center,McVeigh ,John J. McKinley Playground,1908,3390 D ST,19134,400-64 E ONTARIO ST,400-64 E ONTARIO ST,6.32017882,NEIGHBORHOOD_PARK,RECREATION_SITE,5,3,7,25,Y,Y,Y,,43637.40234375,828.893333754658
156,Malcolm X Memorial Park,Malcolm X Memorial Park,N,Malcolm X Memorial Park,Malcolm X,Black Oak Park,182,5100 PINE ST,19143,5100 PINE ST,51st & Pine,6.29782132,NEIGHBORHOOD_PARK,SQUARE_PLAZA,8,8,3,18,Y,Y,N,,43422.74609375,826.45623070636
157,Joseph A Scanlon Playground,Joseph A Scanlon Playground,N,Joseph A. Scanlon Playground,Scanlon,"Webster Playground, Scanlon Ice Rink",1950,1099 E TIOGA ST,19134,1099 E TIOGA ST,"1099 E TIOGA ST, Tioga & J",6.1423657,NEIGHBORHOOD_PARK,RECREATION_SITE,5,3,7,24,Y,Y,Y,,42411.34375,908.669360452395
158,Fairmount Water Works Historic Area,East Fairmount Park,Y,Fairmount Water Works Historic Area,Water Works, ,2880,650 WATER WORKS DR,19130,,620-690 AQUARIUM DR,5.38911015,NEIGHBORHOOD_PARK,HISTORIC_SITE,7,5,5,9,Y,Y,N,,37174.1640625,1347.41760472279
159,Frank McArdle Memorial Recreation Center,Frank McArdle Memorial Recreation Center,N,Frank McArdle Memorial Recreation Center,McArdle,,1991,2945 WELSH RD,19152,8930 ASHTON RD,"2933 WELSH RD;2801 WELSH RD;8930 ASHTON RD;2951 WELSH RD;Welsh & Tolbut",6.13683214,NEIGHBORHOOD_PARK,RECREATION_SITE,1,1,6,8,Y,Y,Y,,42447.34765625,1088.11904507079
160,Boniface Piccoli Playground,Boniface Piccoli Playground,N,Boniface Piccoli Playground,Piccoli ,,1935,1500 E CAYUGA ST,19124,1501 E BRISTOL ST,"1501 E BRISTOL ST;O & Bristol",6.01261801,NEIGHBORHOOD_PARK,RECREATION_SITE,3,3,7,24,Y,Y,Y,,41529.10546875,807.022372641094
161,Mayfair Recreation Center,Mayfair Recreation Center,N,Mayfair Recreation Center,Mayfair ,Mayfair Community Center,1905,3000 SAINT VINCENT ST,19149,2901 PRINCETON AVE,"2901 PRINCETON AVE;3015 PRINCETON AVE;2990 SAINT VINCENT ST",6.47532452,NEIGHBORHOOD_PARK,RECREATION_SITE,2,1,6,15,Y,Y,Y,"PPR leases land from School District; One of the buildings and fields leased out to Mayfair Community Development Corporation",44761.62890625,936.061607792737
162,Cliveden Park,Cliveden Park,N,Cliveden Park,Cliveden, ,1106,501 E JOHNSON ST,19119,501 E JOHNSON ST,"6400 Chew Ave, Chew & Cliveden",5.95252079,NEIGHBORHOOD_PARK,MISC_PARK,4,4,8,14,Y,Y,N,,41161.37109375,849.528773924998
163,Helen G Sturgis Playground,Helen G Sturgis Playground,N,Helen G. Sturgis Playground,Sturgis ,,1960,6420 N 2ND ST,19126,200-20 W 65TH AVE,"200-20 W 65TH AVE;2nd & 65th;210 W 65TH AVE;6460 N 2ND ST",5.84220701,NEIGHBORHOOD_PARK,RECREATION_SITE,3,3,9,35,Y,Y,Y,,40395.296875,800.524090395123
164,Jack Horgan Memorial Field at Old Line Park,Jack Horgan Memorial Field at Old Line Park,N,Jack Horgan Memorial Field at Old Line Park,Horgan,Old Line Park,2558,8730 OLD LINE RD,19128,8730 OLD LINE RD,,6.14692419,NEIGHBORHOOD_PARK,ATHLETIC_OTHER,4,4,4,5,Y,Y,N,,42525.64453125,884.778566494596
165,John L Barrett Playground,John L Barrett Playground,N,John L. Barrett Playground,Barrett ,Lindley Playground,1814,700 W DUNCANNON AVE,19120,641 LINDLEY AVE,"8th & Lindley;641 LINDLEY AVE;5200 N FRANKLIN ST;715 W DUNCANNON AVE",5.77557892,NEIGHBORHOOD_PARK,RECREATION_SITE,3,3,"8, 9",35,Y,Y,Y,,39912.859375,900.034590358884
166,John J McCreesh Sr Playground,John J McCreesh Sr Playground,N,"John J. McCreesh, Sr. Playground",McCreesh,,508,6744 REGENT ST,19142,6744 REGENT ST,6600 REGENT ST,5.29779326,NEIGHBORHOOD_PARK,RECREATION_SITE,8,8,2,12,Y,Y,Y,,36499.89453125,1000.84577385992
167,Parkside Evans Recreation Center,West Fairmount Park,Y,Parkside Evans Recreation Center,Parkside Evans  ,,1930,5271 PARKSIDE AVE,19131,,"5300 PARKSIDE AVE;5301 PARKSIDE AVE",4.01365062,NEIGHBORHOOD_PARK,RECREATION_SITE,7,5,4,19,Y,Y,Y,,27702.26171875,887.881315117961
168,Carroll Park,Carroll Park,N,,Carroll, ,374,5801 W GIRARD AVE,19131,5801 W GIRARD AVE,58th & Girard,5.63620596,NEIGHBORHOOD_PARK,SQUARE_PLAZA,8,8,4,19,Y,Y,N,,38881.91015625,784.14080256605
169,Clearview Park,Clearview Park,N,,Clearview, ,500,7600 BUIST AVE,19153,"7600 BUIST AVE, 7615-21 CHELWYNDE AVE, 7631 CHELWYNDE AVE, 2545 S 77TH ST, 2522 S 76TH ST","77th & Buist;7615-21 CHELWYNDE AVE, 7631 CHELWYNDE AVE, 2545 S 77TH ST, 2522 S 76TH ST",5.58653306,NEIGHBORHOOD_PARK,MISC_PARK,9,8,2,12,Y,Y,N,Lease 16-52,38468.4609375,1557.80121425819
170,Ramonita Negron Rivera Recreation and Community Center,Ramonita Negron Rivera Recreation and Community Center,N,Ramonita Negron Rivera Recreation and Community Center,Rivera,Mann Recreation Center,1941,3201 N 05TH ST,19140,3201 N 05TH ST,5th & Allegheny,5.44707252,NEIGHBORHOOD_PARK,RECREATION_SITE,6,3,7,25,Y,Y,Y,Mann Older Adult Center is also located in the building on this site.,37609.671875,864.047528783927
171,Franklin Delano Roosevelt Playground,Franklin Delano Roosevelt Playground,N,Franklin Delano Roosevelt Playground,Roosevelt ,,1943,4300 HELLERMAN ST,19135,4301 LEVICK ST,"6455 WALKER ST, Levick & Walker;4301 LEVICK ST",5.45401817,NEIGHBORHOOD_PARK,RECREATION_SITE,2,2,6,15,Y,Y,Y,"2020 Playground, Sprayground, Basketball Courts Renovations Completed.",37685.375,776.139428688373
172,A Albert Cherashore Playground,A Albert Cherashore Playground,N,A. Albert Cherashore Playground,Cherashore ,,1828,900 W CHEW AVE,19141,851 W OLNEY AVE,"851-951 W OLNEY AVE;9th & Olney;960 CHEW AVE",5.24056806,NEIGHBORHOOD_PARK,RECREATION_SITE,3,3,9,35,Y,Y,Y,,36223.6953125,770.965730452634
173,Barnes Foundation Museum,Benjamin Franklin Parkway,Y,The Barnes Foundation Museum,Barnes, ,2805,2051 BENJAMIN FRANKLIN PKY,19130,2025L BENJAMIN FRANKLIN PKWY,2025L BENJAMIN FRANKLIN PKWY,5.39244537,NEIGHBORHOOD_PARK,MUSEUM,7,5,5,9,N,N,N,This is the portion of the Benjamin Franklin Parkway that is associated with the Barnes Foundation Museum.,37188.28515625,820.028822681107
174,William T Granahan Playground,Cobbs Creek Park,Y,William T. Granahan Playground,Granahan ,,1864,6532 CALLOWHILL ST,19151,"338-50 N 65TH ST, 6525-47 VINE ST","65th & Callowhill;338-50 N 65TH ST, 6525-47 VINE ST",5.3086179,NEIGHBORHOOD_PARK,RECREATION_SITE,8,8,4,19,Y,Y,Y,,36619.69140625,1032.55369891358
175,George Connell Park,George Connell Park,N,George Connell Park,Connell, ,955,6401 ELMWOOD AVE,19142,6401 ELMWOOD AVE,64th & Elmwood,5.32086281,NEIGHBORHOOD_PARK,MISC_PARK,9,8,2,12,Y,Y,N,,36655.1015625,762.551852055596
176,West Mill Creek,West Mill Creek,N,West Mill Creek,West Mill Creek,,1970,5100 WESTMINSTER AVE,19139,"525-53 N 52ND ST,5127-41&5100 WESTMINSTER AVE,868-76 N 51ST ST,5101-07&5100 PARRISH ST,5100-10&5072 OGDEN ST,5101&5046-64 RENO ST,5041-69 FUNSTON ST","51st & Reno;525-53 N 52ND ST,5127-41&5100 WESTMINSTER AVE,868-76 N 51ST ST,5101-07&5100 PARRISH ST,5100-10&5072 OGDEN ST,5101&5046-64 RENO ST,5041-69 FUNSTON ST",5.24408703,NEIGHBORHOOD_PARK,RECREATION_SITE,8,8,3,16,Y,Y,Y,,36173.5703125,1712.71776799838
177,Lonnie Young Recreation Center of East Germantown,Lonnie Young Recreation Center of East Germantown,N,The Lonnie Young Recreation Center of East Germantown,Young,East Germantown Recreation Center,1897,1100 E CHELTEN AVE,19138,1100 E CHELTEN AVE,"Ardleigh St & E Chelten Ave;5650 ANDERSON ST",5.22899521,NEIGHBORHOOD_PARK,RECREATION_SITE,4,4,8,14,Y,Y,Y,,36156.4296875,787.063397056395
178,Carousel House Recreation Center,West Fairmount Park,Y,Carousel House Recreation Center,Carousel,Recreation District HQ,1824,4300 AVENUE OF THE REPUBLIC,19131,,"1601 BELMONT AVE;1701 Belmont Ave;1701-15 BELMONT AVE",5.24415623,NEIGHBORHOOD_PARK,RECREATION_SITE,7,5,4,16,Y,Y,Y,Dept of Rec created in 1987 according to signage,36185.8828125,801.625144802006
179,Eileen Fitzpatrick Playground,Eileen Fitzpatrick Playground,N,Eileen Fitzpatrick Playground,Fitzpatrick ,,1983,12485 ACADEMY RD,19154,3500 ACADEMY RD,"3500 ACADEMY RD;12501 TORREY RD;Academy & Torrey",4.94088539,NEIGHBORHOOD_PARK,RECREATION_SITE,1,1,10,8,Y,Y,Y,Land is owned by School District-PPR leases. Part of the Decatur School Property.,34210.4921875,762.548454057908
180,11th and Cecil B Moore Playground,11th and Cecil B Moore Playground,N,,11th and CB Moore,11th & Columbia,1135,1737 N 11TH ST,19122,1001-33 CECIL B MOORE AVE,"1001-33 CECIL B MOORE AVE;1701 N 11TH ST",5.18168705,NEIGHBORHOOD_PARK,MISC_PARK,10,6,5,22,Y,Y,Y,Inquiries go to PPR District 6 Administration,35754.375,755.891228616249
181,Waterview Recreation Center,Waterview Recreation Center,N,Waterview Recreation Center,Waterview ,,1980,5826 MCMAHON AVE,19144,5826 MCMAHON AVE,"5820 MCMAHON AVE;Haines & McMahon",5.16464053,NEIGHBORHOOD_PARK,RECREATION_SITE,4,4,8,14,Y,Y,Y,,35706.125,769.244419782271
182,Cohocksink Recreation Center,Cohocksink Recreation Center,N,Cohocksink Recreation Center,Cohocksink ,,1838,2901 CEDAR ST,19134,2901 CEDAR ST,"2889 CEDAR ST, Cedar & Cambria",5.11661966,NEIGHBORHOOD_PARK,RECREATION_SITE,5,2,1,24,Y,Y,Y,,35311.12890625,861.347850726562
183,McMichael Park,McMichael Park,N,,McMichael, ,880,3201 MIDVALE AVE,19129,3201-45 MIDVALE AVE,"3201-45 MIDVALE AVE, Midvale & Henry",5.8436315,NEIGHBORHOOD_PARK,MISC_PARK,4,4,4,39,Y,Y,N,,40368.546875,861.049015268981
184,Stephen E Fotteral Square,Stephen E Fotteral Square,N,Stephen E. Fotteral Square,Fotteral,James Young Memorial Playground,1184,2400 N 11TH ST,19133,2400 N 11TH ST,11th & York,5.06786818,NEIGHBORHOOD_PARK,SQUARE_PLAZA,6,6,5,22,Y,Y,N,,34980.1640625,739.463963673668
185,Lawrence E Murphy Recreation Center,Lawrence E Murphy Recreation Center,N,Lawrence E. Murphy Recreation Center,Murphy,Greenwich Recreation Center,1919,300 SHUNK ST,19148,300 SHUNK ST,"4th & Shunk;2600 S 3RD ST",4.95002527,NEIGHBORHOOD_PARK,RECREATION_SITE,10,7,1,3,Y,Y,Y,,34092.515625,725.6670731015
186,Harrowgate Park,Harrowgate Park,N,,Harrowgate,Gates Park,639,3455 KENSINGTON AVE,19134,3455 KENSINGTON AVE,Tioga & Kensington,4.91227345,NEIGHBORHOOD_PARK,MISC_PARK,5,2,1,24,Y,Y,N,,33915.88671875,753.320045696768
187,48th and Woodland Playground,48th and Woodland Playground,N,"
",48th and Woodland ,Comegys Playground,1804,4740 WOODLAND AVE,19143,4740 WOODLAND AVE,,4.84659469,NEIGHBORHOOD_PARK,RECREATION_SITE,8,8,3,18,Y,Y,Y,,33406.15625,748.801687595013
188,East Poplar Playground,East Poplar Playground,N,East Poplar Playground,East Poplar,,1851,800 N 08TH ST,19123,"882 N 08TH ST, 800 N 08TH ST","820 N 08TH ST, 9th & Parish;882 N 08TH ST",4.84109444,NEIGHBORHOOD_PARK,RECREATION_SITE,10,6,5,6,Y,Y,Y,,33392.6796875,876.00697012957
189,Narcissa S Cruz Recreation Center,Narcissa S Cruz Recreation Center,N,Narcissa S. Cruz Recreation Center,Cruz,Manila Park,908,1401 N 06TH ST,19122,1400-52 N 05TH ST,"1400-52 N 05TH ST;1431 N 06TH ST;6th & Master;1405 N 05TH St;575 MASTER ST",4.80989873,NEIGHBORHOOD_PARK,RECREATION_SITE,10,2,7,26,Y,Y,Y,,33183.89453125,723.559436276664
190,Holmesburg Recreation Center,Holmesburg Recreation Center,N,Holmesburg Recreation Center,Holmesburg ,Crispin School,1873,4510 RHAWN ST,19136,"4500 DECATUR ST, 4500 RHAWN ST","4500 DECATUR ST;4500 RHAWN ST",4.68314212,NEIGHBORHOOD_PARK,RECREATION_SITE,2,1,6,15,Y,Y,Y,Archdiocese of Philadelphia leases the fields,32368.74609375,812.586983441221
191,Lardners Point Park,Lardners Point Park,N,,Lardners,,1650,5202 LEVICK ST,19135,6301 MILNOR ST,6301 MILNOR ST,4.96531781,NEIGHBORHOOD_PARK,MISC_PARK,2,2,6,15,Y,Y,N,,34291.8203125,921.259072593352
192,Frederick Cione Playground,Frederick Cione Playground,N,Frederick Cione Playground,Cione ,Aramingo Sqaure,1830,2600 ARAMINGO AVE,19125,2600 ARAMINGO AVE,"Aramingo & Lehigh, 2610 ARAMINGO AVE",4.75223939,NEIGHBORHOOD_PARK,RECREATION_SITE,5,2,1,26,Y,Y,Y,,32793.00390625,944.978676842454
193,Pleasant Playground,Pleasant Playground,N,Pleasant Playground,Pleasant ,,1936,305 SLOCUM ST,19119,6757 CHEW AVE,"6757 CHEW AVE;6750 BOYER ST;332 PLEASANT ST;Boyer & Pleasant",4.75616184,NEIGHBORHOOD_PARK,RECREATION_SITE,4,4,8,14,Y,Y,Y,,32894.05078125,796.310597099573
194,Athletic Recreation Center,Athletic Recreation Center,N,Athletic Recreation Center,Athletic,"Jefferson Baseball Grounds;26th and Master",1811,2626 W JEFFERSON ST,19121,1401-55 N 27TH ST,"1450 N 26TH ST; 1420 N 26TH ST, 1401-55 N 27TH ST",4.6934431,NEIGHBORHOOD_PARK,RECREATION_SITE,7,6,5,22,Y,Y,Y,,32384.578125,714.978562504477
195,Happy Hollow Recreation Center,Happy Hollow Recreation Center,N,Happy Hollow Recreation Center,Happy Hollow ,,1868,4800 WAYNE AVE,19144,4740 WAYNE AVE,"4740 WAYNE AVE, Wayne & Logan",4.5883179,NEIGHBORHOOD_PARK,RECREATION_SITE,3,4,8,39,Y,Y,Y,,31702.01171875,858.304554336292
196,CCA Baldi School Playground,CCA Baldi School Playground,N,,Baldi School, ,2808,8725 VERREE RD,19115,8725 VERREE RD,,4.62363002,NEIGHBORHOOD_PARK,MISC_PARK,1,1,10,7,Y,Y,Y,,32009.97265625,801.800707595058
197,Private Alfred J Simpson Memorial Recreation Center,Private Alfred J Simpson Memorial Recreation Center,N,Private Alfred J. Simpson Memorial Recreation Center,Simpson ,,1954,1010 ARROTT ST,19124,1010 ARROTT ST,"Arrott & Large;1000 ARROTT ST",4.5541604,NEIGHBORHOOD_PARK,RECREATION_SITE,3,3,7,15,Y,Y,Y,,31463.39453125,922.875879648233
198,Reverend M Monkiewicz Recreation Center,Reverend M Monkiewicz Recreation Center,N,Reverend M. Monkiewicz Recreation Center,Monkiewicz ,,1913,3201 RICHMOND ST,19134,"3201 RICHMOND ST, 2855 E ALLEGHENY AVE","2855 E ALLEGHENY AVE;Richmond & Allegheny",9.55699093,NEIGHBORHOOD_PARK,RECREATION_SITE,5,2,6,24,Y,Y,Y,,65952.0078125,1602.2729080108
199,Ernest L Tustin Recreation Center,Ernest L Tustin Recreation Center,N,Ernest L. Tustin Recreation Center,Tustin ,,1965,1951 N 60TH ST,19151,5901-29 W COLUMBIA AVE,"5901-29 W COLUMBIA AVE, 59th & Lancaster;5999 W COLUMBIA AVE",4.32380802,NEIGHBORHOOD_PARK,RECREATION_SITE,8,8,4,19,Y,Y,Y,,29837.75,739.621626960358
200,Wharton Square,Wharton Square,N,Wharton Square,Wharton,,305,1300 S 23RD ST,19146,1300 S 23RD ST,"2300 WHARTON ST, 23rd & Wharton",4.29408521,NEIGHBORHOOD_PARK,RECREATION_SITE,9,7,2,17,Y,Y,Y,,29592.375,681.78223897102
201,Mifflin Square,Mifflin Square,N,,Mifflin, ,126,500 WOLF ST,19148,500 WOLF ST,6th & Wolf,4.17189602,NEIGHBORHOOD_PARK,SQUARE_PLAZA,10,7,1,3,Y,Y,N,,28736.80078125,671.921971110184
202,Belfield Recreation Center,Belfield Recreation Center,N,,Belfield,,1815,2109 W CHEW AVE,19138,"2109 W CHEW AVE, 5801 N BEECHWOOD ST","21st & Chew, 5801 N BEECHWOOD ST",4.01472904,NEIGHBORHOOD_PARK,RECREATION_SITE,4,4,8,35,Y,Y,Y,,27754.3359375,1022.03696861257
203,Overington Park,Overington Park,N,,Overington,Oaklands,299,4600 LEIPER ST,19124,4600 LEIPER ST,Orthodox & Leiper,4.12414744,NEIGHBORHOOD_PARK,MISC_PARK,3,3,7,15,Y,Y,N,,28489.21484375,672.543712405665
204,Columbus Square,Columbus Square,N,Christopher Columbus - Anthony DiProspero Playground,Columbus,"Passyunk Square;Columbus/DiProspero",966,1200 WHARTON ST,19147,1200 WHARTON ST,"1300 S 12TH ST;1201 W REED ST",4.11153347,NEIGHBORHOOD_PARK,RECREATION_SITE,9,7,1,3,Y,Y,Y,,28332.359375,666.851224146249
205,Dr Nicola Capitolo Playground,Dr Nicola Capitolo Playground,N,Dr. Nicola Capitolo Playground,Capitolo ,,501,900 FEDERAL ST,19147,900 FEDERAL ST,10th & Federal,4.09199123,NEIGHBORHOOD_PARK,RECREATION_SITE,9,7,1,3,Y,Y,Y,,28198.2265625,652.990126661673
206,George A Vare Recreation Center,George A Vare Recreation Center,N,George A. Vare Recreation Center,Vare ,,1966,2600 MORRIS ST,19145,2600 MORRIS ST,26th & Morris,4.10769392,NEIGHBORHOOD_PARK,RECREATION_SITE,9,7,2,17,Y,Y,Y,,28304.359375,667.187509629329
207,Mount Airy Playground,Mount Airy Playground,N,Mount Airy Playground,Mt Airy ,,1917,7001 GERMANTOWN AVE,19119,7001 GERMANTOWN AVE,Germantown & Sedgwick,4.06203971,NEIGHBORHOOD_PARK,RECREATION_SITE,4,4,8,14,Y,Y,Y,,28093.95703125,692.811654402257
208,Hillside Recreation Center,Hillside Recreation Center,N,Hillside Recreation Center,Hillside,,1872,201 FOUNTAIN ST,19127,201 FOUNTAIN ST,Fountain & Fowler,4.07981644,NEIGHBORHOOD_PARK,RECREATION_SITE,4,4,4,5,Y,Y,Y,,28196.57421875,833.168724674941
209,Rodin Museum,Benjamin Franklin Parkway,Y,Rodin Museum,Rodin, ,3465,2151 BENJAMIN FRANKLIN PKY,19130,N/A,22nd & Benjamin Franklin Parkway,4.16432693,NEIGHBORHOOD_PARK,MUSEUM,7,5,5,9,N,N,N,This is the portion of the Benjamin Franklin Parkway that is associated with the Rodin Museum. See Street Legal Card for the 22nd and Hamilton 'wedge',28719.8984375,756.229970257842
210,Stephen Girard Park,Stephen Girard Park,N,,S Girard,"Girard Estates;The Place;Farmhouse",510,2101 SHUNK ST,19145,2101 SHUNK ST,"2100 SHUNK ST;22nd & Porter",4.020306,NEIGHBORHOOD_PARK,SQUARE_PLAZA,9,7,2,1,Y,Y,N,,27693.33984375,658.75314457575
211,Commodore John Barry Playground,Commodore John Barry Playground,N,Commodore John Barry Playground,Barry ,,262,2838 S 18TH ST,19145,1800 JOHNSTON ST,"1800 JOHNSTON ST, 18th & Bigler",4.01254821,NEIGHBORHOOD_PARK,RECREATION_SITE,9,7,2,1,Y,Y,Y,,27636.18359375,657.272497977994
212,Senator William Vincent Mullin Playground,Senator William Vincent Mullin Playground,N,Senator William Vincent Mullin Playground,Mullin ,,1918,4301 PRINCETON AVE,19135,4301 PRINCETON AVE,"4301 PRINCETON AVE, Princeton & Walker",3.89357716,NEIGHBORHOOD_PARK,RECREATION_SITE,2,2,6,15,Y,Y,Y,,26908.62109375,826.838501245818
213,Joseph C McIlvain Playground,Joseph C McIlvain Playground,N,Joseph C. McIlvain Playground,McIlvain ,Frankford Playground,1907,5200 N PENN ST,19124,5200 N PENN ST,,3.85388933,NEIGHBORHOOD_PARK,RECREATION_SITE,2,2,7,15,Y,Y,Y,,26628.27734375,716.699281090308
214,Marie Dendy Recreation Center,Marie Dendy Recreation Center,N,Marie Dendy Recreation Center,Dendy,Schwartz,1902,1591 N 10TH ST,19122,1501-39 N 10TH ST,"1501-39 N 10TH ST;10th & Oxford;1515 N 10TH ST",3.74316433,NEIGHBORHOOD_PARK,RECREATION_SITE,10,6,5,26,Y,Y,Y,,25826.03125,656.766291218855
215,Dan Shissler Recreation Center,Dan Shissler Recreation Center,N,Dan Shissler Recreation Center,Shissler,Kensington Recreation Center,1844,1826 BLAIR ST,19125,1800-56 BLAIR ST,"1800-56 BLAIR ST, 1800 BLAIR ST; Blair & Berks",3.89754582,NEIGHBORHOOD_PARK,RECREATION_SITE,5,2,7,26,Y,Y,Y,,26893.00390625,988.883660085742
216,Solomon Sacks Playground,Solomon Sacks Playground,N,Solomon Sacks Playground,Sacks ,,1947,400 WASHINGTON AVE,19147,400 WASHINGTON AVE,4th & Washington,3.73851602,NEIGHBORHOOD_PARK,RECREATION_SITE,10,7,1,3,Y,Y,Y,,25762.4765625,641.335411166527
217,Victor J Moss Memorial Field,Victor J Moss Memorial Field,N,Victor J. Moss Memorial Field,Moss ,,1916,5726 TORRESDALE AVE,19135,5700 TORRESDALE AVE,"5700 TORRESDALE AVE;Torresdale & Cheltenham",3.69441502,NEIGHBORHOOD_PARK,RECREATION_SITE,2,2,6,15,Y,Y,Y,Site renovations in 10/2019.,25520.21484375,640.892025119559
218,Daniel E Rumph II Recreation Center,Daniel E Rumph II Recreation Center,N,Daniel E. Rumph II Recreation Center,Rumph,Otto T. Mallery Playground,1945,108 E JOHNSON ST,19144,100-70 E JOHNSON ST,"100-70 E JOHNSON ST, Morton & Johnson",3.67815928,NEIGHBORHOOD_PARK,RECREATION_SITE,4,4,8,14,Y,Y,Y,,25431.51171875,637.162135870578
219,Dorothy Emanuel Recreation Center,Dorothy Emanuel Recreation Center,N,Dorothy Emanuel Recreation Center,Emanuel,Dorothy Emanuel Recreation and Teen Center,1849,8545 PROVIDENT ST,19150,8500 PICKERING AVE,"8500 PICKERING AVE;8532 PICKERING AVE;Pickering & Gowen",3.67859759,NEIGHBORHOOD_PARK,RECREATION_SITE,4,4,9,14,Y,Y,Y,School District Land - PPR Leases,25459.609375,635.803095929423
220,Francisville Recreation Center,Francisville Recreation Center,N,Francisville Recreation Center,Francisville ,Francisville Playground,1859,1822 WYLIE ST,19130,1737-39 FRANCIS ST,"1737-39 FRANCIS ST, Francis & Stanley",3.68158443,NEIGHBORHOOD_PARK,RECREATION_SITE,7,6,5,9,Y,Y,Y,,25395.84375,635.975307920443
221,Sister Clara Muhammad Square,Sister Clara Muhammad Square,N,Sister Clara Muhammad Square,Muhammad,Durham Square,484,1035 N 48TH ST,19131,4700-30 LANCASTER AVE,"4700-30 LANCASTER AVE, 47th & Lancaster",3.59835117,NEIGHBORHOOD_PARK,SQUARE_PLAZA,8,8,3,16,Y,Y,N,,24823.7421875,681.904065902907
222,Harpers Hollow Park,Harpers Hollow Park,N,,Harpers Hollow,,860,5850 OGONTZ AVE,19141,5850 OGONTZ AVE,Ogontz & Conlyn,3.60079802,NEIGHBORHOOD_PARK,CONSERVATION_DRAINAGE_WATERSHED,4,4,8,35,Y,Y,N,,24892.3359375,948.249227190264
223,Joseph Deni Recreation Center,Joseph Deni Recreation Center,N,Joseph Deni Recreation Center,Deni ,,1846,1381 RUAN ST,19124,"1381 RUAN ST, 1385 RUAN ST","Adams & Church;1385 RUAN ST;1409 RUAN ST",3.5211193,NEIGHBORHOOD_PARK,RECREATION_SITE,3,3,7,15,Y,Y,Y,,24320.20703125,689.437420054931
224,James Allen Shuler Playground,James Allen Shuler Playground,N,James Allen Shuler Playground,Shuler ,Whittier Playground,1878,3025 N 27TH ST,19132,2901 N 29TH ST,"2901 N 29TH ST, 27th & Clearfield, 3000 N 27TH ST",2.99199934,NEIGHBORHOOD_PARK,RECREATION_SITE,6,6,4,39,Y,Y,Y,,20659.51171875,591.785175654949
225,Marian Anderson Recreation Center,Marian Anderson Recreation Center,N,Marian Anderson Recreation Center,M Anderson,,1901,776 S 17TH ST,19146,740 S 17TH ST,"740 S 17TH ST, 740-44 S 17TH ST",3.36090347,NEIGHBORHOOD_PARK,RECREATION_SITE,7,7,2,17,Y,Y,Y,,23165.82421875,605.045803981513
226,John Dickinson Square,John Dickinson Square,N,,Dickinson,,960,1600 E MOYAMENSING AVE,19148,1600 E MOYAMENSING AVE,4th & Tasker,3.33035697,NEIGHBORHOOD_PARK,RECREATION_SITE,10,7,1,3,Y,Y,Y,,22945.62109375,606.105206960087
227,Disston Recreation Center,Disston Recreation Center,N,Disston Recreation Center,Disston Rec, ,1847,4500 DISSTON ST,19135,4423 LONGSHORE AVE,4423 LONGSHORE AVE,3.33071347,NEIGHBORHOOD_PARK,RECREATION_SITE,2,2,6,15,Y,Y,Y,Renovations completed in 10/2020,23015.9765625,606.01935435003
228,Feltonville Recreation Center,Feltonville Recreation Center,N,Feltonville Recreation Center,Feltonville,,1853,283 E WYOMING AVE,19120,231-37 E WYOMING AVE,"231-37 E WYOMING AVE, 235 E WYOMING AVE",3.27939271,NEIGHBORHOOD_PARK,RECREATION_SITE,3,3,7,25,Y,Y,Y,,22657.046875,639.562083970132
229,Walter Palumbo Recreation Center,Walter Palumbo Recreation Center,N,Walter Palumbo Recreation Center,W Palumbo,"Frank Palumbo, Jr. Recreation Center;Palumbo Recreation Center;Walter 'Chief' Palumbo",1927,700 S 09TH ST,19147,700 S 09TH ST,"9th & Bainbridge;900 BAINBRIDGE ST",3.22102789,NEIGHBORHOOD_PARK,RECREATION_SITE,10,7,1,3,Y,Y,Y,"Originally Frank Palumbo Recreation Center, later renamed to Walter Palumbo Recreation Center. Historic Designation for the sports field area on 12/2021.",22201.2421875,593.555166246199
230,Albert W Christy Sr Recreation Center,Albert W Christy Sr Recreation Center,N,"Albert W. Christy, Sr. Recreation Center",Christy,Sherwood Recreation Centre,1829,728 S 55TH ST,19143,728 S 55TH ST,5501 CHRISTIAN ST,3.15490535,NEIGHBORHOOD_PARK,RECREATION_SITE,8,8,3,18,Y,Y,Y,,21750.18359375,627.500685247603
231,Jefferson Square,Jefferson Square,N,Jefferson Square,Jefferson, ,199,300 WASHINGTON AVE,19147,300 WASHINGTON AVE,4th & Washington,3.12818229,NEIGHBORHOOD_PARK,SQUARE_PLAZA,10,7,1,3,Y,Y,N,,21556.421875,596.829673608253
232,East Poplar Field,East Poplar Field,N,,East Poplar Field, ,3101,901 N 08TH ST,19123,901 N 08TH ST,901-47 N 08TH ST,3.08133994,NEIGHBORHOOD_PARK,ATHLETIC_OTHER,10,6,5,26,Y,Y,N,,21255.44921875,620.389188602106
233,Lindbergh Park,Lindbergh Park,N,,Lindbergh,"Carboni Ball Field;63rd & Lindbergh Park",1895,2800 S 63RD ST,19142,2800 S 63RD ST,63rd & Eastwick,3.12068512,NEIGHBORHOOD_PARK,MISC_PARK,9,8,3,12,Y,Y,N,,21496.234375,611.590434296082
234,William A Cibotti Recreation Center,William A Cibotti Recreation Center,N,William A. Cibotti Recreation Center,Cibotti ,,498,2500 S 77TH ST,19153,2500 S 77TH ST,"7700 ELMWOOD AVE, 77th & Elmwood",3.05210439,NEIGHBORHOOD_PARK,RECREATION_SITE,9,8,2,12,Y,Y,Y,,21016.62890625,632.733071623171
235,Jacob Stinger Park,Jacob Stinger Park,N,Jacob Stinger Park,Stinger,Stinger Square,443,1400 S 32ND ST,19146,1400 S 32ND ST,"3220 REED ST;33rd & Dickinson",3.09860266,NEIGHBORHOOD_PARK,RECREATION_SITE,9,7,2,17,Y,Y,Y,,21354.1796875,589.560987269718
236,Northwood Park,Northwood Park,N,,Northwood, ,121,999 ARROTT ST,19124,999 ARROTT ST,Arrott & Castor,2.99613878,NEIGHBORHOOD_PARK,MISC_PARK,3,3,7,15,Y,Y,N,,20700.5703125,590.423987520417
237,Lower Mayfair Playground,Lower Mayfair Playground,N,Lower Mayfair Playground,Lower Mayfair ,Ethan Allen School,1898,3023 ROBBINS ST,19149,3001 ROBBINS ST,"3001 ROBBINS ST;6300 HAWTHORNE ST;Battersby & Robbins",2.98770799,NEIGHBORHOOD_PARK,RECREATION_SITE,2,2,6,15,Y,Y,Y,,20646.28125,610.318428928257
238,Pleasant Hill Park,Pleasant Hill Park,N,,Pleasant Hill,"Torresdale Fish Hatchery;Pleasant Hill Beach;Fish Hatchery Boat Ramp/Launch",3086,9201 N DELAWARE AVE,19136,9201 N DELAWARE AVE,"Delaware River & Linden;8900 N DELAWARE AVE;9200 DELAWARE AVE;5220 LINDEN AVE",46.00788763,REGIONAL_PARK,RECREATION_SITE,1,1,6,8,Y,Y,Y,Hatchery portion comes from PWD,318054.03125,3824.00241522258
239,Robert T Heitzman Recreation Center,Robert T Heitzman Recreation Center,N,Robert T. Heitzman Recreation Center,Heitzman ,Knight Playground,1870,3645 AMBER ST,19134,2136 CASTOR AVE,"Castor & Amber;3631 AMBER ST;2136 CASTOR AVE",2.90763767,NEIGHBORHOOD_PARK,RECREATION_SITE,5,2,1,24,Y,Y,Y,,20074.34765625,577.61735027239
240,Fairhill Square,Fairhill Square,N,,Fairhill, ,924,2649 N LAWRENCE ST,19133,2649 N LAWRENCE ST,2601-61 N LAWRENCE ST,2.86247356,NEIGHBORHOOD_PARK,SQUARE_PLAZA,6,6,7,26,Y,Y,N,,19758.6640625,605.272971419118
241,Wister Playground,Wister Playground,N,Wister Playground,Wister ,,1974,4971 BAYNTON ST,19144,4971 BAYNTON ST,"Baynton & Shedaker;4975 BAYNTON ST",2.85423106,NEIGHBORHOOD_PARK,RECREATION_SITE,3,4,8,14,Y,Y,Y,,19725.765625,611.738781227234
242,Charles H Chew Jr Playground,Charles H Chew Jr Playground,N,"Charles H. Chew, Jr. Playground",Chew ,,268,1800 WASHINGTON AVE,19146,1800 WASHINGTON AVE,1900 ELLSWORTH ST,2.79855396,NEIGHBORHOOD_PARK,RECREATION_SITE,9,7,2,17,Y,Y,Y,,19287.55859375,588.598091389924
243,Donald P Finnegan Recreation Center,Donald P Finnegan Recreation Center,N,Donald P. Finnegan Recreation Center,D Finnegan ,Oakford,452,1231 S 30TH ST,19146,"1231 S 30TH ST, 2909 WHARTON ST","2909 WHARTON ST;30th & Oakford",2.80202394,NEIGHBORHOOD_PARK,RECREATION_SITE,9,7,2,17,Y,Y,Y,,19311.33203125,574.209961667073
244,Joseph V Kelly Memorial Playground,Joseph V Kelly Memorial Playground,N,Joseph V. Kelly Memorial Playground,Kelly Playground,,758,440 PARKER AVE,19128,440-42 PARKER AVE,440-42 PARKER AVE,2.77318268,NEIGHBORHOOD_PARK,MISC_PARK,4,4,4,5,Y,Y,N,,19170.8125,569.081401919373
245,Campbell Square,Campbell Square,N,Campbell Square,Campbell,Allegheny Square,1128,2525 E ALLEGHENY AVE,19134,2525 E ALLEGHENY AVE,Allegheny & Belgrade,2.61363752,NEIGHBORHOOD_PARK,SQUARE_PLAZA,5,2,6,24,Y,Y,N,,18038.484375,535.657927594542
246,Mill Creek Playground and Recreation Center,Mill Creek Playground and Recreation Center,N,Mill Creek Playground and Recreation Center,Mill Creek ,,1911,4728 BROWN ST,19139,743-81 N 48TH ST,"743-81 N 48TH ST;47th & Aspen;4701 ASPEN ST",2.62731317,NEIGHBORHOOD_PARK,RECREATION_SITE,8,8,3,16,Y,Y,Y,,18122.0078125,534.340869939413
247,Morton Playground,Morton Playground,N,,Morton , ,1915,88 E HAINES ST,19144,88 E HAINES ST,"245 E RITTENHOUSE ST;217 E RITTENHOUSE ST;209 E RITTENHOUSE ST;Haines & Baynton",2.60301028,NEIGHBORHOOD_PARK,RECREATION_SITE,4,4,8,14,Y,Y,Y,,17993.49609375,576.516311506873
248,Woodside Park,Woodside Park,N,Woodside Park,Woodside,"Wynnefield Heights; Conshohocken-Windermere",1840,3918 CONSHOHOCKEN AVE,19131,3910-18 CONSHOHOCKEN AVE,"3910-18 CONSHOHOCKEN AVE, 3910 CONSHOHOCKEN AVE",2.61973802,NEIGHBORHOOD_PARK,RECREATION_SITE,7,8,4,19,Y,Y,Y,,18088.92578125,615.286812859967
249,Miles Mack Playground,Miles Mack Playground,N,Miles Mack Playground,Mack ,"McAlpine, McAlpin",1910,736 N 36TH ST,19104,732-66 N 36TH ST,"732-66 N 36TH ST, 36th & Aspen",2.53458817,NEIGHBORHOOD_PARK,RECREATION_SITE,7,8,3,16,Y,Y,Y,Rebuild Renovations began 7/2020.,17483.375,535.241442080612
250,Cloverly Park,Cloverly Park,N,Cloverly Park,Cloverly, ,772,5425 WISSAHICKON AVE,19144,5425 WISSAHICKON AVE,Wissahickon & School House,2.54429248,NEIGHBORHOOD_PARK,MISC_PARK,4,4,8,39,Y,Y,N,,17580.22265625,531.439327669244
251,Roberto Clemente Playground,Roberto Clemente Playground,N,Roberto Clemente Playground,Clemente ,,1831,1800 WALLACE ST,19130,1800 WALLACE ST,18th & Wallace,2.54275828,NEIGHBORHOOD_PARK,RECREATION_SITE,7,6,5,9,Y,Y,Y,,17538.72265625,540.780786558473
252,Juniata Park Older Adult Center,Juniata Park Older Adult Center,N,Juniata Park Older Adult Center,Juniata Older Adult Center, ,3466,1231 E SEDGLEY AVE,19124,1231 E SEDGLEY AVE,1251 E SEDGLEY AVE,2.5153734,NEIGHBORHOOD_PARK,RECREATION_SITE,5,3,7,24,Y,Y,Y,,17369.2265625,564.331874107844
253,Matthias Baldwin Park,Matthias Baldwin Park,N,Matthias Baldwin Park,Baldwin,Franklintown Park,2814,429 N 19TH ST,19130,423-33 N 19TH ST,423-33 N 19TH ST,2.15206896,NEIGHBORHOOD_PARK,SQUARE_PLAZA,7,5,5,9,Y,Y,N,,14842.15234375,511.870527755057
254,Conestoga Community Playground,Conestoga Community Playground,N,Conestoga Community Playground,Conestoga ,,1982,5300 MEDIA ST,19131,"1452 N 53RD ST, 5200 MEDIA ST","5200-300 MEDIA ST, 5200 MEDIA ST, 1452 N 53RD ST",2.4565132,NEIGHBORHOOD_PARK,RECREATION_SITE,8,8,3,19,Y,Y,Y,"PPR originally leased from School District in 1954 and 1972, PPR and City officially acquired the properties in 2014.",16948.6328125,716.063595938843
255,Dave Dougherty (Hetzell) Field,Dave Dougherty (Hetzell) Field,N,Dave Dougherty (Hetzell) Field,Dougherty (Hetzell),Isaac D. Hetzell Playground,629,1301 E COLUMBIA AVE,19125,1301 E COLUMBIA AVE,Thompson St and Columbia Ave,2.46357172,NEIGHBORHOOD_PARK,MISC_PARK,5,2,5,26,Y,Y,Y,,16995.83984375,519.129443421391
256,Bernard Samuel Playground,Bernard Samuel Playground,N,Bernard Samuel Playground,Samuel,"Recreation District HQ, Fox Square",1948,3539 GAUL ST,19134,2501 E TIOGA ST,"2501 E TIOGA ST; Tioga & Gaul",2.43286816,NEIGHBORHOOD_PARK,RECREATION_SITE,5,2,1,24,Y,Y,Y,,16793.0234375,510.011526735747
257,Frank JG Dorsey Memorial Playground,Frank JG Dorsey Memorial Playground,N,Frank J.G. Dorsey Memorial Playground,Dorsey ,,1848,4805 HELLERMAN ST,19135,6501 HEGERMAN ST,"6501 HEGERMAN ST;Hellerman & Edmund;4801 HELLERMAN ST",2.41679729,NEIGHBORHOOD_PARK,RECREATION_SITE,2,2,6,15,Y,Y,Y,,16697.265625,568.185513742813
258,John F Kennedy Plaza (LOVE Park),Benjamin Franklin Parkway,Y,John F. Kennedy Plaza (LOVE Park),JFK (Love Park),"LOVE Park;JFK Plaza",205,1501 JOHN F KENNEDY BLVD,19102,1501 JOHN F KENNEDY BLVD,15th & JFK,2.4140907,NEIGHBORHOOD_PARK,SQUARE_PLAZA,7,5,5,9,Y,Y,N,,16643.796875,524.729729101844
259,12th and Cambria Playground,12th and Cambria Playground,N,,12th and Cambria ,,1800,2900 N 12TH ST,19133,"1149 W CAMBRIA ST, 1127-33 W CAMBRIA ST, 1135-41 W CAMBRIA ST, 2900-30 N 11TH ST","1149 W CAMBRIA ST, 1127-33 W CAMBRIA ST, 1135-41 W CAMBRIA ST, 2900-30 N 11TH ST, 2915 N 12TH ST",2.33738358,NEIGHBORHOOD_PARK,RECREATION_SITE,6,3,5,25,Y,Y,Y,,16136.8828125,542.995987413907
260,Starr Garden Playground,Starr Garden Playground,N,Starr Garden Playground,Starr Garden ,,1957,606 LOMBARD ST,19147,600-44 LOMBARD ST,"600-44 LOMBARD ST, 6th & Lombard",2.16684814,NEIGHBORHOOD_PARK,RECREATION_SITE,10,7,1,3,Y,Y,Y,,14935.83984375,507.382393883514
261,Womrath Park,Womrath Park,N,,Womrath, ,120,4098 FRANKFORD AVE,19124,4098 FRANKFORD AVE,Kensington & Frankford,2.16768877,NEIGHBORHOOD_PARK,SQUARE_PLAZA,3,3,7,15,Y,Y,N,,14970.4609375,591.724806953893
262,Thomas I Guerin Recreation Center,Thomas I Guerin Recreation Center,N,Thomas I. Guerin Recreation Center,Guerin,,1865,2201 S 16TH ST,19145,2201 S 16TH ST,16th & Jackson,2.04682979,NEIGHBORHOOD_PARK,RECREATION_SITE,9,7,2,1,Y,Y,Y,,14100.3515625,503.265398259058
263,Clarkson Park,Clarkson Park,N,,Clarkson,Matthew Clarkson Park,2815,5475 N BROAD ST,19141,"5401-55 N BROAD ST, 5501-11 N BROAD ST","Board & Somerville;5401-55 N BROAD ST, 5501-11 N BROAD ST",2.0713902,NEIGHBORHOOD_PARK,SQUARE_PLAZA,3,3,9,35,Y,Y,N,,14317.015625,797.203312549049
264,Michael Foglietta Plaza,I-95 Park,Y,Michael Foglietta Plaza,Foglietta, ,1625,109 SPRUCE ST,19106,N/A,,2.0569766,NEIGHBORHOOD_PARK,GREENWAY_PARKWAY,10,5,1,6,Y,Y,N,There is no parcel here,14179.328125,472.509856919324
265,South Philadelphia Older Adult Center,South Philadelphia Older Adult Center,N,South Philadelphia Older Adult Center,S Phila Older Adults Center,SPOAC,964,1430 E PASSYUNK AVE,19147,1430 E PASSYUNK AVE,,1.87523231,NEIGHBORHOOD_PARK,OLDER_ADULT_CENTER,9,7,1,3,Y,Y,Y,,12921.546875,643.956811948015
266,Pretzel Park,Pretzel Park,N,Pretzel Park,Pretzel,Manayunk Park,749,4300 SILVERWOOD ST,19127,4300 SILVERWOOD ST,Silverwood & Rector,2.01667929,NEIGHBORHOOD_PARK,MISC_PARK,4,4,4,5,Y,Y,N,,13934.55859375,515.74462312278
267,A Giuseppe DiSilvestro Playground,A Giuseppe DiSilvestro Playground,N,A. Giuseppe DiSilvestro Playground,DiSilvestro,,228,1700 S BROAD ST,19145,1700 S BROAD ST,"1701 S 15TH ST, Broad & Morris",1.99073614,NEIGHBORHOOD_PARK,RECREATION_SITE,9,7,2,17,Y,Y,Y,Site is managed/maintained by PPR/CHOP/Public Health/Free Library,13716.41796875,496.542683771583
268,Penrose Memorial Playground,Penrose Memorial Playground,N,Penrose Memorial Playground,Penrose ,,1977,1101 W SUSQUEHANNA AVE,19133,1101 W SUSQUEHANNA AVE,12th & Susquehanna,1.95739313,NEIGHBORHOOD_PARK,RECREATION_SITE,6,6,5,22,Y,Y,Y,"Divided by multiple parcels; Inquiries go to PPR District 10 Administration",13509.21875,489.029336253424
269,Charles Seger Park,Charles Seger Park,N,Charles Seger Park,Seger,Charles Mitchell Playground,1951,1020 LOMBARD ST,19147,1000-42 LOMBARD ST,1000-42 LOMBARD ST,1.91130492,NEIGHBORHOOD_PARK,RECREATION_SITE,10,7,1,3,Y,Y,Y,,13174.7109375,488.311980321813
270,Eric N Casiano Field,Eric N Casiano Field,N,Eric N. Casiano Field,Casiano,"Dauphin & Oriana Fields;4th & York;4th & Dauphin",1302,2301 N 04TH ST,19133,"2301-17 N 4TH ST, 400-10 W DAUPHIN ST, 2256 N 4TH ST, 314-24 W DAUPHIN ST","4th St and York St;2301-17 N 4TH ST, 400-10 W DAUPHIN ST, 2256 N 4TH ST, 314-24 W DAUPHIN ST",1.87151266,NEIGHBORHOOD_PARK,MISC_PARK,6,6,7,26,Y,Y,N,Divided by multiple parcels,12916.37109375,463.647563920428
271,Venice Island Performing Arts and Recreation Center,Venice Island Performing Arts and Recreation Center,N,Venice Island Performing Arts and Recreation Center,Venice Island ,,3448,25 LOCK ST,19127,"7 LOCK ST, 25 LOCK ST, 1 RECTOR ST","SCHUYLKILL and COTTON; 7 Lock St; 1 RECTOR ST",1.68192243,NEIGHBORHOOD_PARK,RECREATION_SITE,4,4,4,5,Y,Y,Y,MOU with PWD and DPP shows this area as PPR's responsibility.,11620.73046875,672.453931478555
272,Hancock Playground,Hancock Playground,N,Hancock Playground,Hancock ,St John's,1867,1403 N HANCOCK ST,19122,147 MASTER ST,"147 MASTER ST, Jefferson & Hancock;160 JEFFERSON ST",1.78342195,NEIGHBORHOOD_PARK,RECREATION_SITE,10,2,5,26,Y,Y,Y,,12303.78125,469.019609784348
273,Howard Sayre Morris Recreation Center,Howard Sayre Morris Recreation Center,N,Howard Sayre Morris Recreation Center,Sayre Morris,,1949,5825 SPRUCE ST,19139,5800 WALNUT ST,"5835 SPRUCE, 59th & Spruce;5800 WALNUT ST",1.60589897,NEIGHBORHOOD_PARK,RECREATION_SITE,8,8,3,18,Y,Y,Y,"PPR Lease began 1968; PPR is responsible for the playground equipment only. The property and building are the School Districts responsibility.",11073.77734375,481.115005326316
274,Reverend Edward P Burke Playground,Reverend Edward P Burke Playground,N,Reverend Edward P. Burke Playground,Burke ,,202,2198 S 2ND ST,19148,200 SNYDER AVE,"200 SNYDER AVE;2nd & Jackson; 2144 S 2ND ST",1.22289543,NEIGHBORHOOD_PARK,RECREATION_SITE,10,7,1,3,Y,Y,Y,Library portion of land is not administered by PPR.,8423.921875,372.445920411598
275,Kay Park,Kay Park,N,Kay Park,Kay,Vandergrift Estate,1629,4712 PULASKI AVE,19144,"4712 PULASKI AVE, 4618R PULASKI AVE",4618R PULASKI AVE,1.7902299,NEIGHBORHOOD_PARK,MISC_PARK,3,4,8,39,Y,Y,N,,12368.5703125,494.77810487852
276,Sherwood Park,Sherwood Park,N,,Sherwood, ,181,5601 BALTIMORE AVE,19143,5601 BALTIMORE AVE,57th & Baltimore,1.64745499,NEIGHBORHOOD_PARK,MISC_PARK,8,8,3,18,Y,Y,N,,11357.01953125,518.381899641714
277,Howell Park,Howell Park,N,Howell Park,Howell, ,1172,5215 GREENE ST,19144,5215 GREENE ST,,1.55902014,NEIGHBORHOOD_PARK,MISC_PARK,4,4,8,39,Y,Y,N,,10773.8359375,581.208914517581
278,Norman (Butch) Ellis Playground,Norman (Butch) Ellis Playground,N,Norman (Butch) Ellis Playground,Ellis,39th and Olive Playground,1803,714 N 39TH ST,19104,714 N 39TH ST,"700-14 N 39TH ST, 724 N 39TH ST",1.47979027,NEIGHBORHOOD_PARK,RECREATION_SITE,7,8,3,16,Y,Y,Y,,10206.9765625,441.982568869768
279,Michael J Towey Playground,Michael J Towey Playground,N,Michael J. Towey Playground,Towey ,,1964,1866 N HOWARD ST,19122,"1832-50 N HOWARD ST, 144 W BERKS ST","1832-50 N HOWARD ST;1832 N HOWARD ST;144 W BERKS;Masher & Berks;1876 N HOWARD ST",1.45197791,NEIGHBORHOOD_PARK,RECREATION_SITE,10,6,7,26,Y,Y,Y,,10018.796875,397.541626552407
280,Fishtown Recreation Center,Fishtown Recreation Center,N,Fishtown Recreation Center,Fishtown,Lederer Recreation Center,1856,1222 E MONTGOMERY AVE,19125,1202-32 E MONTGOMERY AVE,1202-32 E MONTGOMERY AVE,1.41982201,NEIGHBORHOOD_PARK,RECREATION_SITE,5,2,5,26,Y,Y,Y,,9794.99609375,478.01993977248
281,Shot Tower Recreation Center,Shot Tower Recreation Center,N,Shot Tower Recreation Center,Shot Tower ,,969,129 CARPENTER ST,19147,101-31 CARPENTER ST,"101-31 CARPENTER ST;103 CARPENTER ST",1.43815932,NEIGHBORHOOD_PARK,RECREATION_SITE,10,7,1,3,Y,Y,Y,,9910.79296875,438.476933492912
282,Marian Winfield Hissey Recreation Center,Marian Winfield Hissey Recreation Center,N,Marian Winfield Hissey Recreation Center,Hissey ,Hissey Playground,569,424 E INDIANA AVE,19134,400-32 E INDIANA AVE,"400-32 E INDIANA AVE, Indiana & C",1.44120913,NEIGHBORHOOD_PARK,RECREATION_SITE,5,3,7,24,Y,Y,Y,,9949.08984375,397.405548837881
283,Shevchenko Park,Shevchenko Park,N,,Shevchenko,Taras Shevchenko Park,1170,5301 N BROAD ST,19141,5301 N BROAD ST,,1.32062676,NEIGHBORHOOD_PARK,SQUARE_PLAZA,3,3,9,35,Y,Y,N,,9127.45703125,500.982517942624
284,Jerome Brown Playground,Jerome Brown Playground,N,Jerome Brown Park Playground,Brown,Kenderton Playground,1880,1987 W ONTARIO ST,19140,1927-41 W ONTARIO ST,"1927-41 W ONTARIO ST, 1919-41 W ONTARIO ST, 1959 W ONTARIO ST",1.3830057,NEIGHBORHOOD_PARK,RECREATION_SITE,6,4,8,39,Y,Y,Y,,9550.703125,512.976093295105
285,Inn Yard Park,East Fairmount Park,Y,,Inn Yard,Robert Evan's House,775,4250 RIDGE AVE,19129,4208-52 RIDGE AVE,4208-52 RIDGE AVE,1.41830039,NEIGHBORHOOD_PARK,MISC_PARK,7,5,4,39,Y,Y,N,,9795.21875,424.160075265764
286,Ralph R Rizzo Sr Ice Rink,Ralph R Rizzo Sr Ice Rink,N,"Ralph R. Rizzo, Sr. Ice Rink",Rizzo,,1407,1001 S FRONT ST,19147,1201-99 S FRONT ST,"1101 S FRONT ST;1201-99 S FRONT ST",1.9758609,NEIGHBORHOOD_PARK,RECREATION_SITE,10,7,1,3,Y,Y,Y,PPR has a lease agreement with PennDOT.,13615.36328125,516.900862986807
287,Lovett Park,Lovett Park,N,,Lovett, ,668,6941 GERMANTOWN AVE,19119,6923-45 GERMANTOWN AVE,6923-45 GERMANTOWN AVE,1.2263215,NEIGHBORHOOD_PARK,MISC_PARK,4,4,8,14,Y,Y,N,,8481.17578125,392.913956377738
288,Kelly Pool,West Fairmount Park,Y,,Kelly Pool,J.B. Kelly Pool,1278,4200 LANSDOWNE DR,19131,,42nd & Parkside,1.32842071,NEIGHBORHOOD_PARK,POOL,7,5,4,16,Y,Y,N,,9166.41796875,397.378588084625
289,Howard McCall Sr Playground,Howard McCall Sr Playground,N,"Howard McCall, Sr. Playground",McCall,30th and Jefferson Playground,797,3007 JEFFERSON ST,19121,3001-15 JEFFERSON ST,3001-15 JEFFERSON ST,1.20243016,NEIGHBORHOOD_PARK,MISC_PARK,7,6,5,22,Y,Y,Y,,8297.15234375,365.134231251495
290,20th and Tioga Field,20th and Tioga Field,N,20th and Tioga (Kenderton Field),20th and Tioga,Kenderton,573,2001 W TIOGA ST,19140,2001 W TIOGA ST,,1.19523722,NEIGHBORHOOD_PARK,ATHLETIC_OTHER,6,4,8,39,Y,Y,N,,8254.3671875,365.439377600586
291,Nelson M Herron Playground and Recreation Center,Nelson M Herron Playground and Recreation Center,N,Nelson M. Herron Playground and Recreation Center,Herron ,,2898,1322 S 02ND ST,19147,"1322 S 02ND ST, 213 REED ST","213 REED ST, American & Reed",1.11985807,NEIGHBORHOOD_PARK,RECREATION_SITE,10,7,1,3,Y,Y,Y,,7716.33203125,353.934264226671
292,Buist Park,Buist Park,N,,Buist, ,8,2528 HOBSON ST,19142,2528 HOBSON ST,68th & Buist,1.10659534,NEIGHBORHOOD_PARK,SQUARE_PLAZA,9,8,2,12,Y,Y,N,,7622.26171875,357.423856729265
293,Black Coyle and McBride Playground,Black Coyle and McBride Playground,N,"Black, Coyle, and McBride Playground",Black Coyle McBride,Pop's Playground,1820,2137 E HAZZARD ST,19125,2150-72 E HUNTINGDON ST,2150-72 E HUNTINGDON ST,1.06784046,NEIGHBORHOOD_PARK,RECREATION_SITE,5,2,1,26,Y,Y,Y,,7369.37109375,455.590481113774
294,Russell DeRitis Playground,Russell DeRitis Playground,N,Russell DeRitis Playground,DeRitis ,,198,5655 GRAYS AVE,19143,5655 GRAYS AVE,57th & Grays Ferry,1.03564125,NEIGHBORHOOD_PARK,MISC_PARK,9,8,2,12,Y,Y,Y,,7136.26171875,415.298360505483
295,Fairview Park,Fairview Park,N,,Fairview, ,806,4418 MANAYUNK AVE,19128,4418 MANAYUNK AVE,,1.01087545,NEIGHBORHOOD_PARK,BREEZEWAY_ISLAND,4,4,4,5,Y,Y,N,,6985.78125,335.077426090646
296,Hawthorne Cultural Center,Hawthorne Cultural Center,N,Hawthorne Cultural Center,Hawthorne Cultural Center,,1869,1200 CARPENTER ST,19147,1200 CARPENTER ST,,1.02238715,NEIGHBORHOOD_PARK,RECREATION_SITE,10,7,2,3,Y,Y,Y,,7046.29296875,441.930174099447
297,Winston Park,Winston Park,N,Winston Park,Winston, ,1133,185 E WILLOW GROVE AVE,19118,"181-85 E WILLOW GROVE AVE;60 E WILLOW GROVE AVE","181-85 E WILLOW GROVE AVE;60 E WILLOW GROVE AVE",1.0151591,NEIGHBORHOOD_PARK,BREEZEWAY_ISLAND,4,4,8,14,Y,Y,N,"Parceled portions assigned to DPP, but PPR is maintaining.",7024.0859375,599.428441613633
298,Konrad Square,Konrad Square,N,,Konrad, ,783,2200 E DAUPHIN ST,19125,2200-26 E DAUPHIN ST,"2200-26 E DAUPHIN ST, Tulip & Dauphin",1.01608216,NEIGHBORHOOD_PARK,SQUARE_PLAZA,5,2,1,26,Y,Y,N,,7011.2578125,334.149991836139
299,Ridgway Park,Ridgway Park,N,Ridgway Park,Ridgway,Ridgway Pool,2882,1301 CARPENTER ST,19147,1301 CARPENTER ST,901-23 S Broad St,1.0155088,NEIGHBORHOOD_PARK,MISC_PARK,10,7,2,3,Y,Y,N,,6999.078125,364.565442996962
300,Lincoln Indoor Pool,Lincoln Indoor Pool,N,,Lincoln,Abraham Lincoln High School Indoor Pool,3471,7437 ROWLAND AVE,19136,3201 RYAN AVE,"3201 RYAN AVE;7400 ROWLAND AVE",0.86936922,NEIGHBORHOOD_PARK,RECREATION_SITE,1,1,6,15,Y,Y,Y,PPR leases out the Indoor Pool only from School District began in 1977.,6010.03515625,434.17943464309
301,Woodward Pines,Woodward Pines,N,,Woodward, ,2823,7922 LINCOLN DR,19118,"159 W SPRINGFIELD AVE, 7930-34 LINCOLN DR","159 W SPRINGFIELD AVE, 7930-34 LINCOLN DR",1.35453649,NEIGHBORHOOD_PARK,BREEZEWAY_ISLAND,4,4,8,14,Y,Y,N,,9370.80078125,755.404285949417
302,33rd and Wallace Playground,33rd and Wallace Playground,N,,33rd and Wallace ,Mantua Playground,1801,3302 WALLACE ST,19104,3300-26 WALLACE ST,"3300-26 WALLACE ST, Wallace & Mount Vernon",0.9468593,NEIGHBORHOOD_PARK,RECREATION_SITE,7,8,3,16,Y,Y,Y,,6530.875,363.812414996341
303,Ann P Nichols Park,Ann P Nichols Park,N,Ann P. Nichols Park,Nichols,,494,5430 RACE ST,19139,5430-46 RACE ST,"5430-46 RACE ST, Race & Conestoga",0.88560891,NEIGHBORHOOD_PARK,MISC_PARK,8,8,4,19,Y,Y,N,,6108.09765625,328.530252971226
304,Weccacoe Square,Weccacoe Square,N,Weccacoe Square,Weccacoe ,,1969,425 QUEEN ST,19147,405-25 QUEEN ST,"405-25 QUEEN ST;4th & Catharine;412 CATHARINE ST",0.90374193,NEIGHBORHOOD_PARK,RECREATION_SITE,10,7,1,3,Y,Y,Y,,6228.515625,314.661066536613
305,Frankford and Pennypack Park,Frankford and Pennypack Park,N,,Frankford and Pennypack,Frankford Neighborhood Park,390,4400 PENNYPACK ST,19136,4400 PENNYPACK ST,,0.91624904,NEIGHBORHOOD_PARK,BREEZEWAY_ISLAND,1,1,6,8,Y,Y,N,,6334.9375,322.437897494398
306,Colonel Thomas J Powers Park,Colonel Thomas J Powers Park,N,Colonel Thomas J. Powers Park,Powers,,591,2987 ALMOND ST,19134,2987 ALMOND ST,Ann & Almond,0.89805067,NEIGHBORHOOD_PARK,SQUARE_PLAZA,5,2,1,24,Y,Y,N,ADDRESS_BRT comes from a bigger parcel,6197.3828125,318.784547913281
307,Gold Star Park,Gold Star Park,N,,Gold Star, ,143,613 WHARTON ST,19147,613 WHARTON ST,Wharton & Marshall,0.88294593,NEIGHBORHOOD_PARK,MISC_PARK,9,7,1,3,Y,Y,N,Currently under construction 8/2020,6084.28515625,315.620069798698
308,Hawthorne Park,Hawthorne Park,N,,Hawthorne Park, ,2884,750 S 12TH ST,19147,750 S 12TH ST,12th & Catharine,0.8745805,NEIGHBORHOOD_PARK,SQUARE_PLAZA,10,7,2,3,Y,Y,N,,6028.01953125,307.769197198538
309,East Passyunk Community Recreation Center,East Passyunk Community Recreation Center,N,East Passyunk Community Recreation Center,East Passyunk,Tolentine Community Center,1963,1027 MIFFLIN ST,19148,1025-33 MIFFLIN ST,"1025-33 MIFFLIN ST, 1025 MIFFLIN ST",0.8192712,NEIGHBORHOOD_PARK,RECREATION_SITE,9,7,1,3,Y,Y,Y,Site had some renovations in 9/2020,5644.421875,342.159280993505
310,Thomas P Stokley Recreation Center,Thomas P Stokley Recreation Center,N,Thomas P. Stokley Recreation Center,Stokley ,,1959,3000 EDGEMONT ST,19134,3000 EDGEMONT ST,"Edgemont & Indiana;3001 THOMPSON ST",0.84238361,NEIGHBORHOOD_PARK,RECREATION_SITE,5,2,1,24,Y,Y,Y,,5813.19921875,302.214908763499
311,Cedar Park,Cedar Park,N,,Cedar, ,401,4917 BALTIMORE AVE,19143,4917-53 BALTIMORE AVE,"4917-53 BALTIMORE AVE, 50th & Baltimore",0.83899354,NEIGHBORHOOD_PARK,MISC_PARK,8,8,3,18,Y,Y,N,,5783.99609375,377.916807128464
312,Waterloo Playground,Waterloo Playground,N,Waterloo Playground,Waterloo ,,2901,2501 WATERLOO ST,19133,2502-12 N HOWARD ST,"2502-12 N HOWARD ST, Waterloo & Cumberland",1.03774369,NEIGHBORHOOD_PARK,RECREATION_SITE,6,6,7,26,Y,Y,Y,Not completely parcelized,7162.66015625,490.133044166884
313,75th and Chelwynde Play Lot,75th and Chelwynde Play Lot,N,,75th and Chelwynde, ,3472,2604 ISLAND AVE,19153,2604 ISLAND AVE,2609-17 S 75TH ST,0.81384714,NEIGHBORHOOD_PARK,BREEZEWAY_ISLAND,9,8,2,12,Y,Y,N,,5604.38671875,352.459045220097
314,Tip Top Playground,Tip Top Playground,N,Tip Top,Tip Top , ,279,1013 N HOPE ST,19123,1036-66 N FRONT ST,"1036-66 N FRONT ST, Front & Allen",0.78631905,NEIGHBORHOOD_PARK,RECREATION_SITE,10,2,1,26,Y,Y,Y,,5423.81640625,316.916464090567
315,Palmer Park,Palmer Park,N,,Palmer,Fishtown at Palmer Park,1171,1701 FRANKFORD AVE,19125,1701-21 FRANKFORD AVE,"1701-21 FRANKFORD AVE, Frankford & Palmer",0.81570694,NEIGHBORHOOD_PARK,SQUARE_PLAZA,5,2,5,26,Y,Y,N,,5627.87109375,292.852521638213
316,Trenton and Auburn Playground,Trenton and Auburn Playground,N,,Trenton and Auburn ,,583,2222 E AUBURN ST,19134,"2207-39 E RUSH ST, 2200-34 E AUBURN ST","2200 E AUBURN;2207-39 E RUSH ST, 2200-34 E AUBURN ST",0.80820412,NEIGHBORHOOD_PARK,MISC_PARK,5,2,1,24,Y,Y,Y,Divided by multiple parcels,5577.96875,321.070827884735
317,James Otis Ford Playground,James Otis Ford Playground,N,James Otis Ford Playground,Ford,Ford PAL Recreation Center,958,633 SNYDER AVE,19148,"609-39 SNYDER AVE, 630-38 SNYDER AVE","619 SNYDER AVE;7th & Snyder",0.79992643,NEIGHBORHOOD_PARK,RECREATION_SITE,9,7,1,3,Y,Y,Y,,5510.6171875,322.739984208952
318,Ben Barkan Park,Ben Barkan Park,N,,Barkan,,239,4998 SPRUCE ST,19143,4936-58 SPRUCE ST,"4936-58 SPRUCE ST, 50th & Spruce",0.78107903,NEIGHBORHOOD_PARK,MISC_PARK,8,8,3,18,Y,Y,N,,5385.63671875,303.834102270077
319,Charles A Baker Playground,Charles A Baker Playground,N,Charles A. Baker Playground,Baker ,,1981,5433 LANSDOWNE AVE,19131,5431-43 LANSDOWNE AVE,"5431-43 LANSDOWNE AVE, Conestoga & Lansdowne;1600 N CONESTOGA ST",0.759114,NEIGHBORHOOD_PARK,RECREATION_SITE,8,8,4,19,Y,Y,Y,,5237.79296875,315.120631279032
320,8th and Diamond Playground,8th and Diamond Playground,N,,8th and Diamond ,,1805,2098 N 08TH ST,19122,"2032-62 N 08TH ST; 2062 N 08TH ST","2032-62 N 08TH ST, 800 DIAMOND ST, 2062 N 08TH ST",0.72495076,NEIGHBORHOOD_PARK,RECREATION_SITE,6,6,5,26,Y,Y,Y,Site Renovated 2020-2021 (Rebuild).,5002.91796875,302.92795716146
321,Frank S Nelson Jr Memorial Recreation Center,Frank S Nelson Jr Memorial Recreation Center,N,"Frank S. Nelson, Jr. Memorial Recreation Center",Nelson ,,1988,2528 N 03RD ST,19133,2500-34 N 3RD ST,"2500-34 N 03RD ST, 3rd & Cumberland",0.72068601,NEIGHBORHOOD_PARK,RECREATION_SITE,6,6,7,26,Y,Y,Y,,4974.34375,299.56543860391
322,Fitler Square,Fitler Square,N,,Fitler, ,2904,2301 PINE ST,19103,2301-23 PINE ST,"2301-23 PINE ST, 23rd & Pine",0.72002961,NEIGHBORHOOD_PARK,SQUARE_PLAZA,7,5,2,9,Y,Y,N,,4963.78515625,292.6747069823
323,Vincent G Panati Playground,Vincent G Panati Playground,N,Vincent G. Panati Playground,Panati,,1928,3115 N 22ND ST,19132,"3101-27 N 22ND ST;2119-29 W CLEARFIELD ST","3101-27 N 22ND ST, 22nd & Clearfield;2119-29 W CLEARFIELD ST",1.10142933,NEIGHBORHOOD_PARK,RECREATION_SITE,6,6,8,39,Y,Y,Y,SE Corner parcels added in 2010. DPP acquisition that never officially transferred to PPR. But PPR will maintain for now.,7605.234375,348.814724266937
324,Veterans Memorial Recreation Center of the Nineteenth Ward,Veterans Memorial Recreation Center of the Nineteenth Ward,N,Veterans Memorial Recreation Center of the Nineteenth Ward,Veterans ,Veterans Memorial Playground,1198,800 W CUMBERLAND ST,19133,800 W CUMBERLAND ST,9th & Cumberland,0.6574813,NEIGHBORHOOD_PARK,RECREATION_SITE,6,6,5,26,Y,Y,Y,ADDRESS_BRT comes from a bigger parcel ,4538.16015625,287.484661293537
325,Heritage Park Playground,Heritage Park Playground,N,,Heritage, ,1871,1533 W CLEARFIELD ST,19132,1517-33 W CLEARFIELD ST,"1517-33 W CLEARFIELD ST,  1511-17 W CLEARFIELD ST, 1519 W CLEARFIELD ST",0.65680377,NEIGHBORHOOD_PARK,RECREATION_SITE,6,4,8,39,Y,Y,Y,,4534.96875,277.777934531516
326,Frank Glavin Playground,Frank Glavin Playground,N,The Frank Glavin Playground,Glavin ,"""A&W"" Playground",1860,2612 E WESTMORELAND ST,19134,3267-81 ALMOND ST,"3267-81 ALMOND ST, 2600 E WESTMORELAND ST; Westmoreland & Almond",0.62876166,NEIGHBORHOOD_PARK,RECREATION_SITE,5,2,6,24,Y,Y,Y,,4339.53515625,260.946765812856
327,Marie Winchester Playground,Marie Winchester Playground,N,Marie Winchester Playground,Winchester , ,2900,2326 N 15TH ST,19132,2316-36 N 15TH ST,"2330 N 15th St, 2316-36 N 15TH ST, 2322 N 15TH ST",0.61297779,NEIGHBORHOOD_PARK,RECREATION_SITE,6,6,5,22,Y,Y,Y,,4230.8828125,303.327862951244
328,Triangle Park,Triangle Park,N,,Triangle Park, ,844,5419 UPLAND WAY,19131,5425R-65 UPLAND WAY,5425R-65 UPLAND WAY,0.61992157,NEIGHBORHOOD_PARK,MISC_PARK,8,8,4,19,Y,Y,N,,4278.16796875,314.515689854892
329,Cianfrani Park,Cianfrani Park,N,,Cianfrani, ,521,721 S 08TH ST,19147,721 S 08TH ST,8th & Fitzwater,0.60877382,NEIGHBORHOOD_PARK,SQUARE_PLAZA,10,7,1,3,Y,Y,N,,4195.94921875,272.069295856777
330,Garden Court,Garden Court,N,,Garden Court,Garden City Tennis Courts Park,303,4710 SPRUCE ST,19143,4700-10 SPRUCE ST,"4700-10 SPRUCE ST, 47th & Spruce",0.58517395,NEIGHBORHOOD_PARK,MISC_PARK,8,8,3,18,Y,Y,N,,4034.765625,273.334297127641
331,Clayborne and Lewis Playground,Clayborne and Lewis Playground,N,Clayborne and Lewis Playground,Clayborne and Lewis,,2896,1101 N 38TH ST,19104,1101 N 38TH ST,"38th & Poplar, 3800 POPLAR ST",0.59067708,NEIGHBORHOOD_PARK,RECREATION_SITE,7,8,3,16,Y,Y,Y,,4075.1328125,255.457752887828
332,Merritt Square,Merritt Square,N,,Merritt, ,781,1321 STEINBER ST,19124,1321 STEINBER ST,Steinber & Carey,0.56397668,NEIGHBORHOOD_PARK,SQUARE_PLAZA,5,3,7,24,Y,Y,N,,3894.44921875,246.235344884356
333,Gerald J Maguire Playground,Gerald J Maguire Playground,N,Gerald J. Maguire Playground,Maguire ,Lehigh Playground,780,155 W LEHIGH AVE,19133,155-59 W LEHIGH AVE,"155-59 W LEHIGH AVE, Mascher & Lehigh",0.5610965,NEIGHBORHOOD_PARK,MISC_PARK,6,3,7,25,Y,Y,Y,,3873.109375,260.697503279888
334,Sabatino La Noce Park,Sabatino La Noce Park,N,,La Noce,,879,5119 ROCHELLE AVE,19128,5119 ROCHELLE AVE,,0.63945891,NEIGHBORHOOD_PARK,MISC_PARK,4,4,4,5,Y,Y,N,,4417.41796875,267.569651962132
335,Mario Lanza Park,Mario Lanza Park,N,,Lanza,,47,214 CATHARINE ST,19147,214 CATHARINE ST,,0.50692024,NEIGHBORHOOD_PARK,SQUARE_PLAZA,10,7,1,3,Y,Y,N,,3493.58984375,257.62950194578
336,37th and Mount Vernon Playground ,37th and Mount Vernon Playground ,N,"
",37th and Mt Vernon , ,2897,614 N 37TH ST,19104,608-16 N 37TH ST,"608-16 N 37TH ST;600 N 37TH ST;3700 MOUNT VERNON ST",0.47816866,POCKET_PARK,MISC_PARK,7,8,3,16,Y,Y,N,,3298.015625,264.141831520469
337,James L Wright Playground,James L Wright Playground,N,James L. Wright Playground,Wright ,Mantua Recreation Center,1975,3340 HAVERFORD AVE,19104,"3318-50 HAVERFORD AVE, 3321 BRANDYWINE ST","3320-50 HAVERFORD AVE, 34th & Haverford, 3318-50 HAVERFORD AVE, 3321 BRANDYWINE ST, 3390 HAVERFORD AVE, 3384 HAVERFORD AVE",0.54906109,NEIGHBORHOOD_PARK,RECREATION_SITE,7,8,3,16,Y,Y,Y,,3786.953125,297.682298148205
338,Hagert Street Playground,Hagert Street Playground,N,,Hagert ,,847,2034 E HAGERT ST,19125,2024-40 E HAGERT ST,"2024-40 E HAGERT ST, Hagert & Coral",0.48635495,POCKET_PARK,MISC_PARK,5,2,1,26,Y,Y,Y,,3356.390625,246.189236148772
339,Mollbore Terrace Park,Mollbore Terrace Park,N,,Mollbore Terrace, ,0,1226 MOLLBORE TER,19148,"1032 MOLLBORE TER,1032 MOLLBORE TER,1032 MOLLBORE TER","Mollbore Ter & 8th; Mollbore Ter & 11th; Mollbore Ter & 12th;1032 MOLLBORE TER,1032 MOLLBORE TER,1032 MOLLBORE TER",1.42962527,NEIGHBORHOOD_PARK,BREEZEWAY_ISLAND,9,7,"1, 2",3,Y,Y,N,This is the land boundaries of all 3 portions of Mollbore Terrace put together in a single multipart polygon.,9846.3203125,807.391141443055
340,Ramblers Recreation Center,Ramblers Recreation Center,N,,Ramblers ,Harrowgate PAL Center,1937,851 E TIOGA ST,19134,"801-41 E ATLANTIC ST, 851 E TIOGA ST",801-41 E ATLANTIC ST,3.17211055,NEIGHBORHOOD_PARK,RECREATION_SITE,5,3,7,24,Y,Y,Y,,21903.15234375,865.086237946315
341,Philadelphia History Museum at the Atwater Kent,Philadelphia History Museum at the Atwater Kent,N,Philadelphia History Museum at the Atwater Kent,Atwater Kent Museum, ,3473,15 S 7TH ST,19106,13-17 S 07TH ST,13-17 S 07TH ST,0.44448994,POCKET_PARK,MUSEUM,10,5,1,6,Y,Y,N,,3064.47265625,269.757758762767
342,Lloyd Hall Recreation Center,East Fairmount Park,Y,Lloyd Hall Recreation Center,Lloyd Hall,,997,800 KELLY DR,19130,N/A,"1 JOHN B KELLY DR, 790 WATER WORKS DR",1.2645589,NEIGHBORHOOD_PARK,RECREATION_SITE,7,5,5,9,Y,Y,Y,Located in East Fairmount Park,8723.1484375,385.197519565146
343,Wilmot Park,Wilmot Park,N,,Wilmot,"Da Square;Square Park",99,1801 MEADOW ST,19124,1801 MEADOW ST,Hawthorne St & Meadow St,0.42003917,POCKET_PARK,RECREATION_SITE,5,2,7,15,Y,Y,Y,Historic Designation for the land on 10/2021.,2901.28515625,238.741394620065
344,Anna M Ross Park,Anna M Ross Park,N,Anna M. Ross Park,Ross,10th & Glenwood,762,1000 W GLENWOOD AVE,19133,1000 W GLENWOOD AVE,"10th & Clearfield, 1000 W GLENWOOD AVE",0.41942625,POCKET_PARK,BREEZEWAY_ISLAND,6,3,5,25,Y,Y,N,,2895.8515625,244.792519801751
345,Emanuel Weinberg Park,Emanuel Weinberg Park,N,Emanuel Weinberg Park,Weinberg, ,185,2205 S 06TH ST,19148,2201-09 S 6TH ST,"2201-09 S 06TH ST, 6th & Jackson",0.42156986,POCKET_PARK,SQUARE_PLAZA,10,7,1,3,Y,Y,N,,2904,251.829964571915
346,Corporal George J Reed Jr Memorial Playground,Corporal George J Reed Jr Memorial Playground,N,"Corporal George J. Reed, Jr. Memorial Playground",Reed , ,1173,213 W ONTARIO ST,19140,213 W ONTARIO ST,Ontario & Decatur,0.39665206,POCKET_PARK,MISC_PARK,6,3,7,25,Y,Y,Y,,2738.859375,222.705225540592
347,Wissahickon Neighbors Playground,Wissahickon Neighbors Playground,N,Wissahickon Neighbors Playground,Wissahickon Neighbors , ,2902,3901 TERRACE ST,19128,3901 TERRACE ST,"Terrace St & Hermit St;3901 TERRACE ST;200 HERMIT ST",0.39599284,POCKET_PARK,MISC_PARK,4,4,4,5,Y,Y,Y,,2735.8359375,207.744401151363
348,Louis I Kahn Park,Louis I Kahn Park,N,,Kahn, ,377,328 S 11TH ST,19107,328-38 S 11TH ST,"328-38 S 11TH ST, 11th & Pine",0.38831953,POCKET_PARK,SQUARE_PLAZA,10,5,1,6,Y,Y,N,,2676.83984375,265.758044448162
349,Benson Park,Benson Park,N,,Benson,Sharswood Park,571,1444 N 04TH ST,19122,"1440R N 04TH ST, 1442R-44 N 04TH ST, 1445 N LAWRENCE ST","1440R-44 N 04TH ST;1440R N 04TH ST, 1442R-44 N 04TH ST, 1445 N LAWRENCE ST",0.39455246,POCKET_PARK,MISC_PARK,10,2,7,26,Y,Y,N,,2722.0546875,266.828588477275
350,Christ Church Park,Christ Church Park,N,,Christ Church, ,2827,35 N 02ND ST,19106,36-38 N 2ND ST,"201-17 MARKET ST;36-38 N 2ND ST",0.13202721,POCKET_PARK,HISTORIC_SITE,10,5,1,6,Y,Y,N,,910.2734375,146.123074505194
351,John (Steve) Schmidt Playground,John (Steve) Schmidt Playground,N,John (Steve) Schmidt Playground,Schmidt ,,1978,113 W ONTARIO ST,19140,113-23 W ONTARIO ST,"113-23 W ONTARIO ST, Howard & Ontario",0.36659798,POCKET_PARK,RECREATION_SITE,6,3,7,25,Y,Y,Y,,2531.3203125,223.887683285531
352,OConnor Pool,OConnor Pool,N,,OConnor,Joseph O'Connor Memorial Pool,85,577 S TANEY ST,19146,2601-13 SOUTH ST,"2601-13 SOUTH ST, 26th & South",0.37364796,POCKET_PARK,POOL,7,7,2,17,Y,Y,N,,2575.77734375,201.534627331811
353,Delancey Park,Delancey Park,N,,Delancey,Three Bears Park,115,311 DELANCEY ST,19106,311-19 DELANCEY ST,"311-19 DELANCEY ST, 3rd & Delancey",0.58590366,NEIGHBORHOOD_PARK,MISC_PARK,10,5,1,6,Y,Y,N,"St. Peter's Way to PPR (Ord 1969, pgs1222-1227)",4038.71875,523.356874986837
354,Edward Shippen Plaza (Bainbridge Green),Edward Shippen Plaza (Bainbridge Green),N,Edward Shippen Plaza/'Bainbridge Green',Shippen (Bainbridge Green), ,1225,300 BAINBRIDGE ST,19147,,"300-400 BAINBRIDGE ST, 4th & Bainbridge",0.34839846,POCKET_PARK,SQUARE_PLAZA,10,7,1,3,Y,Y,N,There is no parcel here,2401.3203125,738.797591517877
355,Market Square Park,Market Square Park,N,,Market,Market Place,1141,5501 GERMANTOWN AVE,19144,5501 GERMANTOWN AVE,Germantown & Church,0.34663667,POCKET_PARK,SQUARE_PLAZA,4,4,8,14,Y,Y,N,,2395.75,214.115994900968
356,Northeast Lions Park,Northeast Lions Park,N,Northeast Lions Park,NE Lions,"Barnes & Loney Park;Fox Chase Park",542,7966 OXFORD AVE,19111,7966 OXFORD AVE,Oxford Ave & Loney St,0.38465859,POCKET_PARK,SQUARE_PLAZA,1,1,10,2,Y,Y,N,,2661.8203125,203.962463932034
357,Hedge Street Park,Hedge Street Park,N,Hedge Street Park,Hedge,"Hedge and Plum Playground;New Park",37,4610 HEDGE ST,19124,"4610 HEDGE ST, 1675-79 ORTHODOX ST","4628 Hedge St;1675-79 ORTHODOX ST",0.43025854,POCKET_PARK,MISC_PARK,5,2,7,15,Y,Y,N,Divided by multiple parcels,2971.921875,274.328964428724
358,Etting Park,Etting Park,N,,Etting, ,694,3255 N MARSTON ST,19129,3255 N MARSTON ST,,0.30886554,POCKET_PARK,SQUARE_PLAZA,6,6,4,39,Y,Y,N,,2132.91796875,183.571729696826
359,Lederer Pool,Lederer Pool,N,Lederer Pool at Fishtown Playground,Lederer,"Fishtown Pool;Swimmo",839,618 MOYER ST,19125,1219-25 E MONTGOMERY AVE,"Montgomery & Moyer;618 MOYER ST;600 MOYER ST",0.29258007,POCKET_PARK,POOL,5,2,5,26,Y,Y,N,,2018.45703125,196.39965181604
360,Strawberry Mansion Playground,Strawberry Mansion Playground,N,,Strawberry Mansion Playground,Ridge Ave Neighborhood Park,808,3369 RIDGE AVE,19132,3369 RIDGE AVE,3369-3403 Ridge Ave,0.38469283,POCKET_PARK,MISC_PARK,7,6,4,22,Y,Y,Y,,2655.70703125,209.174288916209
361,Julian Abele Park,Julian Abele Park,N,,Abele, ,1159,923 S 22ND ST,19146,917-31 S 22ND ST,"917 S 22ND ST;917-31 S 22ND ST",0.28605199,POCKET_PARK,SQUARE_PLAZA,7,7,2,17,Y,Y,N,,1971.6171875,183.470862223662
362,Ralph Brooks Park,Ralph Brooks Park,N,Ralph Brooks Park,Brooks,,1360,1601 S 20TH ST,19145,1601-13 S 20TH ST,1601-13 S 20TH ST,0.28543655,POCKET_PARK,MISC_PARK,9,7,2,17,Y,Y,N,,1966.82421875,189.850115349697
363,Gilbert Stuart Park,Gilbert Stuart Park,N,,Stuart, ,843,5132 GERMANTOWN AVE,19144,5132 GERMANTOWN AVE,,0.28774131,POCKET_PARK,SQUARE_PLAZA,4,4,8,39,Y,Y,N,,1988.48828125,176.376338050722
364,West Oak Lane Senior Center,West Oak Lane Senior Center,N,West Oak Lane Senior Center,West Oak Ln Senior Center,West Oak Lane Older Adult Center,3477,7210 OGONTZ AVE,19138,7210-18 OGONTZ AVE,7210-18 OGONTZ AVE,0.22888162,POCKET_PARK,OLDER_ADULT_CENTER,4,4,9,14,Y,Y,N,Privately Owned. Currently in review by PPR.,1583.2890625,159.240281495758
365,Mummers Museum,Mummers Museum,N,,Mummers, ,3478,200 WASHINGTON AVE,19147,"200-10 WASHINGTON AVE, 212-22 WASHINGTON AVE","200-10 WASHINGTON AVE, 212-22 WASHINGTON AVE",0.24996843,POCKET_PARK,MUSEUM,10,7,1,3,Y,Y,N,,1722.53515625,174.472912405944
366,Diamond Park,Diamond Park,N,,Diamond, ,635,2045 N 18TH ST,19121,1736-44 DIAMOND ST,1736-44 DIAMOND ST,0.2476259,POCKET_PARK,SQUARE_PLAZA,6,6,5,22,Y,Y,N,Parcels split between PRA and City (DPP),1708.984375,162.452688209023
367,Ned Wolf Park,Ned Wolf Park,N,Ned Wolf Park,Wolf,,586,7018 MC CALLUM ST,19119,7018 MC CALLUM ST,Mc Callum St & W Ellet St,0.24682004,POCKET_PARK,SQUARE_PLAZA,4,4,8,14,Y,Y,N,"Former Arco station, funded by Arco.",1706.61328125,180.434727338565
368,Betsy Ross House,Betsy Ross House,N,Betsy Ross House,Betsy Ross House,Betsy Ross Flag House Museum,980,239 ARCH ST,19106,239-47 ARCH ST,239-47 ARCH ST,0.2361891,POCKET_PARK,HISTORIC_SITE,10,5,1,6,Y,Y,N,,1628.484375,173.33903922709
369,Giuseppe Bardascino Park,Giuseppe Bardascino Park,N,Giuseppe Bardascino Park,Bardascino,,557,1000 S 10TH ST,19147,1000 S 10TH ST,10th & Carpenter,0.23351745,POCKET_PARK,SQUARE_PLAZA,10,7,1,3,Y,Y,N,,1609.3828125,158.235860408027
370,Karen Donnelly Park,Karen Donnelly Park,N,Karen Donnelly Park,Donnelly,,166,230 DICKINSON ST,19147,230-34 DICKINSON ST,230-34 DICKINSON ST,0.23304553,POCKET_PARK,MISC_PARK,10,7,1,3,Y,Y,N,,1605.70703125,202.26489078066
371,Thomas Hart Park,Thomas Hart Park,N,Thomas Hart Park,Hart ,,578,1321 N 04TH ST,19122,1315-21 N 04TH ST,1315-21 N 04TH ST,0.21553456,POCKET_PARK,MISC_PARK,10,2,5,26,Y,Y,Y,,1486.91015625,175.494639265274
372,Montgomery and Croskey Play Lot,Montgomery and Croskey Play Lot,N,,Montgomery and Croskey ,,614,2235 W MONTGOMERY AVE,19121,2225-37 W MONTGOMERY AVE,2225-37 W MONTGOMERY AVE,0.20059691,POCKET_PARK,MISC_PARK,6,6,5,22,Y,Y,Y,,1384.30078125,153.051777781172
373,Frank Palumbo Sr Park,Frank Palumbo Sr Park,N,Frank Palumbo Sr. Park,F Palumbo,"Florence Park;Frank Palumbo Park",2,723 CATHARINE ST,19147,723 CATHARINE ST,7th & Catharine,0.20163511,POCKET_PARK,SQUARE_PLAZA,10,7,1,3,Y,Y,N,,1389.70703125,151.868300787733
374,Hamilton Park,Hamilton Park,N,,Hamilton, ,891,547 RISING SUN AVE,19140,547 RISING SUN AVE,6th & Butler,0.17701566,POCKET_PARK,BREEZEWAY_ISLAND,6,3,7,25,Y,Y,N,,1222.5234375,148.01385406864
375,Charles J Buckley Park,Charles J Buckley Park,N,Charles J. Buckley Park,Buckley, ,1316,8199 GERMANTOWN AVE,19118,N/A,,0.16285274,POCKET_PARK,BREEZEWAY_ISLAND,4,4,8,14,Y,Y,N,There is no parcel here,1126.83984375,150.998056413413
376,John C Anderson Cultural Center,John C Anderson Cultural Center,N,John C. Anderson Cultural Center,J Anderson ,John Anderson Playground,3479,5323 OVERBROOK AVE,19131,5325 OVERBROOK AVE,"5235 OVERBROOK AVE;5391 OVERBROOK AVE",0.13331633,POCKET_PARK,RECREATION_SITE,8,8,4,19,Y,Y,Y,"Parcel is Library, PPR only responsible for this portion of the parcel.",920.3515625,144.316737608412
377,Mantua Community Garden,Mantua Community Garden,N,,Mantua Garden,"Arco Plaza;34th Street Park;Gateway to Brandywine St Park",34,520 N 34TH ST,19104,520 N 34TH ST,,0.14797246,POCKET_PARK,SQUARE_PLAZA,7,8,3,16,Y,Y,N,No gardening activity here. It is a passive plaza.,1020.578125,127.642552175771
378,Madison War Memorial,Madison War Memorial,N,,Madison,Doughboy,307,595 N 02ND ST,19123,563-65 N 2ND ST,563-65 N 02ND ST,0.14119793,POCKET_PARK,SQUARE_PLAZA,10,5,1,6,Y,Y,N,,973.79296875,139.425982696477
379,22nd and Ontario Park,22nd and Ontario Park,N,,22nd and Ontario , ,1185,3400 N 22ND ST,19140,3400-02 N 22ND ST,3400-02 N 22ND ST,0.14864821,POCKET_PARK,MISC_PARK,6,4,8,39,Y,Y,Y,,1026.5234375,133.954567446901
380,Louis P Paolone Sr Park,Louis P Paolone Sr Park,N,,Paolone,,349,732 SEARS ST,19147,716-34 SEARS ST,"718-34 SEARS, 8th & Sears;716-34 SEARS ST",0.08951335,POCKET_PARK,SQUARE_PLAZA,9,7,1,3,Y,Y,N,Divided by multiple parcels,616.82421875,135.443415251707
381,Daly Park,Daly Park,N,,Daly, ,917,1240 W SEDGELY AVE,19133,,12th & Sedgley,0.08468274,POCKET_PARK,BREEZEWAY_ISLAND,6,3,5,25,Y,Y,N,There is no parcel here,584.6875,101.152227232666
382,Beck Park,Beck Park,N,,Beck, ,195,839 S 02ND ST,19147,839 S 02ND ST,,0.07427552,POCKET_PARK,SQUARE_PLAZA,10,7,1,3,Y,Y,N,,511.875,111.415873714396
383,Coxe Park,Coxe Park,N,,Coxe, ,128,2132 CHERRY ST,19103,2132-34 CHERRY ST,"2132-34 CHERRY ST, Beechwood & Cherry",0.10927567,POCKET_PARK,MISC_PARK,7,5,5,9,Y,Y,N,,753.53125,128.267414900576
384,Greble Post War Memorial,Greble Post War Memorial,N,,Greble Post,Pennsport Veterans Memorial,94,1327 S 03RD ST,19147,1327 S 03RD ST,3rd & Moyamensing,0.04842489,POCKET_PARK,SQUARE_PLAZA,10,7,1,3,Y,Y,N,,333.66796875,81.2089484928991
385,18th and Jackson War Memorial,18th and Jackson War Memorial,N,,18th and Jackson, ,1215,1800 W PASSYUNK AVE,19145,N/A,,0.08338381,POCKET_PARK,SQUARE_PLAZA,9,7,2,1,Y,Y,N,There is no parcel here,574.4296875,148.363161588751
386,22nd and Catharine Park,22nd and Catharine Park,N,,22nd and Catharine,Catharine Park,1222,2200 CATHARINE ST,19146,2200 CATHARINE ST,,0.04624432,POCKET_PARK,MISC_PARK,7,7,2,17,Y,Y,N,,318.76171875,78.4027011938228
387,I-95 Park,I-95 Park,N,,I-95 Park,Status of Peace Plaza (Front/Catharine St),1228,,19147,,,13.0735898,NEIGHBORHOOD_PARK,GREENWAY_PARKWAY,10,"5, 7",1,"3, 6",Y,Y,N,,90114.76171875,4791.4513752653
388,General Casimir Pulaski Park,General Casimir Pulaski Park,N,General Casimir Pulaski Park,Pulaski, ,809,3001 E ALLEGHENY AVE,19134,3001 E ALLEGHENY AVE,,1.93025953,NEIGHBORHOOD_PARK,MISC_PARK,5,2,"1, 6",24,Y,Y,N,ADDRESS_BRT comes from a bigger parcel,13318.6640625,769.893104018157
389,Manton Street Park,Manton Street Park,N,,Manton, ,28,405 MANTON ST,19147,"405-07 MANTON ST, 1216 S 4TH ST","405-11 MANTON ST;405-07 MANTON ST, 1216 S 4TH ST",0.06139029,POCKET_PARK,BREEZEWAY_ISLAND,10,7,1,3,Y,Y,N,,423.046875,102.607064375069
390,Cecil B Moore Recreation Center,Cecil B Moore Recreation Center,N,Cecil B. Moore Recreation Center,CB Moore ,"C.B. Moore; Connie Mack Playground",1825,2563 N 22ND ST,19132,2020-50 W LEHIGH AVE,"2020-50 W LEHIGH AVE, 2551 N 22ND ST, 20th & Lehigh, 2501 N 22ND ST",2.13806803,NEIGHBORHOOD_PARK,RECREATION_SITE,6,6,5,22,Y,Y,Y,,14759.44140625,577.106872149446
391,Shofuso Japanese Garden,West Fairmount Park,Y,Shofuso Japanese Garden,Japanese Garden,"Japanese House and Garden;Pine Breeze Villa and Shofuso",3480,4301 LANSDOWNE DR,19131,3401 W GIRARD AVE,Lansdowne Dr & Horticultural Dr,1.08153134,NEIGHBORHOOD_PARK,MUSEUM,7,5,4,16,N,Y,N,Located within the boundaries of the Fairmount Park Horticulture Center. Designed and created in 1953,7461.25390625,340.74467395487
392,61st and Cobbs Creek Park,Cobbs Creek Park,Y,,61st and Cobbs Creek, ,3481,61ST & COBBS CREEK,19143,,,5.16389835,NEIGHBORHOOD_PARK,MISC_PARK,8,8,3,18,Y,Y,Y,,35596.9375,1037.39564506396
393,Stiles Street Play Lot,Stiles Street Play Lot,N,,Stiles,,945,1608 W STILES ST,19121,1608 W STILES ST,,0.01924614,POCKET_PARK,MISC_PARK,7,6,5,22,Y,Y,N,,132.7734375,59.5591635309677
394,Paines Park,Benjamin Franklin Parkway,Y,,Paines,,3490,400 MARTIN LUTHER KING DRIVE,19103,N/A,,2.82548203,NEIGHBORHOOD_PARK,MISC_PARK,7,5,5,9,Y,Y,N,ADDRESS_BRT comes from a bigger parcel,19487.26953125,670.256703961053
395,Danny Boyle Community Park,Danny Boyle Community Park,N,Danny Boyle Community Park,Boyle Community Park,Vandergrift Square,1197,2401 GERMANTOWN AVE,19133,800 W CUMBERLAND ST,"2401-13 GERMANTOWN AVE, 8th & York;800 W CUMBERLAND ST",0.35155594,POCKET_PARK,SQUARE_PLAZA,6,6,5,26,Y,Y,N,ADDRESS_BRT comes from a bigger parcel,2426.48828125,226.200252747101
396,June 5th Memorial Park ,June 5th Memorial Park ,N,,June 5th,22nd & Market Memorial Park,3076,2140 MARKET ST,19103,2140 MARKET ST,,0.11207944,POCKET_PARK,SQUARE_PLAZA,7,5,5,9,Y,Y,N,,772.80078125,141.897666503713
397,Ingersoll Park,Ingersoll Park,N,,Ingersoll,16th & Master Park,3104,1300 N 16TH ST,19121,1312-26 N 16TH ST,"16th & Master;1312-26 N 16TH ST",0.77307863,NEIGHBORHOOD_PARK,SQUARE_PLAZA,7,6,5,22,Y,Y,N,,5333.69921875,325.578454941917
398,Eakins Oval,Benjamin Franklin Parkway,Y,Eakins Oval,Eakins,The Oval,1850,2451 BENJAMIN FRANKLIN PKWY,19130,N/A,,7.82014944,NEIGHBORHOOD_PARK,GREENWAY_PARKWAY,7,5,5,9,Y,Y,N,,53916.33203125,864.602552160763
399,Maja Park,Benjamin Franklin Parkway,Y,,Maja,"Century Park;Park Towne",2812,2250 BENJAMIN FRANKLIN PKWY,19130,N/A,,3.74697559,NEIGHBORHOOD_PARK,GREENWAY_PARKWAY,7,5,5,9,N,Y,N,Renamed in 2021.,25841.140625,942.748134451451
400,Poquessing Creek Park 4,Poquessing Creek Park,Y,,Poquessing Creek Park, ,1647,3601 ACADEMY RD,19154,,,60.78946883,REGIONAL_PARK,CONSERVATION_DRAINAGE_WATERSHED,1,1,10,8,N,N,N,,420931.71875,8831.47423639045
401,Poquessing Creek Park 3,Poquessing Creek Park,Y,,Poquessing Creek Park, ,1648,3125 MECHANICSVILLE RD,19154,,,32.11699727,NEIGHBORHOOD_PARK,CONSERVATION_DRAINAGE_WATERSHED,1,1,10,8,N,N,N,,222494.109375,2819.04894918881
402,Poquessing Creek Park 5,Poquessing Creek Park,Y,,Poquessing Creek Park,Millbrook,1642,4341 WHITING RD,19154,"4341 WHITING RD, 4302 WOODHAVEN RD",4302 WOODHAVEN RD,23.06549906,NEIGHBORHOOD_PARK,CONSERVATION_DRAINAGE_WATERSHED,1,1,10,8,N,N,N,This area was formerly known as Millbrook,159621.9453125,2422.00333552873
403,Poquessing Creek Park 8,Poquessing Creek Park,Y,,Poquessing Creek Park, ,2797,9925 HEGERMAN ST,19114,,9900-99 HEGERMAN ST,16.43644613,NEIGHBORHOOD_PARK,CONSERVATION_DRAINAGE_WATERSHED,1,1,6,8,N,N,N,,113685.625,2338.44558988325
404,Poquessing Creek Park 6,Poquessing Creek Park,Y,,Poquessing Creek Park, ,1639,130 DIMARCO DR,19154,,,15.12042514,NEIGHBORHOOD_PARK,CONSERVATION_DRAINAGE_WATERSHED,1,1,10,8,N,N,N,,104621.99609375,2098.5459339375
405,Poquessing Creek Park 7,Poquessing Creek Park,Y,,Poquessing Creek Park, ,1638,10501 KNIGHTS RD,19154,"10725 KNIGHTS RD, 10501 KNIGHTS RD",10725 KNIGHTS RD,12.67045448,NEIGHBORHOOD_PARK,CONSERVATION_DRAINAGE_WATERSHED,1,1,10,8,N,N,N,,87654.75,2171.59080982033
406,Poquessing Creek Park 2,Poquessing Creek Park,Y,,Poquessing Creek Park, ,2813,1300 POQUESSING CREEK DR,19116,,1300-2600 POQUESSING CRK DR,3.42031694,NEIGHBORHOOD_PARK,CONSERVATION_DRAINAGE_WATERSHED,1,1,10,7,N,N,N,,23702.3203125,1156.55664445866
407,Fairmount Drainage Right of Way 1,Fairmount Drainage Rights of Way,Y,,Fairmount Drain ROW, ,2909,190 ALBURGER AVE,19115,,,52.64595238,REGIONAL_PARK,CONSERVATION_DRAINAGE_WATERSHED,1,1,10,7,N,N,N,,364531.44921875,6428.22488757743
408,Fairmount Drainage Right of Way 7,Fairmount Drainage Rights of Way,Y,,Fairmount Drain ROW, ,1643,10901 WALDEMIRE DR,19154,,10901-11899 WALDEMIRE DR,52.18075358,REGIONAL_PARK,CONSERVATION_DRAINAGE_WATERSHED,1,1,10,8,N,N,N,,361173.12890625,8166.29218368589
409,Fairmount Drainage Right of Way 2,Fairmount Drainage Rights of Way,Y,,Fairmount Drain ROW, ,2796,8601 VERREE RD,19115,,,22.13654398,NEIGHBORHOOD_PARK,CONSERVATION_DRAINAGE_WATERSHED,1,1,10,7,N,N,N,,153248.04296875,2962.72745367495
410,Fairmount Drainage Right of Way 5,Fairmount Drainage Rights of Way,Y,,Fairmount Drain ROW, ,1640,3460 MORRELL AVE,19114,,,25.35725682,NEIGHBORHOOD_PARK,CONSERVATION_DRAINAGE_WATERSHED,1,1,10,8,N,N,N,,175460.29296875,4426.56859110228
411,Fairmount Drainage Right of Way 4,Fairmount Drainage Rights of Way,Y,,Fairmount Drain ROW, ,2803,2870 WILLITS RD,19136,,,5.65857992,NEIGHBORHOOD_PARK,CONSERVATION_DRAINAGE_WATERSHED,1,1,6,8,N,N,N,There is no parcel here,39138.3359375,1091.14528855371
412,Fairmount Drainage Right of Way 3,Fairmount Drainage Rights of Way,Y,,Fairmount Drain ROW, ,2804,2620 MAXWELL ST,19152,,,5.12008341,NEIGHBORHOOD_PARK,CONSERVATION_DRAINAGE_WATERSHED,1,1,6,8,N,N,N,,35417.31640625,1402.27099550291
413,Fairmount Drainage Right of Way 8,Fairmount Drainage Rights of Way,Y,,Fairmount Drain ROW, ,1636,3777 MORRELL AVE,19114,,,8.09039648,NEIGHBORHOOD_PARK,CONSERVATION_DRAINAGE_WATERSHED,1,1,10,8,N,N,N,,55966.71484375,2293.46384390194
414,Fairmount Drainage Right of Way 6,Fairmount Drainage Rights of Way,Y,,Fairmount Drain ROW, ,1646,3099 WOODHAVEN RD,19154,12240 THORNTON RD,12240 THORNTON RD,3.29825943,NEIGHBORHOOD_PARK,CONSERVATION_DRAINAGE_WATERSHED,1,1,10,8,N,N,N,Not completely parcelized,22839.921875,640.714906734993
415,Glen Foerd on the Delaware,Glen Foerd on the Delaware,N,,Glen Foerd, ,1634,5001 GRANT AVE,19114,5001 GRANT AVE,,22.89651846,NEIGHBORHOOD_PARK,CONSERVATION_DRAINAGE_WATERSHED,1,1,6,8,Y,Y,N,,158329.47265625,1665.03992551449
416,Allens Lane Art Center,Allens Lane Art Center,N,,Allens Ln Center, ,1807,651 W ALLENS LN,19119,621 W ALLENS LN,"601 W ALLENS LN;621 W ALLENS LN",6.57466701,NEIGHBORHOOD_PARK,RECREATION_SITE,4,4,8,14,Y,Y,Y,,45463.75,878.306104649741
417,Eric W (Hank) Gathers Jr Recreation Center,Eric W (Hank) Gathers Jr Recreation Center,N,"Eric W. (Hank) Gathers, Jr. Recreation Center",Gathers,Moylan Recreation Center,1852,2501 W DIAMOND ST,19121,2501-59 DIAMOND ST,"2501-19 W DIAMOND ST, 25th & Diamond",3.6915061,NEIGHBORHOOD_PARK,RECREATION_SITE,6,6,5,22,Y,Y,Y,,25478.70703125,757.60537263736
418,River Field,Benjamin Franklin Parkway,Y,River Field,River Field, ,1940,302 N 24TH ST,19103,N/A,,6.55980699,NEIGHBORHOOD_PARK,GREENWAY_PARKWAY,7,5,5,9,N,Y,N,,45233.62890625,1043.06810035761
419,Levy Park,Benjamin Franklin Parkway,Y,,Levy,Horwitz-Wasserman Holocaust Memorial Plaza,2911,1635 ARCH ST,19103,1619-29 ARCH ST,1619-29 ARCH ST,0.6092862,NEIGHBORHOOD_PARK,GREENWAY_PARKWAY,7,5,5,9,Y,Y,N,"Needs verification on ownership (PWD and Bill are different); Redesign - Bill 170989 (12/14/17); Unsure of borders along 17th St",4200.26171875,362.242051683667
420,Kingsessing Recreation Center,Kingsessing Recreation Center,N,Kingsessing Recreation Center,Kingsessing,,1886,4901 KINGSESSING AVE,19143,4901 KINGSESSING AVE,51st & Chester,9.15492108,NEIGHBORHOOD_PARK,RECREATION_SITE,8,8,3,12,Y,Y,Y,,63103.75390625,1042.24271531366
421,William Lanier Park,William Lanier Park,N,,Lanier,,407,1600 S 29TH ST,19145,1600 S 29TH ST,2900 TASKER ST,4.11998635,NEIGHBORHOOD_PARK,RECREATION_SITE,9,7,2,17,Y,Y,Y,,28390.578125,666.204445371211
422,Irish and Scottish Immigration Memorials,I-95 Park,Y,,Irish and Scottish Memorials, ,2818,111 S FRONT ST,19106,N/A,,1.85246038,NEIGHBORHOOD_PARK,GREENWAY_PARKWAY,10,5,1,6,Y,Y,N,There is no parcel here.,12770.60546875,455.335777659226
423,Korean War Veterans Memorial,I-95 Park,Y,Korean War Veteran's Memorial,Korean Memorial, ,1887,109 SPRUCE ST,19106,109 SPRUCE ST,,1.30860834,NEIGHBORHOOD_PARK,GREENWAY_PARKWAY,10,5,1,6,Y,Y,N,,9020.6484375,386.448702554653
424,Philadelphia Vietnam Veterans Memorial,I-95 Park,Y,,Vietnam Memorial, ,1626,10 SPRUCE ST,19106,,,1.96488927,NEIGHBORHOOD_PARK,GREENWAY_PARKWAY,10,5,1,6,Y,Y,N,,13544.15234375,468.718820690118
425,Northern Liberties Recreation Center,Northern Liberties Recreation Center,N,Northern Liberties Recreation Center,Northern Liberties,"District 6 HQ (Recreation);Cement Park",1921,315 FAIRMOUNT AVE,19123,"313-27 FAIRMOUNT AVE, 706-12 N 3RD ST","313-27 FAIRMOUNT AVE, 321 FAIRMOUNT AVE;706-12 N 3RD ST",0.654731,NEIGHBORHOOD_PARK,RECREATION_SITE,10,2,5,6,Y,Y,Y,,4515.63671875,339.355374018606
426,Aviator Park,Benjamin Franklin Parkway,Y,Aviator Park,Aviator,Logan Square,2817,200 N 19TH ST,19103,200 N 19TH ST,,1.89705075,NEIGHBORHOOD_PARK,GREENWAY_PARKWAY,7,5,5,9,Y,Y,N,Aviator Park is part of Logan Square.,13078.390625,500.30770683905
427,Sister Cities Park,Benjamin Franklin Parkway,Y,Sister Cities Park,Sister Cities,Logan Square,2820,200 N 18TH ST,19103,,,1.73994067,NEIGHBORHOOD_PARK,SQUARE_PLAZA,7,5,5,9,Y,Y,N,Sister Cities Park is part of Logan Square,11995.87890625,486.151659216537
428,Cret Park,Benjamin Franklin Parkway,Y,Cret Park,Cret,Three Parkway Plaza,2821,110 N 16TH ST,19103,110 N 16TH ST,,1.12740815,NEIGHBORHOOD_PARK,GREENWAY_PARKWAY,7,5,5,9,Y,Y,N,,7773.37890625,414.217628669875
429,Torun Triangle,Benjamin Franklin Parkway,Y,,Torun,Kopernicus Triangle,2826,1716 RACE ST,19103,1716-34 RACE ST,1716-34 RACE ST,0.62817212,NEIGHBORHOOD_PARK,GREENWAY_PARKWAY,7,5,5,9,N,N,N,,4331.36328125,431.298773684878
430,Binswanger Triangle,Benjamin Franklin Parkway,Y,Binswanger Triangle,Binswanger, ,3491,2200 BENJ FRANKLIN PKY,19130,N/A,,0.22313246,POCKET_PARK,GREENWAY_PARKWAY,7,5,5,9,N,N,N,There is no parcel here,1546.796875,227.298083196925
431,Tacony Boat Launch,Tacony Boat Launch,N,Tacony Boat Launch,Tacony Launch,Princeton Avenue Boat Launch,3089,5198 PRINCETON AVE,19135,7071R MILNOR ST,7071R MILNOR ST,3.78609528,NEIGHBORHOOD_PARK,BOATHOUSE_LAUNCH,2,2,6,15,Y,Y,N,,26156.3125,672.312717893622
432,Carpenters Woods,Wissahickon Valley Park,Y,Carpenter's Woods,Carpenters Woods,,1627,801 W SEDGWICK ST,19119,"7001 WISSAHICKON AVE, 7045-99 GREENE ST","7001 WISSAHICKON AVE, 7045-99 GREENE ST",42.23422159,REGIONAL_PARK,CONSERVATION_DRAINAGE_WATERSHED,4,4,8,14,Y,Y,N,,291991.1484375,3032.97881760844
433,Officer Robert Hayes Memorial Playground Woods,Officer Robert Hayes Memorial Playground,Y,,Hayes Woods,"Swenson Park, Conwell",3084,9800 E ROOSEVELT BLVD,19115,9800 E ROOSEVELT BLVD,9850 E ROOSEVELT BLVD,19.06275018,NEIGHBORHOOD_PARK,CONSERVATION_DRAINAGE_WATERSHED,1,1,10,7,N,N,N,,131964.12109375,1473.62221713363
434,Officer Robert Hayes Memorial Playground,Officer Robert Hayes Memorial Playground,N,Officer Robert Hayes Memorial Playground,Hayes,"Swenson Park, Conwell",1923,9949 PRESIDENT ST,19115,"9850 E ROOSEVELT BLVD, 9800 E ROOSEVELT BLVD","9850 E ROOSEVELT BLVD, 9800 E ROOSEVELT BLVD",39.23612869,NEIGHBORHOOD_PARK,RECREATION_SITE,1,1,10,7,Y,Y,Y,,271624.1484375,3172.52449444143
435,Grays Ferry Crescent,Grays Ferry Crescent,N,,Grays Ferry Crescent,,1366,3696 WHARTON ST,19146,"1200R S 36TH ST, 3600 GRAYS FERRY AVE, 3699 GRAYS FERRY AVE, 1101 S 34TH ST","3501R GRAYS FERRY AVE;1200R S 36TH ST, 3600 GRAYS FERRY AVE, 3699 GRAYS FERRY AVE, 1101 S 34TH ST",14.02568174,NEIGHBORHOOD_PARK,GREENWAY_PARKWAY,9,7,2,17,Y,Y,N,,96680.6171875,3392.75566037311
436,Hope Park,Hope Park,N,Hope Park,Hope,,3080,201 E INDIANA AVE,19134,201-19 E INDIANA AVE,201-19 E INDIANA AVE,1.23248437,NEIGHBORHOOD_PARK,MISC_PARK,6,3,7,24,Y,Y,N,,8508.55859375,390.25448646884
437,Logan Square,Benjamin Franklin Parkway,Y,Logan Square,Logan,East/West Triangle,224,200 N 18TH ST,19103,"200 N 18TH ST, 200 N 19TH ST","20th & Parkway;200 N 19TH ST",9.27781492,NEIGHBORHOOD_PARK,GREENWAY_PARKWAY,7,5,5,9,Y,Y,N,"Logan Square includes Aviator Park, Galusha Pennypacker Park, Shakespeare Park, and Sister Cities Park",63984.12109375,3905.93547920787
438,Titan Park,Titan Park,N,,Titan,,339,110 TITAN ST,19147,108-10 TITAN ST,108-10 Titan Street,0.03128556,POCKET_PARK,SQUARE_PLAZA,10,7,1,3,Y,Y,N,BILL # 1251 1978 PENNSPORT URBAN R.A.PARCEL NO.16,215.56640625,57.9861073936467
439,Dodge Tract,Wissahickon Valley Park,Y,,,Donation Parcel,3094,7900 CHEROKEE ST,19118,7900 CHEROKEE ST,,6.6263286,NEIGHBORHOOD_PARK,CONSERVATION_DRAINAGE_WATERSHED,4,4,8,14,N,N,N,"Needs verification on ownership. Ordinance Bill #150475; Removed area NW of Valley Green Rd, not part of Natural Lands Trust's transfer",45830.44140625,1066.46755248147
440,Emily Community Garden,Emily Community Garden,N,,Emily Garden,Growing Home Garden,3443,742 EMILY ST,19148,732-42 EMILY ST,732-42 EMILY ST,0.10990058,POCKET_PARK,URBANAGRICULTURE_GARDEN,9,7,1,3,Y,Y,N,Site renovations planned for 2021,757.109375,113.602003738799
441,Poquessing Creek Park,Poquessing Creek Park,N,Poquessing Creek Park,Poquessing Creek Park, ,3494,,0,,,187.00984591,WATERSHED_PARK,CONSERVATION_DRAINAGE_WATERSHED,1,1,"6, 10","7, 8",Y,Y,N,,1294820.94921875,24950.1846178005
442,Benjamin Franklin Parkway,Benjamin Franklin Parkway,N,Benjamin Franklin Parkway,Benjamin Franklin Pkwy,"The Parkway; Rob Stuart Memorial Dog Park; Winter Street Greenway",1226,BENJ FRANKLIN PKY,0,N/A,,67.32464427,REGIONAL_PARK,GREENWAY_PARKWAY,7,5,5,9,Y,Y,N,"22nd and Hamilton 'wedge' added (Street Legal Card); Winter (21st-22nd) has a dog park 'Rob Stuart Memorial Dog Park'",464283.65625,21824.625659632
443,Philly Pumptrack,West Fairmount Park,Y,,Pumptrack, ,3496,5301 PARKSIDE AVE,19131,,,0.52983043,NEIGHBORHOOD_PARK,ATHLETIC_OTHER,7,5,4,19,Y,Y,N,,3656.5546875,243.283866003178
444,Reliance Triangle,Reliance Triangle,N,,Reliance,Bulldog Park,3301,2501 PENNSYLVANIA AVE,19130,2501 PENNSYLVANIA AVE,,0.34552695,POCKET_PARK,BREEZEWAY_ISLAND,7,6,5,9,Y,Y,N,,2382.9921875,208.365667881288
445,Philadelphia Stars Negro League Memorial Park,Philadelphia Stars Negro League Memorial Park,N,,Stars Negro League,,3535,1538 BELMONTE AVE,19104,N/A,,0.24872824,POCKET_PARK,SQUARE_PLAZA,7,8,4,19,Y,Y,N,,1716.2109375,219.470656397751
446,Glendinning Rock Garden,East Fairmount Park,Y,,Glendinning,,3585,1299 BREWERY HILL DR,19121,,"1201 KELLY DR, Girard Ave & Kelly Dr",2.78601038,NEIGHBORHOOD_PARK,HISTORIC_SITE,7,5,4,22,N,N,N,,19216.83203125,665.154225634132
447,Galusha Pennypacker Park,Benjamin Franklin Parkway,Y,Galusha Pennypacker Park,Pennypacker,Logan Square,2816,1856 VINE ST,19103,,200 N 18TH ST,1.13391877,NEIGHBORHOOD_PARK,SQUARE_PLAZA,7,5,5,9,Y,Y,N,Galusha Pennypacker Park is part of Logan Square. Renovated in 2017.,7824.828125,826.46141340223
448,Shakespeare Park,Benjamin Franklin Parkway,Y,Shakespeare Park,Shakespeare,Logan Square,3601,1948 VINE ST,19103,,200 N 18TH ST,1.17760953,NEIGHBORHOOD_PARK,SQUARE_PLAZA,7,5,5,9,Y,Y,N,Shakespeare Park is part of Logan Square. Renovated in 2017.,8120.4765625,607.454524048378
449,Bristol Street Warehouse,Bristol Street Warehouse,N,,Bristol,,3601,1632 E BRISTOL ST,19124,1610-32 E BRISTOL ST,1610-32 E BRISTOL ST,1.97235874,NEIGHBORHOOD_PARK,OPERATIONS,3,3,7,24,Y,Y,N,Operations Warehouse Site,13622.44140625,532.007860285031
450,Cobbs Creek Park,Cobbs Creek Park,N,Cobbs Creek Park,Cobbs Creek Park, ,3056, ,19143,"12 COBBS CREEK PKWY;6501 COBBS CREEK PKWY;6100 BALTIMORE AVE;6300-01 MARKET ST;6300 SPRUCE ST;7800 CITY AVE;7400 LANSDOWNE AVE;SEE ALIAS ADDRESSES","12 COBBS CREEK PKWY;6501 COBBS CREEK PKWY;6100 BALTIMORE AVE;6300-01 MARKET ST;6300 SPRUCE ST;7800 CITY AVE;7400 LANSDOWNE AVE;338-50 N 65TH ST;6525-47 VINE ST;6801 HAVERFORD AVE",743.81853597,WATERSHED_PARK,CONSERVATION_DRAINAGE_WATERSHED,8,8,"2, 3, 4","12, 18, 19",Y,Y,N,,5129641.4296875,46286.9134020443
451,John A Lee Cultural Center,John A Lee Cultural Center,N,John A. Lee Cultural Center,Lee Cultural Center,John A. Lee Recreation Center,1892,4372 HAVERFORD AVE,19104,4310 HAVERFORD AVE,"4310 HAVERFORD AVE, 4328 HAVERFORD AVE, 44th & Haverford",9.59479255,NEIGHBORHOOD_PARK,RECREATION_SITE,8,8,3,16,Y,Y,Y,Boundaries updated to reflect ownership of land. PHA owns the majority portion of the tennis courts.,66172.3984375,1081.90500300712
452,Burholme Park,Burholme Park,N,,Burholme,,490,7370 CENTRAL AVE,19111,7370 CENTRAL AVE,Cottman & Central,67.92219584,REGIONAL_PARK,MISC_PARK,1,1,10,2,Y,Y,N,,469911.921875,2822.99499648339
453,Historic Rittenhouse Town,Wissahickon Valley Park,Y,Historic Rittenhouse Town,Historic Rittenhouse Town,,1939,6014 WISSAHICKON AVE,19144,N/A,,10.57133417,NEIGHBORHOOD_PARK,HISTORIC_SITE,4,4,4,39,Y,Y,N,,73053.04296875,1688.5378231797
454,Organic Recycling Center,West Fairmount Park,Y,Organic Recycling Center,Recycling Center,,3628,3850 FORD RD,19131,3401 W GIRARD AVE,3401 W GIRARD AVE,13.83526658,NEIGHBORHOOD_PARK,OPERATIONS,7,5,4,16,Y,Y,N,,95509.15625,1786.41137663244
455,Belmont Grove,West Fairmount Park,Y,,Belmont Grove,Belmont Grove Picnic Area,3630,2076 BELMONT MANSION DR,19131,3401 W GIRARD AVE,"Belmont & Chamounix;3401 W GIRARD AVE",11.76148656,NEIGHBORHOOD_PARK,MISC_PARK,7,5,4,16,Y,Y,N,,81187.16015625,1318.67676026821
456,Mann Center for the Performing Arts,West Fairmount Park,Y,The Mann Center for the Performing Arts,Mann Center,"The Mann Center;Robin Hood Dell West",3634,5038 AVENUE OF THE REPUBLIC,19131,,"5201 PARKSIDE AVE;5396 N GEORGES HILL DR",24.0064744,NEIGHBORHOOD_PARK,OTHER,7,5,4,19,Y,Y,N,,165671.51171875,2337.31542984936
457,Clifford Park,Wissahickon Valley Park,Y,,Clifford,Thomas Mansion Grounds,1832,6141 WISSAHICKON AVE,19144,6331 WISSAHICKON AVE,6331 WISSAHICKON AVE,23.0669862,NEIGHBORHOOD_PARK,MISC_PARK,4,4,8,14,Y,Y,N,,159427.4765625,1692.81369143992
458,Blue Bell Park,Wissahickon Valley Park,Y,Blue Bell Park,Blue Bell,Blue Bell Hill,1311,844 W WALNUT LN,19144,N/A,Walnut & Park,8.33088374,NEIGHBORHOOD_PARK,ATHLETIC_OTHER,4,4,4,"14, 39",Y,Y,N,,57575.30859375,1502.7611171847
459,Saul High School Farm,Wissahickon Valley Park,Y,,Saul Farm,,3659,7107 HENRY AVE,19128,,,35.3051806,NEIGHBORHOOD_PARK,URBANAGRICULTURE_FARM,4,4,4,5,Y,Y,N,,244124.2578125,4300.97455860214
460,Parkwood,Parkwood,N,,Parkwood,Parkwood Youth Organization Recreation Center,3663,3359 MECHANICSVILLE RD,19154,3102 MECHANICSVILLE RD,"3301 MECHANICSVILLE RD;3102 MECHANICSVILLE RD;Dunksferry & Mechanicsville",30.81561268,NEIGHBORHOOD_PARK,ATHLETIC_OTHER,1,1,10,8,Y,Y,N,,213418.671875,2079.52925399535
461,American Swedish Historical Museum,Franklin Delano Roosevelt Park,Y,American Swedish Historical Museum,American Swedish Museum,American Swedish Museum,3666,1900 PATTISON AVE,19145,3500 S BROAD ST,3500 S BROAD ST,1.67416017,NEIGHBORHOOD_PARK,MUSEUM,9,7,2,1,Y,Y,N,,11527.3515625,455.637191295444
462,Andorra Natural Area,Wissahickon Valley Park,Y,,Andorra,,3667,9750 FORBIDDEN DR,19128,"9001 LYKENS LN, 950 NORTHWESTERN AVE","9001 LYKENS LN, 950 NORTHWESTERN AVE",158.15612487,WATERSHED_PARK,CONSERVATION_DRAINAGE_WATERSHED,4,4,4,5,Y,Y,N,,1094515.57421875,5568.6335500783
463,Cobbs Creek Community Environmental Center,Cobbs Creek Park,Y,,Cobbs Environ Center,"Cobbs Creek EEC;Cobbs Creek Environmental Education Center;Cobbs Creek Stables",1835,700 COBBS CREEK PKWY,19143,6300 SPRUCE ST,6300 SPRUCE ST,1.45077738,NEIGHBORHOOD_PARK,ENVIRONMENTAL_EDUCATION_CENTER,8,8,3,18,Y,Y,Y,,10002.78515625,597.832117044943
464,Saylors Grove,Wissahickon Valley Park,Y,,Saylors Grove,,3713,669 W RITTENHOUSE ST,19144,5800 WISSAHICKON AVE,"6020 WISSAHICKON AVE;5800 WISSAHICKON AVE;5964 WISSAHICKON AVE",3.31910353,NEIGHBORHOOD_PARK,CONSERVATION_DRAINAGE_WATERSHED,4,4,4,39,Y,Y,N,,22933.890625,724.466134797426
465,Ben-Gurion Place,Ben-Gurion Place,N,,Ben-Gurion,,0,107 N INDEPENDENCE MALL E,19106,N/A,Between N Independence Mall E and N 4th St,0.38716613,POCKET_PARK,BREEZEWAY_ISLAND,10,5,1,6,Y,Y,N,There is no parcel here,2669.3515625,377.605807408221
466,Commerce Street Walk,Commerce Street Walk,N,,Commerce,,0,25 N 04TH ST,19106,N/A,Between N 4th St and N 3rd St,0.37266554,POCKET_PARK,BREEZEWAY_ISLAND,10,5,1,6,Y,Y,N,There is no parcel here,2569.36328125,443.692868714668
467,Waverly Street Community Garden,Waverly Street Community Garden,N,Waverly Street Community Garden,Waverly,,99999,1131 WAVERLY ST,19147,1123-31 WAVERLY ST,1123-31 WAVERLY ST,0.09275297,POCKET_PARK,URBANAGRICULTURE_GARDEN,10,7,1,6,Y,Y,N,,639.375,110.819503354346
468,3rd and Norris Playground,3rd and Norris Playground,N,,3rd and Norris , ,2903,273 W NORRIS ST,19122,"259-61 W NORRIS ST, 263-73 W NORRIS ST","259-61 W NORRIS ST;263-73 W NORRIS ST;253-73 W NORRIS ST",0.23281031,POCKET_PARK,MISC_PARK,6,6,7,26,Y,Y,Y,,1606.54296875,165.15367207228
469,Howard and Reed Park,Howard and Reed Park,N,,Howard and Reed, ,433,105 REED ST,19147,107 REED ST,"105-09 REED ST;107 REED ST",0.07930905,POCKET_PARK,BREEZEWAY_ISLAND,10,7,1,3,Y,Y,N,Divided by multiple parcels,546.46875,92.313925202624
470,Sartain Garden,Sartain Garden,N,,Sartain Garden,Sartain Street Community Garden,99999,201 S SARTAIN ST,19107,1114-18 LOCUST ST,1114-18 LOCUST ST,0.08407577,POCKET_PARK,URBANAGRICULTURE_GARDEN,10,5,1,6,Y,Y,N,,579.60546875,104.185412049336
471,South Street Community Garden,South Street Community Garden,N,South Street Community Garden,South St Garden,South St Community Garden,99999,839 SOUTH ST,19147,831-39 SOUTH ST,831-39 SOUTH ST,0.20561096,POCKET_PARK,URBANAGRICULTURE_GARDEN,10,7,1,3,Y,Y,N,,1417.25,154.38477282629
472,Brewerytown Garden,Brewerytown Garden,N,,Brewerytown Garden,Brewerytown Community Garden,3767,1341 N 27TH ST,19121,"2634-44 MASTER ST, 1339 N 27TH ST, 1331 N 27TH St","2634-44 MASTER ST, 1339 N 27TH ST, 1331 N 27TH St",0.47675546,POCKET_PARK,URBANAGRICULTURE_GARDEN,7,6,5,22,Y,Y,N,,3289.49609375,357.616128486443
473,Discovery Center at East Fairmount Reservoir,East Fairmount Park,Y,The Discovery Center at East Fairmount Reservoir,Discovery Center,,3778,3395 RESERVOIR DR,19121,2500 SPRING GARDEN ST,"3401 RESERVOIR DR;2500 SPRING GARDEN ST;3369 RESERVOIR DR",51.19340812,REGIONAL_PARK,ENVIRONMENTAL_EDUCATION_CENTER,7,5,4,22,Y,Y,N,,353307.15234375,2752.240504477
474,Chamounix Aerial Adventure Course,West Fairmount Park,Y,,Aerial Adventure,Treetop Quest,0,3730 CHAMOUNIX DR,19131,3401 W GIRARD AVE,"51 Chamounix Dr;3401 W GIRARD AVE",16.8760356,NEIGHBORHOOD_PARK,ATHLETIC_OTHER,7,5,4,16,N,N,N,"Original lease agreement went to centerline, reduced to curbline. Created in 2018",116511.19921875,1722.4006874257
475,Boathouse Row,East Fairmount Park,Y,,Boathouse Row,,0,870 KELLY DR,19130,N/A,,4.31957624,NEIGHBORHOOD_PARK,BOATHOUSE_LAUNCH,7,5,5,9,N,Y,N,"Located in East Fairmount Park. Unofficial boundary that denotes the area known as Boathouse Row, includes all boathouses in this stretch of Kelly Drive (except Lloyd Hall)",29797.77734375,1238.65244553277
476,Mollbore Terrace Park at 8th St,Mollbore Terrace Park,Y,,Mollbore Terrace, ,235,703 MOLLBORE TER,19148,701 1/2 MOLLBORE TER,"1226 MOLLBORE TER, Mollbore Ter & 8th;701 1/2 MOLLBORE TER",0.47767365,POCKET_PARK,BREEZEWAY_ISLAND,9,7,1,3,N,N,N,,3289.86328125,269.054244737424
477,Mollbore Terrace Park at 11th St,Mollbore Terrace Park,Y,,Mollbore Terrace, ,431,1032 MOLLBORE TER,19148,1032 MOLLBORE TER,"1226 MOLLBORE TER, Mollbore Ter & 11th",0.47017059,POCKET_PARK,BREEZEWAY_ISLAND,9,7,2,3,N,N,N,,3238.23828125,267.731995884458
478,Mollbore Terrace Park at 12th St,Mollbore Terrace Park,Y,,Mollbore Terrace, ,283,1226 MOLLBORE TER,19148,1226 MOLLBORE TER,Mollbore Ter & 12th,0.48178102,POCKET_PARK,BREEZEWAY_ISLAND,9,7,2,3,N,N,N,,3318.21875,270.604900821173
479,Yorktown at Saratoga Pl,Yorktown Commons,Y,,Yorktown,Yorktown at N Dondil Pl,3497,1599 DONDILL PL,19122,N/A,,0.10026945,POCKET_PARK,BREEZEWAY_ISLAND,10,6,5,22,N,N,N,,691.8203125,136.999599352069
480,Yorktown at Queens Pl,Yorktown Commons,Y,,Yorktown,,3498,1501 QUEENS PL,19122,N/A,,0.12990782,POCKET_PARK,BREEZEWAY_ISLAND,10,6,5,22,N,N,N,,896.3203125,144.796838844761
481,Yorktown at Betsy Ross Pl,Yorktown Commons,Y,,Yorktown,Yorktown at S Dondil Pl,3499,1401 DONDILL PL,19122,N/A,,0.09913636,POCKET_PARK,BREEZEWAY_ISLAND,10,6,5,22,N,N,N,,683.9765625,135.14207685482
482,Yorktown at Guilford Pl,Yorktown Commons,Y,,Yorktown,,3500,1400 GUILFORD PL,19122,N/A,,0.12570272,POCKET_PARK,BREEZEWAY_ISLAND,10,6,5,22,N,N,N,,867.26953125,141.941051556176
483,Yorktown at Patrick Henry,Yorktown Commons,Y,,Yorktown,,3501,1220 PATRICK HENRY PL,19122,N/A,,0.22130851,POCKET_PARK,BREEZEWAY_ISLAND,10,6,5,22,N,N,N,,1526.80078125,194.979257773413
484,Yorktown at Kings Pl,Yorktown Commons,Y,,Yorktown,,3502,1303 KINGS PL,19122,N/A,,0.10000667,POCKET_PARK,BREEZEWAY_ISLAND,10,6,5,22,N,N,N,,689.953125,126.261657342485
485,Yorktown Commons,Yorktown Commons,N,,Yorktown,,3618,,19122,N/A,"1599 DONDILL PL; 1501 QUEENS PL; 1401 DONDILL PL; 1400 GUILFORD PL; 1220 PATRICK HENRY PL; 1303 KINGS PL",0.77633167,NEIGHBORHOOD_PARK,BREEZEWAY_ISLAND,10,6,5,22,Y,Y,N,,5356.13671875,880.120481710596
486,Lucien E Blackwell Park,Lucien E Blackwell Park,N,Lucien E. Blackwell Park,Blackwell,Mill Creek Park,3835,4615 FAIRMOUNT AVE,19139,4615 FAIRMOUNT AVE,,2.05984969,NEIGHBORHOOD_PARK,MISC_PARK,8,8,3,16,Y,Y,N,PPR has long term lease of land from PHA.,14207.46875,482.730046530542
487,Fish Hatchery at Pleasant Hill Park,Pleasant Hill Park,Y,,Fish Hatchery,"Torresdale Fish Hatchery;Pleasant Hill Beach;Fish Hatchery Boat Ramp/Launch",1255,9201 N DELAWARE AVE,19136,9201 N DELAWARE AVE,"Delaware River & Linden;8900 N DELAWARE AVE;9200 DELAWARE AVE;5220 LINDEN AVE",37.53187179,NEIGHBORHOOD_PARK,RECREATION_SITE,1,1,6,8,N,N,N,Former PWD Site,259457.95703125,3119.5962228912
488,Vine Street Park (95),Vine Street Park,Y,,Vine St Park, ,2798,VINE STREET EXP,19107,,,7.16202553,NEIGHBORHOOD_PARK,GREENWAY_PARKWAY,10,5,1,6,N,N,N,Vine Street Expressway Agreement with PENNDOT 4/22/1986,49387.3046875,3601.83525415174
489,Vine Street Park (676),Vine Street Park,Y,,Vine St Park, ,2798,VINE STREET EXP,19107,,,4.70609579,NEIGHBORHOOD_PARK,GREENWAY_PARKWAY,"7, 10",5,"1, 5","6, 9",N,N,N,Vine Street Expressway Agreement with PENNDOT 4/22/1986,32453.3046875,9101.83026186273
490,Vine Street Park,Vine Street Park,N,,Vine St Park, ,2798,VINE STREET EXP,19107,,,11.86812132,NEIGHBORHOOD_PARK,GREENWAY_PARKWAY,"7, 10",5,"1, 5","6, 9",Y,Y,N,Vine Street Expressway Agreement with PENNDOT 4/22/1986,81840.609375,12703.6655160145
491,Burholme Park Driving Range,Burholme Park,Y,,Burholme Range,Burholme Family Fun Center,489,401 W COTTMAN AVE,19111,7370 CENTRAL AVE,"Cottman & Central;7370 CENTRAL AVE",12.33298596,NEIGHBORHOOD_PARK,ATHLETIC_GOLF,1,1,10,2,N,N,N,,85322.68359375,1178.90279174713
492,Fairmount Drainage Rights of Way,Fairmount Drainage Rights of Way,N,,Fairmount Drain ROW, ,3495,,0,,,174.48943513,WATERSHED_PARK,CONSERVATION_DRAINAGE_WATERSHED,1,1,"6, 10","7, 8",N,N,N,,1207786.28125,27411.2183700186
493,Morris and Penn Park,Morris and Penn Park,N,,Morris and Penn,West Penn Playground,3830,353 W PENN ST,19144,"351 W PENN ST; 353 W PENN ST; 355 W PENN ST","351-55 W PENN ST;351 W PENN ST; 353 W PENN ST; 355 W PENN ST",0.09678997,POCKET_PARK,MISC_PARK,4,4,8,39,Y,Y,N,IN DEVELOPMENT,668.75,104.539358391311
494,Peters Island,Peters Island,N,,Peters Island,,3111,,19131,,,1.91202987,NEIGHBORHOOD_PARK,CONSERVATION_DRAINAGE_WATERSHED,7,5,4,16,Y,Y,N,,13182.78515625,668.236137438761
495,Parkside Fields,West Fairmount Park,Y,,Parkside Fields,,0,5351 PARKSIDE AVE,19131,,,0.84955026,NEIGHBORHOOD_PARK,ATHLETIC_OTHER,7,5,4,19,N,Y,N,,5863.15234375,312.012720905631
496,Manayunk Bridge,Manayunk Bridge,N,Manayunk Bridge,Manayunk Bridge,Dupont & High St,0,100 DUPONT ST,19127,111 DUPONT ST,"High St and Dupont St;111 DUPONT ST",1.9092385,NEIGHBORHOOD_PARK,GREENWAY_PARKWAY,4,4,4,5,Y,Y,N,"PPR has a long term lease with SEPTA for this site (Manayunk Canal, Ivy Ridge Branch (Cynwyd Branch)); Elevated Bridge goes over PPR Site Manayunk Canal",13192.09375,1798.94218721171
497,Ivy Ridge Greenway,Ivy Ridge Greenway,N,,Ivy Ridge,"Ivy Ridge Branch;Cynwyd Branch",0,4850 UMBRIA ST,19127,4850 UMBRIA ST,4850 UMBRIA ST,3.6685471,NEIGHBORHOOD_PARK,UNDEVELOPED,4,4,4,5,N,N,N,"Undeveloped Greenway/Breezeway; PPR has a long term lease with SEPTA for this site (Manayunk Canal, Ivy Ridge Branch (Cynwyd Branch))",25352.67578125,2593.64472792097
498,Dr Martin Luther King Jr Older Adult Center,Dr Martin Luther King Jr Older Adult Center,N,"Dr. Martin Luther King, Jr. Older Adult Center",King Older Adult Center,M.L. King Older Adult Center,3078,2102 W CECIL B MOORE AVE,19121,"2100-06 CECIL B MOORE AVE; 2100-04 CECIL B MOORE AVE","2100-06 CECIL B MOORE AVE; 2100-04 CECIL B MOORE AVE",0.33110061,POCKET_PARK,OLDER_ADULT_CENTER,6,6,5,22,Y,Y,Y,Formerly a Redevelopment site,2284.7265625,197.563800699177
499,Dr Martin Luther King Jr Recreation Center,Dr Martin Luther King Jr Recreation Center,N,"Dr. Martin Luther King, Jr. Recreation Center",King Rec,ML King Recreation Center,1985,2101 W CECIL B MOORE AVE,19121,2101-35 CECIL B MOORE AVE,2101-35 CECIL B MOORE AVE,5.25374198,NEIGHBORHOOD_PARK,RECREATION_SITE,6,6,5,22,Y,Y,Y,,36254.09375,760.502501414181
500,Devereaux Ave Trailhead at K and T Trail,Devereaux Ave Trailhead at K and T Trail,N,,,,0,5298 DEVEREAUX AVE,19135,STREET ROW - Legal Card LC008654,,0.24867724,POCKET_PARK,GREENWAY_PARKWAY,2,2,6,15,N,Y,N,Parking lot trailhead for the K&T Trail,1717.6328125,180.743253608873
501,Basilica Green,Benjamin Franklin Parkway,Y,,Basilica Green,,3123,1773 RACE ST,19103,201-07 N 18TH ST,201-07 N 18TH ST,0.23518769,POCKET_PARK,GREENWAY_PARKWAY,7,5,5,9,N,Y,N,,1621.7421875,165.434295809266
502,31st and York Courts,31st and York Courts,N,,31st and York,Strawberry Mansion 31st and York Pocket Park,3832,3101 W YORK ST,19132,2400-06 N 31ST ST,2400-06 N 31ST ST,0.22689783,POCKET_PARK,ATHLETIC_OTHER,6,6,5,22,Y,Y,N,,1566.296875,166.36188221404
503,31st and Cumberland Play Lot,31st and Cumberland Play Lot,N,,31st and Cumberland,Strawberry Mansion 31st and Cumberland Pocket Park,3833,2462 N 31ST ST,19132,2458-62 N 31ST ST,2458-62 N 31ST ST,0.20888781,POCKET_PARK,MISC_PARK,6,6,5,22,Y,Y,N,,1442.015625,160.101189228674
504,31st and Huntingdon Play Lot,31st and Huntingdon Play Lot,N,,31st and Huntingdon,"Napa Street Playground; Strawberry Mansion 31st and Huntingdon Pocket Park",3834,2550 N 31ST ST,19132,2548-56 N 31ST ST,2548-56 N 31ST ST,0.22439853,POCKET_PARK,MISC_PARK,6,6,5,22,Y,Y,N,,1549.14453125,171.781001179808
505,Carpenter Green Park,Carpenter Green Park,N,,Carpenter Green,"Carpenter's Green;17th and Carpenter Play Lot; Carpenter Green Park and Greenspace",3831,920 S 17TH ST,19146,914-28 S 17TH ST,914-28 S 17TH ST,0.28240636,POCKET_PARK,SQUARE_PLAZA,7,7,2,17,Y,Y,N,Maintenance is split between PPR and the FCGP.,1946.3515625,184.887743218821
506,South Philadelphia High School Park,South Philadelphia High School Park,N,,S Phila HS Park,,3839,2125 S BROAD ST,19148,2101 S BROAD ST,"2101-49 S BROAD ST;2101 S BROAD ST",0.53898164,NEIGHBORHOOD_PARK,UNDEVELOPED,9,7,1,3,Y,Y,N,School District land leased to PPR.,3713.05078125,421.112361960828
507,Fletcher B Amos Playground,Fletcher B Amos Playground,N,Fletcher B. Amos Playground,Amos,,1809,1843 N 16TH ST,19121,1817-59 N 16TH ST,"1817-59 N 16TH ST;1839 N 16TH ST",1.01672898,NEIGHBORHOOD_PARK,RECREATION_SITE,6,6,5,22,Y,Y,Y,,7016.18359375,383.238357227692
508,Bartrams Mile Trail Greenway,Bartrams Mile Trail Greenway,N,,Bartrams Greenway,"Bartram's Mile; Bartrams South",0,,19143,,,9.2170296,NEIGHBORHOOD_PARK,GREENWAY_PARKWAY,9,8,3,"12,18",Y,Y,N,In Development,63509.93359375,2635.37571853545
509,Rail Park,Rail Park,N,The Rail Park,Rail Park,,3838,1250 NOBLE ST,19123,,1136 CALLOWHILL ST,0.87211244,NEIGHBORHOOD_PARK,GREENWAY_PARKWAY,10,5,1,6,Y,Y,N,Elevated former railway. ,6009.94140625,825.079151054729
510,11th and Venango Play Lot,11th and Venango Play Lot,N,,11th and Venango,Williams Reed Moore Memorial Park,3079,3600 N 11TH ST,19140,3600 N 11TH ST,3600 N 11TH ST,0.97286459,NEIGHBORHOOD_PARK,RECREATION_SITE,6,3,5,25,Y,Y,N,"Former School District Site that was acquired by the City/PPR in 2020. Renovation in 2021, name change ordinance should be introduced Fall 2021.",6718.48046875,325.853704355961
511,Maplewood Mall Plazas,Maplewood Mall Plazas,N,,Maplewood,,3840,1 W ARMAT ST,19144,"5530-34 GERMANTOWN AVE; 5537-41 GREENE ST","5530-34 GERMANTOWN AVE; 5537-41 GREENE ST; Germantown Ave & W Armat St; Greene St & W Armat St",0.40225827,POCKET_PARK,SQUARE_PLAZA,4,4,8,14,Y,Y,N,PPR is responsible for the northern and southern plazas. Other portions of the property maintained by Streets and Germantown Special Services District.,2781.39453125,310.008534490454
512,Nicetown Park,Nicetown Park,N,,Nicetown,Nicetown Triangle,2957,4301 GERMANTOWN AVE,19140,"4327-43 N GRATZ ST;4327R N GRATZ ST;4301-05 GERMANTOWN AVE;4369-71 GERMANTOWN AVE;1822-30 W CAYUGA ST","4301 GERMANTOWN AVE;4377 GERMANTOWN AVE;4377 GERMANTOWN AVE;4369-71 GERMANTOWN AVE;1822-30 W CAYUGA ST",2.84345519,NEIGHBORHOOD_PARK,MISC_PARK,3,4,8,39,Y,Y,N,DPP Ownership/Missing Central Piece is School District,19644.1484375,1282.09353908268
513,Wissahickon East,Wissahickon East,N,,Wissahickon East,,3093,7530 ANDERSON ST,19119,,"7530 ANDERSON ST, 315 WOODBROOK LN",5.614821,NEIGHBORHOOD_PARK,CONSERVATION_DRAINAGE_WATERSHED,4,4,8,14,Y,N,N,Not completely parcelized,38846.41796875,951.52377046805
514,Ottinger Tract,Ottinger Tract,N,,Ottinger, ,2807,7808 NIXON ST,19128,"7808 NIXON ST, 7868 NIXON ST",7868 NIXON ST,4.48294957,NEIGHBORHOOD_PARK,CONSERVATION_DRAINAGE_WATERSHED,4,4,4,5,Y,N,N,,30993.546875,1441.50508308208
515,25th and Dauphin District Headquarters,25th and Dauphin District Headquarters,N,,25th and Dauphin (District HQ),"Maintenance Division;Neighborhood Parks and Construction Unit Headquarters;District 6 Satellite Office",718,2501 W SEDGLEY AVE,19132,"2503-09 W SEDGLEY AVE;2200-08 N 25TH ST","2503-09 W SEDGLEY AVE;2200-08 N 25TH ST",0.46465035,POCKET_PARK,OPERATIONS,6,6,5,22,N,N,N,"DPP is the owner/administrator of land and building, PPR leases land and building from DPP.",3207.203125,278.243037133301
516,Sedgely and Fletcher Warehouse,Sedgely and Fletcher Warehouse,N,,Sedgely Warehouse,"Sedgley Storeroom;Maintenance Warehouse",3103,2528 W SEDGLEY AVE,19132,2528-34 W SEDGLEY AVE,"W Sedgley Ave & N 26th St;2528-34 W SEDGLEY AVE",0.77390188,NEIGHBORHOOD_PARK,OPERATIONS,6,6,5,22,N,N,N,School District leases to PPR.,5341.640625,356.178092436914
517,Bartrams Mile Trail Greenway (56th),Bartrams Mile Trail Greenway,Y,,Bartrams Greenway,"Bartram's Mile; Bartrams South",3100,3101 S 56TH ST,19143,3101 S 56TH ST,"3101 S 56TH ST;3000 S 56TH ST",3.90991478,NEIGHBORHOOD_PARK,GREENWAY_PARKWAY,9,8,3,12,N,N,N,Partially Developed. Southern Portion in plans for development,26938.65625,1408.51967271201
518,Bartrams Mile Trail Greenway (Grays Ferry),Bartrams Mile Trail Greenway,Y,,Bartrams Greenway,"Bartram's Mile North End;Bartram's Trail Extension",3791,1637 S 49TH ST,19143,1637 S 49TH ST,"S 49TH ST and BOTANIC AVE;1637 S 49TH ST;1633 S 49TH ST;1699 S 49TH ST",5.30711482,NEIGHBORHOOD_PARK,GREENWAY_PARKWAY,9,8,3,18,N,N,N,,36571.26953125,1226.85581368776
519,Fox Chase - Lorimer Trail Greenway (Rhawn),Fox Chase - Lorimer Trail Greenway (Rhawn),N,,Fox Chase-Lorimer Greenway,,99999,439 RHAWN ST,19111,,"Rhawn St and Elberon Ave;8217 BURHOLME AVE",3.58935629,NEIGHBORHOOD_PARK,UNDEVELOPED,1,1,10,7,Y,N,N,No Public Access. Undeveloped Land awaiting Fox Chase - Lorimer Trail.,24840.66796875,2152.44809892438
520,Philadelphia Museum of Art,East Fairmount Park,Y,The Philadelphia Museum of Art,Museum of Art,Art Museum Complex,3463,2600 BENJAMIN FRANKLIN PKY,19130,2500 SPRING GARDEN ST,"26th & Ben Franklin Pkwy;2500 SPRING GARDEN ST;2850 ANNE DHARNONCOURT WAY",24.54730276,NEIGHBORHOOD_PARK,MUSEUM,7,5,5,9,N,Y,N,,169316.6484375,1983.04899674222
521,Boone Park,Boone Park,N,,Boone,Manayunk Park,602,4200 BOONE ST,19128,"4200 BOONE ST, 4171 CHURCHVIEW ST","Boone & Churchview;4171 CHURCHVIEW ST",1.80264015,NEIGHBORHOOD_PARK,CONSERVATION_DRAINAGE_WATERSHED,4,4,4,5,Y,N,N,,12455.51953125,909.895815993722
522,Loretto and Gilham Triangle,Loretto and Gilham Triangle,N,,Loretto and Gilham,"Cranford Ave andd Magee Ave Traffic Island; Northeast Garden",245,1385 GILHAM ST,19111,Registry - 144N070092,6540 LORETTO AVE,0.16159592,POCKET_PARK,BREEZEWAY_ISLAND,2,1,9,2,Y,Y,N,,1116.8671875,144.694698041696
523,Spring Gardens,Spring Gardens,N,The Spring Gardens,Spring Gardens,,3800,1828 NORTH ST,19130,"1818-28 NORTH ST;1832 NORTH ST;1801-33 WALLACE ST;629-35 N 19TH ST;620-24 N 18TH ST ","1818-28 NORTH ST;1832 NORTH ST;1801-33 WALLACE ST;629-35 N 19TH ST;620-24 N 18TH ST",1.96308068,NEIGHBORHOOD_PARK,URBANAGRICULTURE_GARDEN,7,6,5,9,Y,Y,N,Lease from 2021-2036.,13540.66796875,489.451075034604
